FACILITY NAME,ALT_FAC_NAME,UNIT NAME,CLASS,TYPE,REGION,PSGC_1,PROVINCE,PSGC_2,CITY/MUNICIPALITY,PSGC_3,BARANGAY,PSGC_4,STREET ADDRESS,UPDATED TEL NUMBER,Latitude,Longitude,EMAIL,SCHEDULE,WEBSITE,FB,COMMENTS,CONTRIBUTOR,SOURCE,
Bioscan Clinical Laboratory,,,,Identified HIV Testing/Counselling Facility,NCR,,Metropolitan Manila,,Caloocan City,,,,"Unit 9-J Teodoro St., 4th Ave. Grace Park",63 2 3616208,14.643619,120.982688,,,,https://www.facebook.com/Bioscan92/,,Mikko Tamura; Franklin Maraya,https://data.gov.ph/?q=dataset/hiv-testing-hospitals,
Caloocan Social Hygiene Clinic,,,Government,Identified HIV Testing/Counselling Facility,NCR,,Metropolitan Manila,,Caloocan City,,,,Social Hygiene Clinic Physician Mabini St. Caloocan Health Department,63 2 2888811 loc. 2281; 63 9176018331,14.65139,120.97144,caloocan_healthdept@yahoo.com,,https://www.govserv.org/PH/Caloocan/1626906194249580/Social-Hygiene-Clinic---SHC-Caloocan,,,Carmela Magayanes,https://www.webbline.com/hiv-testing-centers/,
Centralle Medical ( Camarin Branch),,,Private,Identified HIV Testing/Counselling Facility,NCR,,Metropolitan Manila,,Caloocan City,,Camarin,,"Units 5–7 Greeneco Bldg., Old Zabarte Road",63 2 8961717; 63 2 89616834,14.757265,121.043852,info@centrallemedical.com,Mo-Su 06:30-17:30,http://centrallemedical.com,,,Levin Daran,https://www.webbline.com/hiv-testing-centers/,
Centralle Medical (Caloocan Branch),,,Private,Identified HIV Testing/Counselling Facility,NCR,,Metropolitan Manila,,Caloocan City,,,,"G/F First AMIJI Mansion 6th Ave., Cor M.H. Del Pilar St., Caloocan City",63 2 83669068; 63 2 83301596; 63 2 83610106,14.646024,120.984614,info@centrallemedical.com,Mo-Sa 06:30-18:00; Su 07:00-12:00,http://centrallemedical.com/caloocan,,,Allen Motas; Carmela Magayanes,https://www.webbline.com/hiv-testing-centers/,
Dr. Jose N. Rodriguez Memorial Hospital,Tala Hospital,,Government,Treatment Hub,NCR,,Metropolitan Manila,,Caloocan City,,,,"St. Joseph Avenue, Tala Caloocan",63 9455861281; 63 9209824758; 63 39253547547; 63 9174592984,14.766762,121.064793,drjnrmh2003@yahoo.com,Mo-Th 08:00-19:00,http://djnrmh.doh.gov.ph,https://www.facebook.com/officialtalahospital/,,Mikko Tamura,https://www.doh.gov.ph/sites/default/files/statistics/HIV_2019_April.pdf,
Fatima University Medical Center,,,,Identified HIV Testing/Counselling Facility,NCR,,Metropolitan Manila,,Caloocan City,,,,"120 MacArthur Highway, Valenzuela, 1440 Metro Manila",63 2 2916538; 63 9436850828,14.678055,120.980248,fumcwebemail@gmail.com,Mo-Su 08:00-17:00,https://www.fumc.com.ph,,,Carmela Magayanes,https://data.gov.ph/?q=dataset/hiv-testing-hospitals,
Manila Central University Hospital (MCU Hospital),,,,Identified HIV Testing/Counselling Facility,NCR,,Metropolitan Manila,,Caloocan City,,,,"MCU Hospital, EDSA, Caloocan City",63 2 3672031to 45,14.65773,120.98708,customercare@mcuhospital.org,24-Jul,www.mcuhospital.org,,,Carmela Magayanes,https://data.gov.ph/?q=dataset/hiv-testing-hospitals,
Las Piñas City Medical Center and Laboratory,,,,Identified HIV Testing/Counselling Facility,NCR,,Metropolitan Manila,,Las Piñas City,,,,"#1314 Marcos Alvarez Ave. Talon V, Las Piñas City",63 2 8005695; 63 98000825,14.429708,121.003542,info@citymed.com.ph,,X,https://www.facebook.com/citymedph,,Mikko Tamura; Carmela Magayanes,https://data.gov.ph/?q=dataset/hiv-testing-hospitals,
Las Piñas City Social Hygiene Clinic,,,Government,Primary HIV Care Facility,NCR,,Metropolitan Manila,,Las Piñas City,,,,"Barrio Hall, Alabang-Zapote Road, Almansa, Las Piñas City",63 2 88178819; 63 2 8006406; 63 2 8739145; 63 9954364920,14.4332152,121.0131624,lpc.socialhygiene@gmail.com,Mo-Fr 08:00-16:00,X,https://www.facebook.com/pages/category/Medical-Center/Las-Pinas-Social-Hygiene-Clinic-101387847179813/,,Iosif,https://www.doh.gov.ph/sites/default/files/statistics/HIV_2019_April.pdf,
University of Perpetual Help Rizal Medical Center,,,Private,Identified HIV Testing/Counselling Facility,NCR,,Metropolitan Manila,,Las Piñas City,,,,"Alabang Zapote Road, Pamplona 3, Las Piñas City, 1740",63 2 8748515 loc. 221; 63 2 8737210,14.448322,120.985756,,,https://phmc.com.ph/,,,Mikko Tamura,https://data.gov.ph/?q=dataset/hiv-testing-hospitals,
Angelus Medical Clinic,,,Private,Identified HIV Testing/Counselling Facility,NCR,,Metropolitan Manila,,Makati City,,,,"1730 Dian St, Barangay Palanan, Makati City",63 2 87438717-21; 63 2 82887927,14.557279,121.003546,info@angelusmed.com,Mo-Fr 08:00-17:00,https://angelusmed.com/,,,Mikko Tamura,https://data.gov.ph/?q=dataset/hiv-testing-hospitals,
Asia Pacific Medical and Diagnostic Services Inc.,,,Private,Identified HIV Testing/Counselling Facility,NCR,,Metropolitan Manila,,Makati City,,,,"3/F Alscophil Bldg. 2053 Edison Cor. Faraday St., San Isidro",63 2 8872145; 63 2 8871865,14.553693,121.003434,info@apdiags.com,Mo-Fr 07:30-17:30; Sa 07:30-16:30,www.apdiags.com,,,Mikko Tamura; Carmela Magayanes,https://data.gov.ph/?q=dataset/hiv-testing-hospitals,
Clinilab Medical Services Inc.,,,,Identified HIV Testing/Counselling Facility,NCR,,Metropolitan Manila,,Makati City,,,,"2/F Orchid Tower Oriental Gardens, Don Chino Roces Ave.",63 2 7298966,14.558899,121.012202,info@clinilabmedical.com,,,,,,https://data.gov.ph/?q=dataset/hiv-testing-hospitals,
Halcyon Marine HealthCare Systems,,,Private,Identified HIV Testing/Counselling Facility,NCR,,Metropolitan Manila,,Makati City,,,,"222 Sen. Gil J. Puyat Avenue Ground and 3rd Floors, Maria Cornelia Building, Makati 1230",63 2 8640213-14 loc. 115; 63 2 8640262,14.559036,121.010588,inquiry@halcyonmarine.com.ph,Mo-Fr 06:00-18:00; Sa 8:00-14:00,https://www.halcyonmarine.com.ph,,,Carmela Magayanes,https://data.gov.ph/?q=dataset/hiv-testing-hospitals,
HealthLab and Medical Services Inc.,,,Private,Identified HIV Testing/Counselling Facility,NCR,,Metropolitan Manila,,Makati City,,,,"Suite 802 and 1601 Medical Plaza Makati Bldg, Makati City",63 2 8671140; 63 2 8671141,14.558369,121.014375,healthlabinc@gmail.com,,http://www.healthlab.com.ph/,,,Carmela Magayanes,https://data.gov.ph/?q=dataset/hiv-testing-hospitals,
Hi-Precision Diagnostics (Rockwell Branch),,,Private,Identified HIV Testing/Counselling Facility,NCR,,Metropolitan Manila,,Makati City,,,,"R3 Level 324A Rockwell Power Plant Mall, Makati City",63 9228906667; 63 9178481765; 63 2 84780377; 63 2 84048120,14.563932,121.036372,info@hiprecision.com.ph,Mo-Sa 06:45-18:00; Su 06:45-17:00,https://www.hi-precision.com.ph/branch.do?item_id=1024247044&mobile_selected=true,,,"Papu Torres, Carmela Magayanes",https://www.webbline.com/hiv-testing-centers/,
Makati Medical Center,,CTTM,Private,Treatment Hub,NCR,,Metropolitan Manila,,Makati City,,,,"#2 Amorsolo St., Legaspi Village, Makati City",63 2 8888999 loc. 2134; 63 9178014314; 63 9066618618; 63 9182823363,14.55924,121.01479,mmc@makatimed.net.ph,24-Jul,https://www.makatimed.net.ph,,,Mikko Tamura,https://www.doh.gov.ph/sites/default/files/statistics/HIV_2019_April.pdf,
Makati Social Hygiene Clinic,,,Government,Identified HIV Testing/Counselling Facility,NCR,,Metropolitan Manila,,Makati City,,,,"Social Hygiene Clinic 7th floor Makati City Hall building 1 JP Rizal Street, Makati, 1200 Metro Manila",63 2 8701000; 63 2 8701615,14.57059,121.027448,,Mo-Fr 08:00-17:00,X,https://www.facebook.com/pages/category/Medical-Center/Makati-Social-Hygiene-Clinic-710036596017890/,,"Adam Banto, Carmela Magayanes",https://www.webbline.com/hiv-testing-centers/,
Medical Towers Laboratory and Diagnostic Center,,,,Identified HIV Testing/Counselling Facility,NCR,,Metropolitan Manila,,Makati City,,,,"Suite 510-512 Medical Towers Bldg, VA Rufino, Makati City",63 2 8183175,14.556998,121.01773,,,,,,,https://data.gov.ph/?q=dataset/hiv-testing-hospitals,
Ospital ng Makati,OsMak,,Government,Identified HIV Testing/Counselling Facility,NCR,,Metropolitan Manila,,Makati City,,,,"Sampaguita St., Cor. Dahlia St., Fort Bonifacio, Makati City","63 2 5246061 loc. 354,358",14.546425,121.061747,,,X,https://www.facebook.com/OspitalngMakatiOsmak/,,Mikko Tamura,https://data.gov.ph/?q=dataset/hiv-testing-hospitals,
P and D Peralta Medical Clinic Laboratory,,,Private,Identified HIV Testing/Counselling Facility,NCR,,Metropolitan Manila,,Makati City,,,,"3rd Filipino Bldg. 1355 Dela Rosa St Cor. Legazpi Village,.Makati City",63 2 8172632; 63 2 8100820,14.558147,121.016501,,Mo-Sa 10:00-18:00,https://www.practo.com/makati/clinic/p-and-d-peralta-medical-clinic-makati-city,,,Carmela Magayanes,https://data.gov.ph/?q=dataset/hiv-testing-hospitals,
PTC Health Metrics Inc.,,,Private,Identified HIV Testing/Counselling Facility,NCR,,Metropolitan Manila,,Makati City,,,,"Merry Land Bldg.
1157 Chino Roces Ave., San Antonio Village 1203,
Makati City, Philippines",63 2 77951234; 63 2 82409000; 63 917851613; 63 9178519614,14.564545,121.011929,info@healthmetrics.com.ph,,https://www.healthmetrics.com.ph/,,,Carmela Magayanes,https://data.gov.ph/?q=dataset/hiv-testing-hospitals,
"RGO Laboratory and Industrial Diagnostic Center, Inc.",,,,Identified HIV Testing/Counselling Facility,NCR,,Metropolitan Manila,,Makati City,,,,"Emiluz Bldg, 1980 M. Reyes Street, Bangkal, Makati City",63 2 88891311; 63 2 88431853; 63 2 88894944; 63 2 88214709,14.544117,121.010298,rgolaboratory@gmail.com,Mo-Fr 08:00-18:00,https://www.rgolab.com.ph/,,,Carmela Magayanes,https://data.gov.ph/?q=dataset/hiv-testing-hospitals,
"RNL Medical and Diagnostic Center, Inc.",,,,Identified HIV Testing/Counselling Facility,NCR,,Metropolitan Manila,,Makati City,,,,"5th Floor Wisma Cyberhub Building No. 45 Gil Puyat Ave., Makati City",63 2 9091244,14.556067,121.00334,,,http://rnlmedicalclinic.com/,,,Carmela Magayanes,https://data.gov.ph/?q=dataset/hiv-testing-hospitals,
"Sacred Heart Diagnostic Medical Clinic, Inc.",,,,Identified HIV Testing/Counselling Facility,NCR,,Metropolitan Manila,,Makati City,,,,"2nd Floor, Right Wing, Maga Center, Paseo de Magallanes, Makati City",63 2 8530235; 63 2 8530633,14.538676,121.017283,sacredheartdiagnostic@gmail.com,Mo-Fr 08:00-17:00; Sa 08:00-14:00,http://sacredheartdiagnostic.com,,,Carmela Magayanes,https://data.gov.ph/?q=dataset/hiv-testing-hospitals,
Malabon City Social Hygiene Clinic,,,Government,Primary HIV Care Facility,NCR,,Metropolitan Manila,,Malabon,,,,"Maya-Maya St., Corner Dagat-Dagatan Avenue, Longos, 1470 Malabon City",63 2 3733431; 63 9328761221,14.655694,120.962601,malabon.shc@yahoo.com,Mo-Fr 08:00-17:00,X,https://www.facebook.com/SHCMalabon/,,Kevin John Wandaga,https://www.doh.gov.ph/sites/default/files/statistics/HIV_2019_April.pdf,
MicroMedic D' Micro asia Medical Laboratory,,,,Identified HIV Testing/Counselling Facility,NCR,,Metropolitan Manila,,Mandaluyong City,,,,"913 A.T Reyes St., Brgy Poblacion, Mandaluyong City",63 2 5351438,14.58642,121.026,mlaboratory16@yahoo.com,Mo-Su 09:00-18:00,,https://facebook.com/pages/category/Medical-Lab/D-Microasia-Medical-Lab-Inc-127956387312206/,,,https://data.gov.ph/?q=dataset/hiv-testing-hospitals,
Echavez Medical Services,,,,Identified HIV Testing/Counselling Facility,NCR,,Metropolitan Manila,,Mandaluyong City,,,,"Arle Square Unit E, 187 Edsa,Mandaluyong City",63 2 87219776,14.592212,121.057712,echavezm@echavezmedical.com,,,,,,https://data.gov.ph/?q=dataset/hiv-testing-hospitals,
Health Cube Medical Clinics (Shaw Branch),,,Private,Identified HIV Testing/Counselling Facility,NCR,,Metropolitan Manila,,Mandaluyong City,,,,"240 Shaw Blvd, Mandaluyong, 1552 Metro Manila",63 2 6521111,14.591424,121.033128,inquiry@healthcube.com.ph,,https://healthcubemedicalclinics.continuouscare.io/,,,Kevin John Wandaga,https://www.webbline.com/hiv-testing-centers/,
Love Yourself Anglo,,,NGO,Primary HIV Care Facility,NCR,,Metropolitan Manila,,Mandaluyong City,,,,"Unit 5, 3/F, Anglo Building, #715-A Shaw Boulevard, Mandaluyong City",63 9205021007; 63 9995292330; 63 9566151230; 63 9153107336,14.58356,121.05118,info@loveyourself.ph,We-Su 12:00-17:00,http://www.loveyourself.ph/p/hiv-test-sites.html,,,Mikko Tamura,https://www.doh.gov.ph/sites/default/files/statistics/HIV_2019_April.pdf,
Mandaluyong Social Hygiene Clinic,,,Government,Primary HIV Care Facility,NCR,,Metropolitan Manila,,Mandaluyong City,,,,"20 M. Lerma St. cor. Vicencio St, Mandaluyong City",63 2 85467799; 63 2 83558367,14.580167,121.027327,,,X,https://www.facebook.com/shcmanda/,,,https://www.doh.gov.ph/sites/default/files/statistics/HIV_2019_April.pdf,
St. Patrick's Clinic and Laboratory,,,Private,Primary HIV Care Facility,NCR,,Metropolitan Manila,,Mandaluyong CIty,,,,566 Shaw Blvd.,63 2 5339291; 63 2 34917349; 63 9178281278,14.585503,121.048303,spms.efs@gmail.com,,,https://facebook.com/stpatricksclinic/,,Mikko Tamura,https://data.gov.ph/?q=dataset/hiv-testing-hospitals,
Sustained Health Initiatives of the Philippines Clinic,The SHIP Clinic,,NGO,Primary HIV Care Facility,NCR,,Metropolitan Manila,,Mandaluyong City,,,,St. Patrick’s Healthcare Building at 566 Shaw Blvd. Mandaluyong,63 2 4917349,14.586029,121.048199,info@ship.ph,Fr-We 14:00-19:00,http://www.ship.ph/,,,Iosif,https://www.webbline.com/hiv-testing-centers/,
Victor R. Potenciano Medical Center,,,,Identified HIV Testing/Counselling Facility,NCR,,Metropolitan Manila,,Mandaluyong CIty,,,,163 Epifanio delos santos Ave.,63 2 5314911 loc. 236; 63 2 5337957,14.577101,121.050174,info@vrp.com.ph,Fr-We 14:00-19:00,https://www.vrp.com.ph/,,,Mikko Tamura,https://data.gov.ph/?q=dataset/hiv-testing-hospitals,
Agoncillo Medical Clinic,,,,Identified HIV Testing/Counselling Facility,NCR,,Metropolitan Manila,,Manila City,,,,"G/F Bldg 1721, F. Agoncillo St., Malate Manila",63 2 3025288,14.575141,120.990611,agoncillomed@yahoo.com,,,,,Mikko Tamura,https://data.gov.ph/?q=dataset/hiv-testing-hospitals,
Alif Medical and Diagnostic Clinic,,,,Identified HIV Testing/Counselling Facility,NCR,,Metropolitan Manila,,Manila City,,,,3rd Floor Agoncillo Bldg Cor. Pedro Gil Taft Ave. Manila,63 2 4041538; 63 2 5265780,14.576353,120.988437,,,,,,Mikko Tamura,https://data.gov.ph/?q=dataset/hiv-testing-hospitals,
American Out Patient Clinic,,,,Identified HIV Testing/Counselling Facility,NCR,,Metropolitan Manila,,Manila City,,,,"2/F FEMII Bldg., A. Soriano Ave., Intramuros Manila",63 2 85271611; 63 2 85272853,14.593128,120.973314,admin@americanoutpatient.com,,https://americanoutpatient.com/,,,Mikko Tamura,https://data.gov.ph/?q=dataset/hiv-testing-hospitals,
Arguelles Medical Clinic,,,,Identified HIV Testing/Counselling Facility,NCR,,Metropolitan Manila,,Manila City,,,,"1271 Zobel Roxas, Malate, Manila",63 2 5215353,14.565637,121.002558,email@a-md.com,,,,,Mikko Tamura,https://data.gov.ph/?q=dataset/hiv-testing-hospitals,
Asiatic Medical Laboratories Inc.,,,,Identified HIV Testing/Counselling Facility,NCR,,Metropolitan Manila,,Manila City,,,,"Rm. 205 Se Jo Tong Bldg., 808 Ongpin St., Sta Cruz Manila",63 2 7333087; 63 2 7333065,14.612108,121.032882,asiaticmed@yahoo.com,,,https://facebook.com/asiaticmedlab2015/,,Mikko Tamura,https://data.gov.ph/?q=dataset/hiv-testing-hospitals,
Avs Medical Clinic,,,,Identified HIV Testing/Counselling Facility,NCR,,Metropolitan Manila,,Manila City,,,,"2/F, 1214 Arquiza St., Cor. M.H Del Pilar, Ermita,Manila",63 2 5229552,14.577814,120.980229,avsmedicalclinic@yahoo.com,,,https://facebook.com/pages/category/Medical-Service/AVS-Medical-Clinic-INC-1410210992630688/,,Mikko Tamura,https://data.gov.ph/?q=dataset/hiv-testing-hospitals,
Calpe Medical Services and Supplies,,,Private,Identified HIV Testing/Counselling Facility,NCR,,Metropolitan Manila,,Manila City,,,,"1421 A. Mabini St., Ermita, Manila",63 2 9201023,14.575725,120.981998,,,,,,,https://data.gov.ph/?q=dataset/hiv-testing-hospitals,
CBZ Medical Clinic,,,Private,Identified HIV Testing/Counselling Facility,NCR,,Metropolitan Manila,,Manila City,,,,"1507 NFWC Bldg, San Marcelino, Ermita, Manila",63 2 5269133; 63 2 5214736; 63 2 5269133,14.578174,120.989756,,,,,,Mikko Tamura,https://data.gov.ph/?q=dataset/hiv-testing-hospitals,
Centerport Medical Services Inc.,,,Private,Identified HIV Testing/Counselling Facility,NCR,,Metropolitan Manila,,Manila City,,,,"4th Flr Victoria Bldg ., 429 U.N Ave. Cor. L.M., Ermita, Manila",63 2 5260221,14.579447,120.978646,centerportmed@yahoo.com,,,https://facebook.com/pages/category/Home-Health-Care-Service/Centerport-Medical-Services-Inc-121653861663475/,,Mikko Tamura,https://data.gov.ph/?q=dataset/hiv-testing-hospitals,
CEU Clinical Laboratory,,,,Identified HIV Testing/Counselling Facility,NCR,,Metropolitan Manila,,Manila City,,,,No. 9 Mendiola St.,63 2 735686169 loc. 237; 63 2 7356876,14.598308,120.992562,,,,,,,https://data.gov.ph/?q=dataset/hiv-testing-hospitals,
Chinese General Hospital and Medical Center,,,,Identified HIV Testing/Counselling Facility,NCR,,Metropolitan Manila,,Manila City,,,,"286 Blumentritt St., Sta. Cruz",63 2 87114141 loc. 69370,14.625657,120.988404,info@cghmc.com.ph,,https://cghmc.com.ph/online/,https://www.facebook.com/pages/category/Hospital/cghmcofficial,,Mikko Tamura,https://data.gov.ph/?q=dataset/hiv-testing-hospitals,
Clemen's Medical Clinic,,,,Identified HIV Testing/Counselling Facility,NCR,,Metropolitan Manila,,Manila City,,,,"3rd Floor Goodwill Bldg. 1662 Leon Guinto, Malate Manila",63 2 5227920-21; 63 2 5222336,14.575638,120.989733,clemensmedicalclinic101@gmail.com,,http://clemensmedicalclinic.blogspot.com/?m=1,,,,https://data.gov.ph/?q=dataset/hiv-testing-hospitals,
Clinical Occupational Medicine and Treatment Center (CLINICOMED),,,,Identified HIV Testing/Counselling Facility,NCR,,Metropolitan Manila,,Manila City,,,,"470-San Andres Cor. M.H Del Pilar St., Malate, Manila",63 2 5215499; 63 2 5260840,14.568528,120.9849,clinico.admin@clinicomed.com,,https://www.clinicomed.com/home/,,,,https://data.gov.ph/?q=dataset/hiv-testing-hospitals,
Co Medical and Diagnostic Clinic,,,,Identified HIV Testing/Counselling Facility,NCR,,Metropolitan Manila,,Manila City,,,,"Suite 101 Maxim Bldg # 805-809 G. Masankay st, Manila,Binondo, Manila",63 2 2448669,14.601731,120.97491,,,,,,,https://data.gov.ph/?q=dataset/hiv-testing-hospitals,
Dr. Jose Fabella Memorial Hospital,,,Government,Identified HIV Testing/Counselling Facility,NCR,,Metropolitan Manila,,Manila City,,,,"Lope De Vega St., Sta. Cruz Manila","63 2 7345561 loc. 104,115; 63 2 7347146",14.606307,120.983847,fabella_mcc@yahoo.com,,http://fabella.doh.gov.ph/,,,Mikko Tamura,https://data.gov.ph/?q=dataset/hiv-testing-hospitals,
Eastern Doctors Medical Services Inc.,,,Private,Identified HIV Testing/Counselling Facility,NCR,,Metropolitan Manila,,Manila City,,,,"Suite G-1 Bel-Air, Apts. 1020 Roxas Blvd., Ermita Manila",63 2 5215499; 63 2 5260840,14.579547,120.977916,edmsi.marketing@yahoo.com,,https://www.easterndoctorsmedical.com/,,,,https://data.gov.ph/?q=dataset/hiv-testing-hospitals,
Excelsis Medical and Diagnostic Clinic,,,,Identified HIV Testing/Counselling Facility,NCR,,Metropolitan Manila,,Manila City,,,,"101 2nd Flr. Palisade Bldg. Ma. Orosa St., Ermita Manila",63 2 3531110,14.579992,120.982292,,,,,,,https://data.gov.ph/?q=dataset/hiv-testing-hospitals,
First Medical Team Health Care Specialist Group,,,,Identified HIV Testing/Counselling Facility,NCR,,Metropolitan Manila,,Manila City,,,,"4th Flr. San Luis Terraces Bldg., T.M Kalaw, Ermita Manila",63 2 5229782; 63 2 5266107; 63 2 6891430; 63 2 6183362,14.582186,120.981975,firstmedicalteam@yahoo.com,,https://firstmedicalteam.com/,,,,https://data.gov.ph/?q=dataset/hiv-testing-hospitals,
"Galenus Clinic, Inc.",,,,Identified HIV Testing/Counselling Facility,NCR,,Metropolitan Manila,,Manila City,,,,"3/F Ferguson Park Tower M.H. Del Pilar or. A-flores St., Ermita Manila",63 2 5284185; 63 2 5284196; 63 2 5369716,14.578846,120.979407,,,,,,,https://data.gov.ph/?q=dataset/hiv-testing-hospitals,
Health Point Medical Clinic and Diagnostic,,,,Identified HIV Testing/Counselling Facility,NCR,,Metropolitan Manila,,Manila City,,,,"577 Padre Faura St., Ermita, Manila",63 2 5274286; 63 2 5274290,14.578487,120.982927,healthpointclinic@yahoo.com,,,,,,https://data.gov.ph/?q=dataset/hiv-testing-hospitals,
Healthwise Diagnostic Lab,,,,Identified HIV Testing/Counselling Facility,NCR,,Metropolitan Manila,,Manila City,,,,"1417 B Richtown Tower Mayhaligue St., Sta Cruz, Manila",63 2 2544861,14.609129,120.979931,healthwisediagnosticlab@gmail.com; healthwisediagnosticlab@yahoo.com,,,,,,https://data.gov.ph/?q=dataset/hiv-testing-hospitals,
Heartland Medical and Diagnostic Center,,,,Identified HIV Testing/Counselling Facility,NCR,,Metropolitan Manila,,Manila City,,,,"1717 Angel Linao St., Paco Manila",63 2 3031313,14.576207,120.993921,assistant@hhsil.com,,,,,Mikko Tamura,https://data.gov.ph/?q=dataset/hiv-testing-hospitals,
Hi-Precision Diagnostics (Taft Branch),,,Private,Identified HIV Testing/Counselling Facility,NCR,,Metropolitan Manila,,Manila City,,,,"1852 Taft Avenue, Malate, Manila",63 9328908921; 63 9178191761; 63 9338150532; 63 2 84050039; 63 2 84050135,14.572973,120.990275,info@hi-precision.com.ph,Mo-Sa 06:00-17:00,https://www.hi-precision.com.ph/,,,Papu Torres,https://www.webbline.com/hiv-testing-centers/,
Hi-Precision Diagnostics (TM Kalaw Branch),,,Private,Identified HIV Testing/Counselling Facility,NCR,,Metropolitan Manila,,Manila City,,,,"G/F Rm. 102 San Luis Terraces, 638 T.M. Kalaw St.",63 9338193852; 63 9175782256; 63 2 84050151; 63 2 84041441,14.582245,120.982036,info@hi-precision.com.ph,Mo-Sa 06:00-18:00,https://www.hi-precision.com.ph/,,,Papu Torres,https://www.webbline.com/hiv-testing-centers/,
Holy Angel Medical Clinic Inc.,,,,Identified HIV Testing/Counselling Facility,NCR,,Metropolitan Manila,,Manila City,,,,"603 AP Bldg., Pedro Gil St.,Ermita, Manila",63 2 5216112; 63 2 5216114,14.576712,120.98945,holyangelmedicalclinic@yahoo.com,,,https://www.facebook.com/HolyAngelMedicalCliniInc/,,,https://data.gov.ph/?q=dataset/hiv-testing-hospitals,
Hospital of the Infant Jesus,,,,Identified HIV Testing/Counselling Facility,NCR,,Metropolitan Manila,,Manila City,,,,"1556 Laong Laan Road., Sampaloc, Manila",63 2 7312771 loc. 151,14.61415,120.98911,info@hijmc.com,,http://hijmc.com/,,,"Mikko Tamura, Carmela Magayanes",https://data.gov.ph/?q=dataset/hiv-testing-hospitals,
Intercon Diagnostic Labotory Inc. (main),,,,Identified HIV Testing/Counselling Facility,NCR,,Metropolitan Manila,,Manila City,,,,"453 Juan Luna St, Binondo, Manila",63 2 2428061,14.600556,120.97334,interconlab@gmail.com,,https://www.interconlaboratory.com/,,,,https://data.gov.ph/?q=dataset/hiv-testing-hospitals,
International Diagnostic Center Inc.,,,,Identified HIV Testing/Counselling Facility,NCR,,Metropolitan Manila,,Manila City,,,,"1901 IDC Bldg., 429 United Nation Ave., Ermita, Manila",63 2 5366682,14.573657,120.992715,idci@pldtdsl.net,,X,https://facebook.com/IDCIRemedios/,,,https://data.gov.ph/?q=dataset/hiv-testing-hospitals,
International Health Aide Diagnostic Services Inc.,,,,Identified HIV Testing/Counselling Facility,NCR,,Metropolitan Manila,,Manila City,,,,2F Joshua Center Bldg. 1428 Taft Ave. Ermita Manila,63 2 5222772 loc. 105; 63 2 5281086,14.578386,120.987343,ihadsmanila@gmail.com,,,https://facebook.com/ihadsph/,,,https://data.gov.ph/?q=dataset/hiv-testing-hospitals,
JED Diagnostic Center,,,,Identified HIV Testing/Counselling Facility,NCR,,Metropolitan Manila,,Manila City,,,,"3rd Floor Godino Tower, 350 Arroceros St., Ermita Manila",63 2 5225086; 63 2 4005676; 63 2 5225086,14.589127,120.982361,,,,,,,https://data.gov.ph/?q=dataset/hiv-testing-hospitals,
Jose L. Guttierrez Clinic,,,,Identified HIV Testing/Counselling Facility,NCR,,Metropolitan Manila,,Manila City,,,,"2031 M.H. Del Pillar ST.,Malate,Manila",63 2 5232570; 63 2 5248995,14.579666,120.981008,,,,https://facebook.com/JLGClinicPH/,,,https://data.gov.ph/?q=dataset/hiv-testing-hospitals,
Jose R. Reyes Memorial Medical Center,,,Government,Identified HIV Testing/Counselling Facility,NCR,,Metropolitan Manila,,Manila City,,,,"Bldg. 14, DOH Compound, Sta. Cruz, Manila",63 2 7400246; 63 2 7438301 loc. 1702; 63 9228245216,14.61408,120.98199,,,http://www.jrrmmc.gov.ph/,,,Mikko Tamura,https://data.gov.ph/?q=dataset/hiv-testing-hospitals,
Love Yourself Welcome,,,NGO,Identified HIV Testing/Counselling Facility,NCR,,Metropolitan Manila,,Manila City,,,,"858 Blumentritt Road corner Remedios Street, Sampaloc, Manila",63 9672071976,14.615036,121.000086,info@loveyourself.ph,We-Sa 12:00-16:00; Su 09:00-14:00,http://www.loveyourself.ph/?m=1,,,Mikko Tamura,https://www.wheninmanila.com/list-of-clinics-in-philippines-that-offer-free-hiv-testing/,
Manila Doctors Hospital,,The H.U.B. @ MDH,Private,Treatment Hub,NCR,,Metropolitan Manila,,Manila City,,,,"667 United Nations Ave, Ermita, Manila, 1000 Metro Manila",63 2 5580888 loc. 4480; 63 2 5247376; 63 9989557598,14.58217,120.98271,info@maniladoctors.com.ph,"Mo-Fr 08:00-17:00, Sa 08:00-16:00",https://www.maniladoctors.com.ph/,,,Kevin John Wandaga,https://www.doh.gov.ph/sites/default/files/statistics/HIV_2019_April.pdf,
Manila Social Hygiene Clinic,,,Government,Primary HIV Care Facility,NCR,,Metropolitan Manila,,Manila City,,,,"208 Quiricada St, Santa Cruz, Manila, 1003 Metro Manila",63 2 53101326; 63 2 7498273; 63 9089004883; 63 9357472929; 63 9455102130,14.613072,120.981532,manilasocialhygieneclinic@yahoo.com,Mo-Fr 08:00-17:00,X,https://www.facebook.com/ManilaSocialHygiene/,,Adam Banto,https://www.doh.gov.ph/sites/default/files/statistics/HIV_2019_April.pdf,
Maritime Medical and laboratory Clinic Inc.,,,,Identified HIV Testing/Counselling Facility,NCR,,Metropolitan Manila,,Manila City,,,,"2/F Paragon Tower Hotel 531 A. Flores St., Ermita Manila",63 2 5263812; 63 2 5263816,14.579704,120.981116,,,,,,,https://data.gov.ph/?q=dataset/hiv-testing-hospitals,
Mary Johnston Hospital,,MJH Jacob's Well Clinic,,Treatment Hub,NCR,,Metropolitan Manila,,Manila City,,,,"1221 Juan Nolasco Street, Tondo Manila","63 2 2454021 loc. 385,412",14.609039,120.966229,maryjohnstonhospital@yahoo.com.ph,Mo-Fr 08:00-16:00,http://maryjohnston.ph/,,,,https://www.doh.gov.ph/sites/default/files/statistics/HIV_2019_April.pdf,
Med Watch Medical Clinic and Diagnostic center,,,,Identified HIV Testing/Counselling Facility,NCR,,Metropolitan Manila,,Manila City,,,,"1616 Tetra Global Bldg., Pedro Gil Cor. Vasquez, Manila",63 2 4040942,14.575344,120.986999,,,,,,,https://data.gov.ph/?q=dataset/hiv-testing-hospitals,
Medical Center Manila,,,,Identified HIV Testing/Counselling Facility,NCR,,Metropolitan Manila,,Manila City,,,,"1122 Gen. Luna St.,Ermita, Manila",63 2 5238131 loc. 2107,14.58252,120.985406,,,https://www.manilamed.com.ph/,,,,https://data.gov.ph/?q=dataset/hiv-testing-hospitals,
Medway Healthcare Inc.,,,,Identified HIV Testing/Counselling Facility,NCR,,Metropolitan Manila,,Manila City,,,,"G/F 1636 F. Agoncillo St. Malate, Manila",63 2 4040530,14.576211,120.990268,info@medway.com.ph,,http://www.medway.com.ph/,,,,https://data.gov.ph/?q=dataset/hiv-testing-hospitals,
Metropolitan Medical Center,,,,Identified HIV Testing/Counselling Facility,NCR,,Metropolitan Manila,,Manila City,,,,"1357 G. Masangkay St., Sta. Cruz Manila",63 2 2541111 loc. 2101,14.609351,120.978517,customercare@metromedicalcenter.ph,,https://www.mmc.com.ph/,,,Mikko Tamura,https://data.gov.ph/?q=dataset/hiv-testing-hospitals,
MVR Laboratory Diagnostic Center,,,,Identified HIV Testing/Counselling Facility,NCR,,Metropolitan Manila,,Manila City,,,,"Rm 501 Trinity Bldg., 636 T.M Kalaw St., Ermita Manila",63 2 4043755; 63 2 5240515,14.582049,120.981787,,,X,https://facebook.com/pages/category/Medical-Company/MVR-Laboratory-Diagnostic-Center-553055564768894/,,,https://data.gov.ph/?q=dataset/hiv-testing-hospitals,
"Notre Dame Medico Dental Clinics, Inc.",,,,Identified HIV Testing/Counselling Facility,NCR,,Metropolitan Manila,,Manila City,,,,"Elena II Bldg., 1036 J. Nakpil St., Malate, Manila",63 2 5232311 loc. 104,14.575223,120.992562,info@notredameclinic.com,,https://www.notredameclinic.com/,,,,https://data.gov.ph/?q=dataset/hiv-testing-hospitals,
"OCW Medical Clinic, Inc.",,,,Identified HIV Testing/Counselling Facility,NCR,,Metropolitan Manila,,Manila City,,,,"3/F Regent Bldg., 1415 Gen. Luna St., Ermita Manila",63 2 5367513; 63 2 5239176,14.57985,120.989732,admin@ocwmedicalclinic.com.ph; mktg@ocwmedicalclinic.com.ph,,http://www.ocwmedicalclinic.com/,,,,https://data.gov.ph/?q=dataset/hiv-testing-hospitals,
Our Lady of Lourdes Hospital Clinical Laboratory,,,Private,Identified HIV Testing/Counselling Facility,NCR,,Metropolitan Manila,,Manila City,,,,"46 P. Sanchez St., Sta Mesa, Manila","63 2 7163901 loc. 229,287",14.594919,121.022519,marketing@ollh.ph,,,,,Adam Banto,https://data.gov.ph/?q=dataset/hiv-testing-hospitals,
Philippine General Hospital,,Philippine General Hospital-Department of Laboratories,Government,Treatment Hub,NCR,,Metropolitan Manila,,Manila City,,,,"Taft Ave., Manila",63 2 85548400 loc. 3249; 63 9205031104,14.57805,120.98554,,Mo-Fr 08:00-16:00,https://www.pgh.gov.ph/,,,Mikko Tamura,https://www.doh.gov.ph/sites/default/files/statistics/HIV_2019_April.pdf,
Pinoy Plus Advocacy Pilipinas Inc.,,,NGO,Identified HIV Testing/Counselling Facility,NCR,,Metropolitan Manila,,Manila City,,,,"1965-B JRB Building, Anacleto Street, Sta Cruz, Manila,., Manila, Metro Manila",63 2 87437293,14.617831,120.982204,pinoy.plus@yahoo.com.ph,Mo-Fr 08:00-17:00,X,https://facebook.com/PinoyPlusAssociationInc/,,Papu Torres,https://www.webbline.com/hiv-testing-centers/,
Positibong Marino Philippines Inc.,,,NGO,Identified HIV Testing/Counselling Facility,NCR,,Metropolitan Manila,,Manila City,,,,"4th floor, Cabildo St. AMOSUP Seamen’s Center, Intramuros, Manila.",63 9975235171,14.58943,120.97623,admin@positibongmarino.com,,X,https://www.facebook.com/Positibong.MarinoPhil/,,Mikko Tamura,https://www.webbline.com/hiv-testing-centers/,
Positive Action Foundation Philippines Inc.,,,NGO,Identified HIV Testing/Counselling Facility,NCR,,Metropolitan Manila,,Manila City,,,,"2613 Dian St, Malate, Manila, 1004 Metro Manila",63 2 84042911,14.56518,121.000452,_pafpiorg@gmail.com,Mo-Fr 08:30-17:30,https://pafpi.org/,https://www.facebook.com/pafpi.org,,Iosif,https://www.webbline.com/hiv-testing-centers/,
RBG Medical and Dental Clinic,,,Private,Identified HIV Testing/Counselling Facility,NCR,,Metropolitan Manila,,Manila City,,,,"Tesoro Bldg 1353. A. Mabini St., Ermita, Manila",63 2 5211039,14.57633,120.98173,rbg_dtl2006@yahoo.com,,X,https://facebook.com/pages/category/Medical---Health/RBG-MEDICAL-DENTAL-CLINIC-LABORATORY-661072087237810/,,,https://data.gov.ph/?q=dataset/hiv-testing-hospitals,
San Lazaro Hospital,,H4 Pavillion,Government,Treatment Hub,NCR,,Metropolitan Manila,,Manila City,,,,"Quiricada St, Santa Cruz, Manila, Metro Manila",63 9201209330; 63 9178350031; 63 2 3103128; 63 2 732377678,14.613897,120.980609,sanlazarohospital@yahoo.com,Mo-Fr 08:00-16:00,http://slh.doh.gov.ph/,,,,https://www.doh.gov.ph/sites/default/files/statistics/HIV_2019_April.pdf,
Sanda Diagnostic Center,,,,Identified HIV Testing/Counselling Facility,NCR,,Metropolitan Manila,,Manila City,,,,"2/F Sanda Bldg., A Lacson Cor. Laonglaan St., Sampaloc Manila",63 2 4009287; 63 2 7424080,14.613973,120.989054,,,,,,,https://data.gov.ph/?q=dataset/hiv-testing-hospitals,
Sea Landers Diagnostic and Treatment Center,,,Private,Identified HIV Testing/Counselling Facility,NCR,,Metropolitan Manila,,Manila City,,,,"Unit 15 Rothman Hotel, 1633 M. Adriaco St., Manila",63 2 3092629,14.5733665,120.9842288,,,X,https://facebook.com/pages/category/Medical-Center/Sea-Landers-Diagnostic-Treatment-Center-236886446890191/,,,https://data.gov.ph/?q=dataset/hiv-testing-hospitals,
"SM. Lazo Medical Clinic, Inc.",,,,Identified HIV Testing/Counselling Facility,NCR,,Metropolitan Manila,,Manila City,,,,"1766 Taft Ave., Cor. J. Nakpil St., Ermita, Manila",63 2 5241891,14.573711,120.989286,,,https://www.smlazoclinic.com/,,,,https://data.gov.ph/?q=dataset/hiv-testing-hospitals,
St. Luke's Extension Clinic,,,Private,Identified HIV Testing/Counselling Facility,NCR,,Metropolitan Manila,,Manila City,,,,"1177 J. Bacobo St, Ermita, Manila",63 2 5218647 loc. 402; 63 2 85210020; 63 2 85218647; 63 2 85238248,14.579251,120.981701,slec@slec.ph,,https://slec.ph/,,,Mikko Tamura,https://data.gov.ph/?q=dataset/hiv-testing-hospitals,
St. Cecilia Polyclinic,,,Private,Identified HIV Testing/Counselling Facility,NCR,,Metropolitan Manila,,Manila City,,,,"3/F Metrobank Bldg., 1149 A. Mabini St., Ermita Manila",63 2 5262643; 63 2 5262621,14.579066,120.980444,,,http://stcecilia.tripod.com/,,,Mikko Tamura,https://data.gov.ph/?q=dataset/hiv-testing-hospitals,
St. Jude Hospital and Medical Center,,,,Identified HIV Testing/Counselling Facility,NCR,,Metropolitan Manila,,Manila City,,,,"Dimasalang Cor. Don Quijote St., Sampaloc Manila",63 2 7312761 loc. 264; 63 2 7404149,14.615782,120.989005,,,X,https://facebook.com/sjghmc/,,Mikko Tamura,https://data.gov.ph/?q=dataset/hiv-testing-hospitals,
Sta. Ana Hospital,,Clinic 4,Government,Treatment Hub,NCR,,Metropolitan Manila,,Manila City,,,,"2692 New Panaderos Street, 886, Santa Ana Manila, 1009 Metro Manila",63 2 5166790; 63 9093058758,14.58344,121.01628,staanahospital@yahoo.com,,,,,Kevin John Wandaga,https://www.doh.gov.ph/sites/default/files/statistics/HIV_2019_April.pdf,
Supercare Medical Services Inc.,,,,Identified HIV Testing/Counselling Facility,NCR,,Metropolitan Manila,,Manila City,,,,"573 Patria Bldg., Maria Orosa cor. Engracia Reyes (formerly Arkansas St.), Ermita, Manila",63 2 85210024-35,14.579701,120.982334,inquiry@supercare.com.ph,Mo-Fr 07:00-17:00; Sa 08:00-12:00,https://www.supercare.com.ph/,,,Mikko Tamura,https://data.gov.ph/?q=dataset/hiv-testing-hospitals,
"The Family Clinic Hospital Clinic, Inc.",,,,Identified HIV Testing/Counselling Facility,NCR,,Metropolitan Manila,,Manila City,,,,"1474 Maria Clara St. Sampaloc,Manila",63 2 7312901 loc. 228,14.614362,120.987023,,,,,,Mikko Tamura,https://data.gov.ph/?q=dataset/hiv-testing-hospitals,
Tondo Medical Center,,TMC Haven,Government,Treatment Hub,NCR,,Metropolitan Manila,,Manila City,,,,"H. Lopez Blvd. Balut, Tondo, Manila",63 9989446223,14.635001,120.96289,,Mo-Fr 08:00-17:00,http://tmc.doh.gov.ph/,,,,,
United Doctors Medical Center,,,,Identified HIV Testing/Counselling Facility,NCR,,Metropolitan Manila,,Manila City,,,,"290 Espana St., Cor. 6 N. Ramirez St., Sampaloc Manila",63 2 7123640 loc. 113; 63 2 7123270,14.61713,121.0019,,,,,,Mikko Tamura,https://data.gov.ph/?q=dataset/hiv-testing-hospitals,
University of Sto. Tomas Hospital,,,Private,Identified HIV Testing/Counselling Facility,NCR,,Metropolitan Manila,,Manila CIty,,,,Espana Sampaloc Manila,63 2 7313001 loc. 2611; 63 2 7417882; 63 2 7311985,14.611423,120.990154,,,http://www.usthospital.com.ph/,,,maning,https://data.gov.ph/?q=dataset/hiv-testing-hospitals,
Vizcarra Diagnostic Center,,,Private,Identified HIV Testing/Counselling Facility,NCR,,Metropolitan Manila,,Manila City,,,,"Segundina Bldg. 464 U.N Ave. St, Ermita,Manila",63 2 5245641 loc. 217,14.579768,120.979854,,,,,,Mikko Tamura,https://data.gov.ph/?q=dataset/hiv-testing-hospitals,
Good Shepherd Laboratory and Health Diagnostic Services Inc.,,,Private,Identified HIV Testing/Counselling Facility,NCR,,Metropolitan Manila,,Marikina City,,,,"19 G and F Bldg Unit A G/F Bayan-Bayanan Ave., Concepcion, Marikina City",63 2 9427942,14.650783,121.106466,goodshepherdlaboratorygslhdsi@yahoo.com.ph,,,,,maning,https://data.gov.ph/?q=dataset/hiv-testing-hospitals,
Health Stat Diagnostic and Health Center,,,Private,Identified HIV Testing/Counselling Facility,NCR,,Metropolitan Manila,,Marikina City,,,,"83 Unit 15 and 16 Marikina East Center Bldg, Gil Fernando Ave., San Roque, Marikina City",63 2 4770551,14.62483,121.10211,,,,,,maning,https://data.gov.ph/?q=dataset/hiv-testing-hospitals,
Marikina City HIV Satellite Treatment Hub,Marikina Social Hygiene Clinic,,Government,Primary HIV Care Facility,NCR,,Metropolitan Manila,,Marikina City,,,,"3rd floor, City Health Office of Marikina City",63 2 9422497; 63 9178298862; 63 9338644410,14.63628,121.09771,,Mo-Fr 08:00-17:00,,,,maning,https://www.doh.gov.ph/sites/default/files/statistics/HIV_2019_April.pdf,
Alabang Medical Center,,,Private,Identified HIV Testing/Counselling Facility,NCR,,Metropolitan Manila,,Muntinlupa City,,,,"Alabang Zapote Rd, Alabang, Muntinlupa City",63 2 807819; 63 27750511; 63 2 8508498,14.427734,121.024436,alabangmedicalcenter8@yahoo.com,,https://alabangmedicalcenter.webs.com/,https://www.facebook.com/alabangmedicalcenter/,,Mikko Tamura,https://data.gov.ph/?q=dataset/hiv-testing-hospitals,
American Bio-Clinical Laboratories International,,,Private,Identified HIV Testing/Counselling Facility,NCR,,Metropolitan Manila,,Muntinlupa City,,,,"LG 5 Richville Corporate Tower, Madrigal Business Park Ayala Alabang",63 2 8506288; 63 2 8506289; 63 2 8506287,14.426495,121.025229,info@abclab.com.ph,Mo-Sa 06:00-18:00,https://www.abclab.com.ph/abc-laboratories-main/,,,Mikko Tamura,https://data.gov.ph/?q=dataset/hiv-testing-hospitals,
Asian Hospital and Medical Center,,,Private,Treatment Hub,NCR,,Metropolitan Manila,,Muntinlupa City,,,,"2205 Civic Drive Filinvest Corporate City, Alabang Muntinlupa City",63 2 7719000 loc. 154; 63 9989641964,14.413277,121.043655,info@asianhospital.com,Su-Fr 08:00-5:00,http://www.asianhospital.com/,,,Mikko Tamura,https://www.doh.gov.ph/sites/default/files/statistics/HIV_2019_April.pdf,
Health Cube Medical Clinics (Alabang Branch),,,Private,Identified HIV Testing/Counselling Facility,NCR,,Metropolitan Manila,,Muntinlupa City,,,,"2nd floor The Hub Westgate Center, Muntinlupa, 1781 Metro Manila",63 2 8231111,14.422499,121.034197,,,https://healthcubemedicalclinics.continuouscare.io/,,,Kevin John Wandaga,https://www.webbline.com/hiv-testing-centers/,
Hi-Precision Diagnostics (Alabang Branch),,,Private,Identified HIV Testing/Counselling Facility,NCR,,Metropolitan Manila,,Muntinlupa City,,,,"Unit 1,2,3,4 AA Corporate Plaza, Civic Drive Filinvest City, Alabang, Muntinlupa City",63 9338193867; 63 9178713008; 63 2 87763702; 63 2 88005987; 63 2 88005967,14.416377,121.043892,info@hi-precision.com.ph,Mo-Sa 06:00-17:00; Su 06:00-12:00,https://www.hi-precision.com.ph/,,,Papu Torres,https://www.webbline.com/hiv-testing-centers/,
MPI-Medical Center Muntinlupa,,,,Identified HIV Testing/Counselling Facility,NCR,,Metropolitan Manila,,Muntinlupa City,,,,"38 National Road, Brgy Putatan,Muntinlupa City",63 2 8620162 loc. 2101,14.39489,121.045107,,,,,,,https://data.gov.ph/?q=dataset/hiv-testing-hospitals,
Muntinlupa Social Hygiene Clinic,Muntinlupa Reproductive Health and Wellness Center,,Government,Primary HIV Care Facility,NCR,,Metropolitan Manila,,Muntinlupa City,,,,"Corteza Bldg., National Rd., Poblacion, Muntinlupa",63 2 8622460; 63 2 8623965; 63 2 8624012; 63 2 8610689; 63 9171858919,14.395849,121.044757,,"Mo,We,Fr 08:00 -17:00",X,https://www.facebook.com/RHWCRoom101/,,Papu Torres,https://www.webbline.com/hiv-testing-centers/,
Ospital ng Muntinlupa,,,Government,Identified HIV Testing/Counselling Facility,NCR,,Metropolitan Manila,,Muntinlupa City,,,,"Civic Drive, Filinvest Alabang, Muntinlupa City",63 2 7710457 loc. 135; 63 2 7710428,14.414261,121.044109,,,,,,Mikko Tamura,https://data.gov.ph/?q=dataset/hiv-testing-hospitals,
Research Institute for Tropical Medicine - ARG,,RITM ARG,Government,Treatment Hub,NCR,,Metropolitan Manila,,Muntinlupa City,,,,"Supervisor's Office, 2nd floor, main Hospital bldg., Muntinlupa City",63 9269103929; 63 2 8072628 loc. 332,14.40985,121.037,info@ritm.gov.ph,,http://ritm.gov.ph/,https://www.facebook.com/RITMPH/?__tn__=%2Cd%2CP-R&eid=ARDDtDIRaQGe8BKEVDF6bkzYZXYX5cz07OyA634gt920MEYcIT0xZgJfPTHxay0K4vTTIbl5MnVpjbZf,,Papu Torres,https://www.doh.gov.ph/sites/default/files/statistics/HIV_2019_April.pdf,
Wound Algorithm Polyclinic Center,,,Private,Identified HIV Testing/Counselling Facility,NCR,,Metropolitan Manila,,Muntinlupa City,,,,"Civic Prime, 204 building, Civic Dr, Alabang, Muntinlupa",63 2 5121495,14.418433,121.043265,,,,,,Kevin John Wandaga,https://www.webbline.com/hiv-testing-centers/,
Navotas City Social Hygiene Clinic,,,Government,Identified HIV Testing/Counselling Facility,NCR,,Metropolitan Manila,,Navotas City,,,,Tumana Health Center Matangbaka st. Navotas City,63 9186878023,14.649523,120.956664,,,X,https://www.facebook.com/NavotasSHC/,,,https://www.webbline.com/hiv-testing-centers/,
Medical Center Parañaque,,,,Identified HIV Testing/Counselling Facility,NCR,,Metropolitan Manila,,Paranaque City,,,,"Dr A. Santos Ave., Sucat Road, Paranaque",63 2 8261013; 8256911-14 loc. 16; 63 2 88262096,14.45831,121.033793,marketingnew.mcpi@gmail.com,,http://www.medicalcenterparanaque.com/,,,Mikko Tamura,https://data.gov.ph/?q=dataset/hiv-testing-hospitals,
Hi-Precision Diagnostics (Sucat Branch),,,Private,Identified HIV Testing/Counselling Facility,NCR,,Metropolitan Manila,,Parañaque City,,,,"Unit A-4B Jaka Plaza Mall Dr. A Santos Ave, Sucat, Parañaque City",63 9175782237; 63 9338193858; 63 2 88363431; 63 2 84038733,14.465758,121.018216,info@hi-precision.com.ph,Mo-Sa 06:00-17:00; Su 06:00-12:00,https://www.hi-precision.com.ph/,,,Papu Torres,https://www.webbline.com/hiv-testing-centers/,
Lily by Love Yourself,,,NGO,Identified HIV Testing/Counselling Facility,NCR,,Metropolitan Manila,,Parañaque City,,,,"5th Floor, Pineda Building, #98 Manalac Ave., Sitio De Asis, San Martin de Porres, Paranaque City",63 9171555955; 63 9286896422,14.48171,121.045914,info@loveyourself.ph,Tu-Su 12:00-21:00,,,,Mikko Tamura,https://www.wheninmanila.com/list-of-clinics-in-philippines-that-offer-free-hiv-testing/,
Our Lady of Peace Hospital,,,,Identified HIV Testing/Counselling Facility,NCR,,Metropolitan Manila,,Parañaque City,,,,"Coastal Road, Brgy. San Dionisio, Parañaque City",63 2 8295775 loc. 119; 63 2 8257714,14.488514,120.983615,,,,,,Mikko Tamura; Franklin Maraya,https://data.gov.ph/?q=dataset/hiv-testing-hospitals,
Parañaque Doctors Hospital,,,,Identified HIV Testing/Counselling Facility,NCR,,Metropolitan Manila,,Parañaque City,,,,"175 Dona Soledad Ave.,Better Living Subd, Paranaque City",63 2 7760644 loc. 8101,14.486024,121.028515,paranaquedoctors@yahoo.com.ph,,http://paranaquedoctorshospital.com/,,,Mikko Tamura,https://data.gov.ph/?q=dataset/hiv-testing-hospitals,
South Super Highway Medical Center,,,,Identified HIV Testing/Counselling Facility,NCR,,Metropolitan Manila,,Parañaque City,,,,Km 17 West Cavite Rd. Brg. Marcelo,63 2 8235250 loc. 809; 63 2 8218452,14.474941,121.044905,,,,,,Carmela Magayanes,https://data.gov.ph/?q=dataset/hiv-testing-hospitals,
Paranaque City Social Hygiene Clinic,,,Government,Primary HIV Care Facility,NCR,,Metropolitan Manila,,Paranaque Cty,,,,"3rd floor, Right wing, Paranaque City Hall, San Antonio Ave, San Antonio, Parañaque, 1700",63 2 88268219; 63 2 88268195; 63 2 88268229,14.470796,121.022234,shc.paranaque@gmail.com,Mo-Fr 08:00-17:00,,,,IOSIF,https://www.doh.gov.ph/sites/default/files/statistics/HIV_2019_April.pdf,
Centralle Medical (Pasay Branch),,,Private,Identified HIV Testing/Counselling Facility,NCR,,Metropolitan Manila,,Pasay City,,,,"4/F Welcome Plaza, (Old Masagana) Libertad, Pasay City",63 2 8770085; 63 2 8770436,14.546972,120.998912,info@centrallemedical.com,,,,,Franklin Maraya,https://www.webbline.com/hiv-testing-centers/,
Clinimed Biodianostic Center,,,,Identified HIV Testing/Counselling Facility,NCR,,Metropolitan Manila,,Pasay City,,,,2440-C Palm Court St. Pasay City,63 2 8330009,14.545416,120.994298,,,,,,,https://data.gov.ph/?q=dataset/hiv-testing-hospitals,
K Line Laboratory,,,Private,Identified HIV Testing/Counselling Facility,NCR,,Metropolitan Manila,,Pasay City,,,,"2/F K line Bldg., Coral Way Drive, Central Business Park, Macapagal Blvd. Pasay Manila",63 2 5562956 loc. 405,14.53132,120.98829,,,,,,,https://data.gov.ph/?q=dataset/hiv-testing-hospitals,
Love Yourself Uni,,,NGO,Identified HIV Testing/Counselling Facility,NCR,,Metropolitan Manila,,Pasay City,,,,"2028 Taft Avenue Extension, Pasay City",63 2 2569384,14.5551,120.99708,info@loveyourself.ph,,,,,Mikko Tamura,https://www.webbline.com/hiv-testing-centers/,
Malibay Health Center,,,Government,Identified HIV Testing/Counselling Facility,NCR,,Metropolitan Manila,,Pasay City,,,,"1st Floor, Malibay Health Center, C. Jose St., Pasay City",63 2 9552638,14.534061,121.00932,,,,,,,https://www.webbline.com/hiv-testing-centers/,
Pasay City Social Hygiene Clinic,,,Government,Primary HIV Care Facility,NCR,,Metropolitan Manila,,Pasay City,,,,"Room 106, Pasay City Hall, F.B Harrison St., Pasay City",63 2 88318201; 63 2 5514180; 63 9228915674; 63 9052599229; 63 9064119185,14.544142,120.995149,,Mo-Fr 08:00-19:00,,,,Iosif,https://www.doh.gov.ph/sites/default/files/statistics/HIV_2019_April.pdf,
San Juan de Dios Hospital,,Holy Mother of Light Center,Private,Treatment Hub,NCR,,Metropolitan Manila,,Pasay City,,,,"2772 Roxas Blvd. Brgy. 76, Pasay City",63 2 8831973 loc. 1147; 63 9190002166; 63 9298511346,14.538501,120.993116,,Mo-Fr 08:00-17:00,https://www.sanjuandedios.org/,,,,,
Victoria By Love Yourself,,,NGO,Identified HIV Testing/Counselling Facility,NCR,,Metropolitan Manila,,Pasay City,,,,"2/F Torres Bldg., 2442 Park Avenue, Pasay City, Metro Manila",63 9995292330; 63 9153107339; 63 9158318715,14.546084,120.996704,victoria@loveyourself.ph,Sa-We 12:00-20:00,,,,Mikko Tamura,https://www.wheninmanila.com/list-of-clinics-in-philippines-that-offer-free-hiv-testing/,
CADUCEUS Medical Multi-Specialty Clinic,,,Private,Identified HIV Testing/Counselling Facility,NCR,,Metropolitan Manila,,Pasig City,,,,"Xavier Hills Condominium, Quezon City, Philippines",63 9153998653; 63 9228188018; 63 9989771276,14.61157,121.036428,triage02@gmail.com,Mo-Su 09:00-19:00,https://caduceusmedicamultispecialty.weebly.com/,https://www.facebook.com/CaduceusMedicaMultispecialty,,Franklin Maraya,https://www.webbline.com/hiv-testing-centers/,
Hi-Precision Diagnostics (Ortigas Branch),,,Private,Identified HIV Testing/Counselling Facility,NCR,,Metropolitan Manila,,Pasig City,,,,"Unit G20-G23 Ortigas Technopoint One, Doña Julia Vargas Ave., Ortigas, Pasig City",63 9257094833; 63 9177088948; 63 2 86337931; 63 2 87270506,14.584658,121.066498,info@hi-precision.com.ph,Mo-Sa 07:00-16:00,https://www.hi-precision.com.ph/,,,Mikko Tamura,https://www.webbline.com/hiv-testing-centers/,
Hi-Precision Diagnostics (Pasig Branch),,,Private,Identified HIV Testing/Counselling Facility,NCR,,Metropolitan Manila,,Pasig City,,,,"Unit 102-202 Armal Building Compound, F. Legaspi St. cor C. Raymundo Ave., Maybunga, Pasig City",63 9338193850; 63 9178481407; 63 2 86283277,14.57637,121.08538,info@hi-precision.com.ph,Mo-Sa 06:00-16:00; Su 06:00-12:00,https://www.hi-precision.com.ph/,,,Mikko Tamura,https://www.webbline.com/hiv-testing-centers/,
Hi-Precision Diagnostics (Pioneer Branch),,,Private,Identified HIV Testing/Counselling Facility,NCR,,Metropolitan Manila,,Pasig City,,,,"8006 Pioneer Centre Cor. United and Brixton Street, Brgy. Kapitolyo, Pasig City",63 9338193859; 63 9176594671; 63 2 86317306,14.574224,121.057836,info@hi-precision.com.ph,Mo-Sa 06:00-17:00,https://www.hi-precision.com.ph/,,,Mikko Tamura,https://www.webbline.com/hiv-testing-centers/,
The Icon Clinic,,,Private,Identified HIV Testing/Counselling Facility,NCR,,Metropolitan Manila,,Pasig City,,,,"Unit G3 BTTC CENTRE 288 Ortigas Ave corner Roosevelt St., Greenhills, San Juan, Metro Manila",63 9209476202,14.60341,121.04498,eric@theiconclinic.com,,X,https://www.facebook.com/TheIconClinic/,,Franklin Maraya,https://www.webbline.com/hiv-testing-centers/,
Pasig Social Hygiene Clinic,,Pasig Treatment Hub,Government,Primary HIV Care Facility,NCR,,Metropolitan Manila,,Pasig City,,,,"Rm 5, 5F Pasig City Hall, Caruncho Ave., Brgy. San Nicolas, Pasig City",63 9165519820; 63 9774992796,14.559347,121.082354,,Mo-Fr 09:00-18:00,X,https://www.facebook.com/pages/category/Social-Service/Pasig-City-Social-Hygiene-Clinic-Pasig-Treatment-Hub-1072635989523501/,,Maning,https://www.doh.gov.ph/sites/default/files/statistics/HIV_2019_April.pdf,
Project Red Ribbon,,,NGO,Identified HIV Testing/Counselling Facility,NCR,,Metropolitan Manila,,Pasig City,,,,"Unit 401 4th Floor, Lumiere Suites, General Capinpin Street, San Antonio, Pasig,",63 2 86567297; 63 9063901031; 63 9052986954,14.57833,121.06143,contact@projectredribbon.org,,https://www.hivphilippines.com/,https://www.facebook.com/projectredribbon/,,Mikko Tamura,https://www.webbline.com/hiv-testing-centers/,
Rizal Medical Center,,,Government,Treatment Hub,NCR,,Metropolitan Manila,,Pasig City,,,,"425 Pasig Blvd. Barangay Bagong Ilog, Pasig City",63 9326019341; 63 9778421435; 63 9361944238; 63 9326019341,14.564056,121.065929,,Mo-Fr 07:00-16:00,http://www.rmc.doh.gov.ph/,,,Mikko Tamura; Carmela Magayanes,https://www.doh.gov.ph/sites/default/files/statistics/HIV_2019_April.pdf,
Saint Camillus Medical Center,St. Camilus Poly Clinic,,Private,Identified HIV Testing/Counselling Facility,NCR,,Metropolitan Manila,,Pasig City,,,,"116 E. Amang Rodriguez Avenue, Santolan Pasig City 1600 Philippines",63 2 8645374; 63 2 6453741; 63 9052599199; 63 2 6453742,14.61204,121.09182,stcampasig@stcamillusmedicalcenterpasig.com,,http://www.stcamillusmedicalcenterpasig.com/,https://www.facebook.com/stcamillusmedicalcenter/,,Maning,https://www.webbline.com/hiv-testing-centers/,
The Medical City,,i-REACT Clinic,Private,Treatment Hub,NCR,,Metropolitan Manila,,Pasig City,,,,"Ortigas Ave, Pasg City",63 2 9881000 loc. 6765,14.58993,121.06928,rctecson@medicalcity.com.ph; cndiwa@medicalcity.com ph,Mo-Su 09:00-15:00,http://themedicalcity.com,,,Mikko Tamura,https://www.doh.gov.ph/sites/default/files/statistics/HIV_2019_April.pdf,
A. J. Maximo Social Hygiene Clinic,,,Government,Primary HIV Care Facility,NCR,,Metropolitan Manila,,Quezon City,,,,"2nd flr. Bautista Building, 8 Dona Isaura, Novaliches, Quezon City",63 9985734877,14.720698,121.036615,,,X,https://www.facebook.com/A-J-Maximo-Social-Hygiene-Clinic-102591168005944/,,Joji Bonilla,https://www.doh.gov.ph/sites/default/files/statistics/HIV_2019_April.pdf,
Klinika Novaliches Sun Down Clinic,,,,Primary HIV Care Facility,NCR,,Metropolitan Manila,,Quezon City,,,,"2nd flr. Bautista Building, 8 Dona Isaura, Novaliches, Quezon City",63 9985734877; 63 9169475361,14.7207,121.036663,knovaliches5@gmail.com,Mo-Fr 08:00-17:00,X,https://www.facebook.com/klinikanovalichessocialhygieneclinic/,,,,
AIDS Society of the Philippines,,,NGO,Identified HIV Testing/Counselling Facility,NCR,,Metropolitan Manila,,Quezon City,,,,"2nd floor, OTM Building 71 Scout Tuason, Diliman, Quezon City, Metro Manila",63 2 3762546; 63 2 3762541; 63 2 4100204,14.63688,121.03345,info@aidsphil.org,Mo-Fr 07:00-18:00,www.aidsphil.org,,,Joji Bonilla,https://www.facebook.com/RedTentPh/posts/list-of-hiv-testing-and-counseling-centerssan-lazaro-hospitalquiricada-st-sta-cr/1909593362641522/,
Batasan Hills Super Health Center,,,Government,Primary HIV Care Facility,NCR,,Metropolitan Manila,,Quezon City,,,,"#1 IBP Road, Batasan Hills, Quezon City",63 9322959752; 63 9232790558; 63 9234769392; 63 9458747881,14.68623,121.08848,batasanhillshc@gmail.com,Mo-Fr 08:00-17:00,X,https://www.facebook.com/batasansuper/,,Mikko Tamura,https://www.doh.gov.ph/sites/default/files/statistics/HIV_2019_April.pdf,
Klinika Batasan,,,NGO,Identified HIV Testing/Counselling Facility,NCR,,Metropolitan Manila,,Quezon City,,,,"#1 IBP Road, Batasan Hills, Quezon City",63 9458747881,14.686272,121.088331,klinikabatasan2018@gmail.com,15:00-23:00,X,https://www.facebook.com/kbatasan//,,,,
Best Diagnostic Corporation,,,,Identified HIV Testing/Counselling Facility,NCR,,Metropolitan Manila,,Quezon City,,,,"94 Masikap St., Diliman Quezon City",63 2 9201023; 63 2 9280861,14.644726,121.052147,,Mo-Sa 06:00-18:00; Su 06:00-12:00,https://www.bestdiagnostic.com.ph/,,,Mikko Tamura,https://data.gov.ph/?q=dataset/hiv-testing-hospitals,
Capitol Medical Center,,,,Identified HIV Testing/Counselling Facility,NCR,,Metropolitan Manila,,Quezon City,,,,"Scout Magbanua Cor. Panay Ave.,Quezon City",63 2 3712158,14.634018,121.023018,info@capitolmedical.com.ph,,https://www.capitolmedical.com.ph/,,,Mikko Tamura,https://data.gov.ph/?q=dataset/hiv-testing-hospitals,
Delos Santos Medical Center,,,Private,Identified HIV Testing/Counselling Facility,NCR,,Metropolitan Manila,,Quezon City,,,,"201 E. Rodriguez St. Ave.,Quezon City",63 2 7228788,14.620269,121.017799,customercare@dlsmc.ph,,https://delossantosmed.ph/,,,Maning,https://data.gov.ph/?q=dataset/hiv-testing-hospitals,
Dr. Fe Del Mundo Medical Center,,,Private,Identified HIV Testing/Counselling Facility,NCR,,Metropolitan Manila,,Quezon City,,,,"11 Banawe St., Brgy Dona Josefa,Quezon Ave., Quezon City",63 2 8459555 loc. 167,14.620589,121.009159,customercare@fedelmundo.com.ph,,https://www.fedelmundo.com.ph/,,,Maning,https://data.gov.ph/?q=dataset/hiv-testing-hospitals,
Medocare Diagnostic Center,,,,Identified HIV Testing/Counselling Facility,NCR,,Metropolitan Manila,,Quezon City,,,,"No. 30 E.U State Tower, Quezon Ave.",63 2 4126195,14.621087,121.005618,,,,,,,https://data.gov.ph/?q=dataset/hiv-testing-hospitals,
F.Y Manalo Medical Foundation New Era General Hospital,,,,Identified HIV Testing/Counselling Facility,NCR,,Metropolitan Manila,,Quezon City,,,,"Commonwealth Ave., Cor. T. Sora, Diliman, Quezon City",63 2 9327387,14.664167,121.066733,,,,,,,https://data.gov.ph/?q=dataset/hiv-testing-hospitals,
"FEU-NRMF Medical Center, Dept. Of Clinical Laboratory",,,,Identified HIV Testing/Counselling Facility,NCR,,Metropolitan Manila,,Quezon City,,,,"Regalado Cor. Dahlia St., West Fairview",63 2 4275755,14.699146,121.067148,info@feu-nrmf.ph,,https://www.feu-nrmf.ph/index.php,,,Mikko Tamura,https://data.gov.ph/?q=dataset/hiv-testing-hospitals,
Good Health Diagnostic Center,,,,Identified HIV Testing/Counselling Facility,NCR,,Metropolitan Manila,,Quezon City,,,,"Room 302 Young Trade Bldg Gen Malvar Ave., Quezon City",63 2 9110282,14.622443,121.052984,,,,,,,https://data.gov.ph/?q=dataset/hiv-testing-hospitals,
Hi-Precision Diagnostics (Amoranto Branch),,,Private,Identified HIV Testing/Counselling Facility,NCR,,Metropolitan Manila,,Quezon City,,,,"674 N. S. Amoranto Sr. Avenue, Quezon City",63 9338107323; 63 9177089051; 63 2 34152622; 63 2 87431730,14.633512,121.003752,info@hi-precision.com.ph,Mo-Sa 06:00-16:00,https://www.hi-precision.com.ph/,,,Papu Torres,https://www.webbline.com/hiv-testing-centers/,
Hi-Precision Diagnostics (Commonwealth Branch),,,Private,Identified HIV Testing/Counselling Facility,NCR,,Metropolitan Manila,,Quezon City,,,,"G/F CPE Multi-Resources Inc. Bldg., Lot 21, Blk. 2, Don Mariano Marcos Ave., Fairview, Quezon City",63 9338259510; 63 9178062890; 63 2 82730874; 63 2 82850928,14.704885,121.076558,info@hi-precision.com.ph,"Mo-Sa 06:00- 16:00; Su 08:00-12:00, 13:00-00:00",https://www.hi-precision.com.ph/,,,Papu Torres,https://www.webbline.com/hiv-testing-centers/,
Hi-Precision Diagnostics (Del Monte Branch),,,Private,Identified HIV Testing/Counselling Facility,NCR,,Metropolitan Manila,,Quezon City,,,,"440 - 442 W. Long Building Del Monte Ave cor. Biak-Na-Bato, Bgy.Sienna, Quezon City",63 9228906664; 63 9176348526; 63 2 87417777,14.638496,121.002984,info@hi-precision.com.ph,Mo-Sa 06:00-18:00; Su 06:00-12:30,https://www.hi-precision.com.ph/,,,Papu Torres,https://www.webbline.com/hiv-testing-centers/,
Hi-Precision Diagnostics (East Avenue Branch),,,Private,Identified HIV Testing/Counselling Facility,NCR,,Metropolitan Manila,,Quezon City,,,,"18 East Avenue, Cor. V.Luna Diliman, Quezon City",63 9338193853; 63 9175782198; 63 2 34361097; 63 2 34358228,14.637487,121.046296,info@hi-precision.com.ph,Mo-Sa 06:00-18:00; Su 06:00-12:00,https://www.hi-precision.com.ph/,,,Papu Torres,https://www.webbline.com/hiv-testing-centers/,
Hi-Precision Diagnostics (V. Luna Branch),,,Private,Identified HIV Testing/Counselling Facility,NCR,,Metropolitan Manila,,Quezon City,,,,"G/F Garpas Tower No. 31-B V.Luna Ave., Pinyahan, Quezon City",63 9338193799; 63 9176566623; 63 2 34338637; 63 2 34368682,14.63729,121.05002,info@hi-precision.com.ph,Mo-Sa 06:00-17:00,https://www.hi-precision.com.ph/,,,Papu Torres,https://www.webbline.com/hiv-testing-centers/,
Klinika Project 7,,,,Primary HIV Care Facility,NCR,,Metropolitan Manila,,Quezon City,,,,"29 Bansalangin Street, Brgy. Veterans Village, Project 7, Quezon City",63 9171199884; 63 9224568832,14.65453,121.02336,"ejojet@gmail.com
",Mo-Fr 08:00-17:00,X,www.facebook.com/klinikaprojectseven,,Beatrice Tan Lim,https://www.facebook.com/KlinikaProject7/,
Project 7 Social Hygiene Clinic,,,Government,Primary HIV Care Facility,NCR,,Metropolitan Manila,,Quezon City,,,,"29 Bansalangin Street, Brgy. Veterans Village, Project 7, Quezon City",63 922456 8832; 63 9178561158,14.65453,121.02336,,,X,https://www.facebook.com/qcpeereducators/,,,,
Lopez Medical and X-ray Clinic,,,,Identified HIV Testing/Counselling Facility,NCR,,Metropolitan Manila,,Quezon City,,,,"Casa Bella Bldg., 2nd Flr 1046 Quezon Ave., Quezon City",63 2 3719586; 63 2 3725026,14.633002,121.020013,lmxci@omdsinc.com,,http://lmxci.omdsinc.com/index.html,,,,https://data.gov.ph/?q=dataset/hiv-testing-hospitals,
Lung Center of the Philippines,,LCP Hub,Government,Treatment Hub,NCR,,Metropolitan Manila,,Quezon City,,,,"Quezon Ave., Quezon City",63 9189158378,14.647188,121.045962,lcpnrlcc2020@gmail.com,Mo-Fr 08:00-17:00,https://lcp.gov.ph/,,,Mikko Tamura,https://data.gov.ph/?q=dataset/hiv-testing-hospitals,
P. Bernardo Health Center and Social Hygiene Clinic,,,Government,Primary HIV Care Facility,NCR,,Metropolitan Manila,,Quezon City,,,,"Ermin Garcia Ave., Quezon City",63 9324033412; 63 9164781607; 63 9052599245; 63 9052599211,14.627948,121.046715,,Mo-Fr 08:00-16:00,X,https://www.facebook.com/Bernardo-Social-Hygiene-Clinic-570922586350028/,,Mikko Tamura,https://www.doh.gov.ph/sites/default/files/statistics/HIV_2019_April.pdf,
Klinika Bernardo,,,,Primary HIV Care Facility,NCR,,Metropolitan Manila,,Quezon City,,,,"Ermin Garcia Ave., Quezon City",63 9193635919; 63 9454091896; 63 927259160,14.627941,121.046665,klinikabernardo@yahoo.com,Mo-Fr 08:00-16:00,X,https://www.facebook.com/theklinikabernardo/,,,,
Philippine Children's Medical Center,,,Government,Identified HIV Testing/Counselling Facility,NCR,,Metropolitan Manila,,Quezon City,,,,"Cor. Agham Road, Quezon Ave. Quezon City","63 2 9246601-25 loc. 323,246; 63 2 9219781",14.647396,121.041231,officeofthedirector@pcmc.gov.ph,,http://www.pcmc.gov.ph/,,,Maning,https://data.gov.ph/?q=dataset/hiv-testing-hospitals,
Philippine Heart Center Blood Bank,,,Government,Identified HIV Testing/Counselling Facility,NCR,,Metropolitan Manila,,Quezon City,,,,"East Ave., Diliman Quezon City",63 2 9252401 loc. 5130; 63 2 9291638,14.644073,121.047977,director@phc.gov.ph,,https://www.phc.gov.ph/,,,,https://data.gov.ph/?q=dataset/hiv-testing-hospitals,
Quezon City General Hospital,,Bahay Kalinga,Government,Treatment Hub,NCR,,Metropolitan Manila,,Quezon City,,,,"Seminary Road, EDSA",63 2 8630800; 63 9264015339,14.661189,121.018016,qcgh@quezoncity.gov.ph,Mo-Fr 08:00-17:00,,,,,https://www.doh.gov.ph/sites/default/files/statistics/HIV_2019_April.pdf,
Quezon City Social Hygiene Clinic,,,Government,Identified HIV Testing/Counselling Facility,NCR,,Metropolitan Manila,,Quezon City,,,,"132-N Makatarungan Road corner Kalayaan Ave, Diliman, Quezon City, 1100 Metro Manila",63 2 9298902,14.646178,121.052419,,,,,,Franklin Maraya,https://www.webbline.com/hiv-testing-centers/,
Quirino Memorial Medical Center,,,,Identified HIV Testing/Counselling Facility,NCR,,Metropolitan Manila,,Quezon City,,,,"Katipunan Road, Project 4 Quezon City","63 2 4212250,55 loc. 134-136; 63 2 9134739",14.621829,121.072767,qmmc_doh@yahoo.com,,http://qmmc.doh.gov.ph/,,,Mikko Tamura,https://data.gov.ph/?q=dataset/hiv-testing-hospitals,
St. Luke’s Medical Center,,CHBC Room 2,Private,Treatment Hub,NCR,,Metropolitan Manila,,Quezon City,,,,"279 E. Rodriguez Sr. Ave, Quezon City",63 2 87230101 loc. 4929; 63 9498817626,14.622739,121.023359,info@stlukes.com.ph,Mo-Fr 08:00-17:00,https://www.stlukes.com.ph/,,,,,
"St. Magdalene Diagnostic Clinic, Inc.",,,Private,Identified HIV Testing/Counselling Facility,NCR,,Metropolitan Manila,,Quezon City,,,,"2/F JCR Bldg., 298 P. Tuazon St., Cor. 20th Ave., Cubao Quezon City",63 2 4401546; 63 2 9139856; 63 2 4388515,14.620996,121.06276,info@stmagdalene.com.ph,,http://www.stmagdalene.com.ph/index.html,,,Mikko Tamura; Franklin Maraya,https://data.gov.ph/?q=dataset/hiv-testing-hospitals,
Starmed Diagnostic Services Inc.,,,,Identified HIV Testing/Counselling Facility,NCR,,Metropolitan Manila,,Quezon City,,,,"Rm 101 Acre Bldg 137 Malakas St, Diliman, Quezon City",63 2 4330103,14.6441,121.049463,starmed.diagnostics@yahoo.com,,X,https://www.facebook.com/StarmedDiagnostics/,,,https://data.gov.ph/?q=dataset/hiv-testing-hospitals,
Sto Domingo Diagnostic and Medical Center Corp.,,,Private,Identified HIV Testing/Counselling Facility,NCR,,Metropolitan Manila,,Quezon City,,,,"No. 111 LM Bldg. 3/F Rm 303 Quezon Ave., Sto. Domingo",63 2 3818435; 63 2 7408362,14.627366,121.011914,sto.domingo.tertiary@gmail.com,,https://www.stodomingodx.com.ph/,,,Mikko Tamura; Franklin Maraya,https://data.gov.ph/?q=dataset/hiv-testing-hospitals,
Woodwater Center for Healing,,,NGO,Identified HIV Testing/Counselling Facility,NCR,,Metropolitan Manila,,Quezon City,,,,"18 Nicanor Reyes St. Loyola Heights, Quezon City",63 2 9263147 loc. 17; 63 9159601717,14.639819,121.069387,,,,https://www.facebook.com/camilliansHIVministry/,,Carmela Magayanes,https://www.webbline.com/hiv-testing-centers/,
"Worldwide Diagnostic Center, Philippines",,,,Identified HIV Testing/Counselling Facility,NCR,,Metropolitan Manila,,Quezon City,,,,"Mezzanine floor Delta Bldg., West Ave., Cor. Quezon Ave.",63 2 3720589; 63 2 3712087,14.637724,121.026288,,,,,,,https://data.gov.ph/?q=dataset/hiv-testing-hospitals,
Health Cube Medical Clinics (Greenhills Branch),,,Private,Identified HIV Testing/Counselling Facility,NCR,,Metropolitan Manila,,San Juan City,,,,"Basement 1, Promenade Building Shopping Center, San Juan, 1500 Metro Manila",63 2 6501111,14.602818,121.05215,inquiry@healthcube.com.ph,,https://healthcubemedicalclinics.continuouscare.io/,,,Kevin John Wandaga,https://www.webbline.com/hiv-testing-centers/,
Hi-Precision Diagnostics (San Juan Branch),,,Private,Identified HIV Testing/Counselling Facility,NCR,,Metropolitan Manila,,San Juan City,,,,"Unit G01, G02 & M01, TNA Bldg. 17 J. Abad Santos, Little Baguio, San Juan City",63 9257055067; 63 9177002685; 63 2 88717459; 63 2 88716406,14.598939,121.037969,info@hi-precision.com.ph,Mo-Sa 06:00-16:00,https://www.hi-precision.com.ph/,,,Papu Torres,https://www.webbline.com/hiv-testing-centers/,
"Medical Dental Tests Center, Inc. (MEDTEST)",,,,Identified HIV Testing/Counselling Facility,NCR,,Metropolitan Manila,,San Juan City,,,,"4/F Dallcon II Bldg., 164 Aurora Blvd.",63 2 7442637,14.611007,121.02801,,,,,,Carmela Magayanes,https://data.gov.ph/?q=dataset/hiv-testing-hospitals,
Pedro Cruz Social Hygiene Clinic,,,Government,Identified HIV Testing/Counselling Facility,NCR,,Metropolitan Manila,,San Juan City,,,,"Barangay Pedro Cruz, San Juan, Metro Manila, Philippines",63 2 7995069,14.603746,121.027188,,,,,,Franklin Maraya,https://www.webbline.com/hiv-testing-centers/,
San Juan City Social Hygiene Clinic,,,Government,Primary HIV Care Facility,NCR,,Metropolitan Manila,,San Juan City,,,,"F. Manalo St.,Bgy. Batis 1500 San Juan City",63 2 6421262; 63 9267542917; 63 9277645343; 63 9499310940,14.59837,121.02491,,,X,https://www.facebook.com/sanjuanSHC/,,Mikko Tamura,https://www.doh.gov.ph/sites/default/files/statistics/HIV_2019_April.pdf,
San Juan Medical Center,,,,Identified HIV Testing/Counselling Facility,NCR,,Metropolitan Manila,,San Juan City,,,,"N. Domingo , San Juan City","63 2 7243461; 63 2 7243266 loc. 103,104",14.606782,121.023412,,Mo-Fr 08:00-17:00,,,,Mikko Tamura,https://data.gov.ph/?q=dataset/hiv-testing-hospitals,
Clinic 1276,,,NGO,Identified HIV Testing/Counselling Facility,NCR,,Metropolitan Manila,,Taguig City,,,,"Room 1276, 12th fl., Nursing Tower, St. Luke's Medical Center, Global City, Taguig",63 9399373182; 63 2 7897700,14.55506,121.047997,room1276.bgc@stluke.com.ph,,,,,Franklin Maraya,https://www.webbline.com/hiv-testing-centers/,
Hi-Precision Diagnostics (The Fort Branch),,,Private,Identified HIV Testing/Counselling Facility,NCR,,Metropolitan Manila,,Taguig City,,,,"3F Commercenter Bldg., 31st and 4th Ave., Fort Bonifacio Global City, Taguig",63 9338259505; 63 9338259504; 63 9176336071; 63 2 85523310; 63 2 85501735,14.553844,121.047503,info@hi-precision.com.ph,Mo-Sa 07:00-17:00,https://www.hi-precision.com.ph/,,,Mikko Tamura,https://www.webbline.com/hiv-testing-centers/,
St. Luke's Medical Center Global City,,Room 1276,Private,Treatment Hub,NCR,,Metropolitan Manila,,Taguig City,,,,"Room 1276 Rizal Drive cor. 32nd St. and 5th Ave., Taguig, 1634",63 9399373182; 63 2 7897700 loc. 5003,14.6227,121.02316,info.bgc@stlukes.com.ph,"Tu,Th 11:00-19:00; We,Fr-Sa 09:00-17:00",https://www.stlukes.com.ph/,,,Mikko Tamura/Allen Motas,https://www.doh.gov.ph/sites/default/files/statistics/HIV_2019_April.pdf,
Taguig City Drop-in Center,,,Government,Primary HIV Care Facility,NCR,,Metropolitan Manila,,Taguig City,,,,"Service Road, Western Bicutan",63 2 6421262; 63 9267542917; 63 9293028855,14.510759,121.034244,,,X,https://www.facebook.com/taguigsocialhygiene,,,,
Taguig Social Hygiene Clinic,,,Government,Treatment Hub,NCR,,Metropolitan Manila,,Taguig City,,,,"Taguig City Health Office, T&D Village Cor. Col. P, MAJ E Cruz St, Taguig, 1630 Metro Manila",63 2 6421262; 63 9267542917; 63 9293028855,14.528503,121.068974,,Mo-Fr 08:00-17:00,X,https://www.facebook.com/taguigsocialhygiene,,Iosif,https://www.webbline.com/hiv-testing-centers/,
Centralle Medical (Valenzuela Branch),,,Private,Identified HIV Testing/Counselling Facility,NCR,,Metropolitan Manila,,Valenzuela City,,,,"119 Paso De Blas St, Valenzuela, 1440 Metro Manila",63 2 86243171; 63 2 82360865,14.707313,120.991615,,Mo-Sa 07:00-17:00,http://centrallemedical.com/,,,Rome Enriquez,https://www.webbline.com/hiv-testing-centers/,
Hi-Precision Diagnostics (Valenzuela Branch),,,Private,Identified HIV Testing/Counselling Facility,NCR,,Metropolitan Manila,,Valenzuela City,,,,"Unit 3 & 4, Arca North Compound, 286 MacArthur Hi-way, Karuhatan, Valenzuela City",63 9338193866; 63 9176567012; 63 2 82363280; 63 2 82829141,14.691759,120.972807,info@hi-precision.com.ph,"
Mo-Sa 06:00-16:00",https://www.hi-precision.com.ph/,,,Papu Torres,https://www.webbline.com/hiv-testing-centers/,
Valenzuela City Social Hygiene Clinic,,,Government,Primary HIV Care Facility,NCR,,Metropolitan Manila,,Valenzuela City,,,,"Valenzuela City Hall, Poblacion II, Malinta, Valenzuela City",63 2 3526000 loc. 6046; 63 9514415118,14.691732,120.969595,,Mo-Fr 08:00-17:00,X,https://www.facebook.com/VCSHC/,,,https://www.doh.gov.ph/sites/default/files/statistics/HIV_2019_April.pdf,
Sumilang Health Center,,,Government,Primary HIV Care Facility,NCR,,Metropolitan Manila,,Pasig City,,,,,63 2 6416800,14.55884,121.073286,,,,,,,,
Klinika Rosario,,,,Primary HIV Care Facility,NCR,,Metropolitan Manila,,Manila City,,,,"627 San Andres St., Malate Manila",63 9455102130,14.569549,120.987845,,Mo-Su 14:00-21:00,,,,,,
Abra Provincial Hospital,,,Government,Identified HIV Testing/Counselling Facility,CAR,,Abra,,Bangued,,,,"Capitulacion St., Calaba, Bangued, Abra",,17.615632,120.617765,Apho_abra@yahoo.com,,,,,,https://data.gov.ph/?q=dataset/hiv-testing-hospitals,
Far North Luzon General Hospital and Training Center,,,Government,Identified HIV Testing/Counselling Facility,CAR,,Apayao,,Luna,,,,"Poblacion, Luna, Apayao",63 9178616050,18.338938,121.383937,fnlghtc@yahoo.com.ph,,http://www.fnlghtc.doh.gov.ph/,,,Mikko Tamura,https://data.gov.ph/?q=dataset/hiv-testing-hospitals,
Assumption Medical Diagnostic Center (Baguio Branch),,,Private,Identified HIV Testing/Counselling Facility,CAR,,Benguet,,Baguio City,,,,"VFM Building, 10 Assumption Road
Baguio City 2600
Philippines",63 74 4439580,16.413325,120.597459,info@amdc.com.ph,Mo-Su 6:00-18:00,https://amdc.com.ph/,,,Adam Banto,https://data.gov.ph/?q=dataset/hiv-testing-hospitals,
Baguio Doctors' Medical Laboratory,,,Private,Identified HIV Testing/Counselling Facility,CAR,,Benguet,,Baguio City,,,,"Rooms 213-215, GP Arcade Bldg., Upper Mabini, Baguio City",63 74 4439560,16.413709,120.596726,bdml_1988@yahoo.com,Mo-Fr 08:00-16:00,X,https://www.facebook.com/Baguio-Doctors-Medical-Laboratories-1509705286005191/,,Adam Banto,https://data.gov.ph/?q=dataset/hiv-testing-hospitals,
Baguio General Hospital and Medical Center,,,Government,Treatment Hub,CAR,,Benguet,,Baguio City,,,,"BGHMC Compound, Kennon Road, Baguio City",63 74 4424216 loc. 381; 63 9155816480; 63 9154877805;63 9993391599,16.40104,120.59594,bgh_mc@yahoo.com,Mo-Fr 08:00-16:00,http://bghmc.doh.gov.ph/,,,Mikko Tamura,https://www.doh.gov.ph/sites/default/files/statistics/HIV_2019_April.pdf,
Baguio Social Hygiene Clinic,,,Government,Identified HIV Testing/Counselling Facility,CAR,,Benguet,,Baguio City,,,,"Baguio City Hall, City Hall Dr, Baguio, 2600 Benguet, Philippines",63 74 4424542; 63 74 4429800,16.414879,120.59372,,,,,,Andrea Angeles,https://www.webbline.com/hiv-testing-centers/,
Benguet Laboratories (Centermall),,,Private,Identified HIV Testing/Counselling Facility,CAR,,Benguet,,Baguio City,,,,"L4 M22 Baguio Centermall Corner Dagohoy St., Magsaysay Ave., Baguio City",63 74 4424528,16.41648,120.596363,,,https://benguetlaboratories.com/,,,Allen Motas,https://data.gov.ph/?q=dataset/hiv-testing-hospitals,
Benguet Laboratories (SM Cyber Baguio Branch),,,Private,Identified HIV Testing/Counselling Facility,CAR,,Benguet,,Baguio City,,,,"4A & B01 SM Baguio Cyberzone Building, Upper Harrison Road, Baguio City",63 74 6205828,16.407069,120.598989,,,https://benguetlaboratories.com/,,,Mikko Tamura,https://www.webbline.com/hiv-testing-centers/,
"Family Polyclinic and Laboratory, Inc.",,,Private,Identified HIV Testing/Counselling Facility,CAR,,Benguet,,Baguio City,,,,"Rms. 12-16 Laperal Bldg., Session Road, Baguio City",63 74 4425299; 63 74 4448835,16.411937,120.597934,fplisession@gmail.com,Mo-Fr 08:00-17:00,X,https://www.facebook.com/familypolyclinicbaguio/,,Sedric Suringa 2,https://data.gov.ph/?q=dataset/hiv-testing-hospitals,
Health Services Office - Public Health Laboratory/,,,,Identified HIV Testing/Counselling Facility,CAR,,Benguet,,Baguio City,,,,"T. Alonzo St., Baguio City",63 74 3006540; 63 74 4426018,16.420349,120.596543,,,,,,,https://data.gov.ph/?q=dataset/hiv-testing-hospitals,
Hi-Precision Diagnostics (Baguio City Branch),,,Private,Identified HIV Testing/Counselling Facility,CAR,,Benguet,,Baguio City,,,,"2nd flr CYA Centrum, 2600 Kennon Road, Baguio City",63 74 7417777; 63 74 4232358,16.4022091,120.5970062,info@hi-precision.com.ph,06:00-16:00,https://www.hi-precision.com.ph/,,,Andrea Angeles,https://www.webbline.com/hiv-testing-centers/,
Metro Baguio Laboratories (Main),,,Private,Identified HIV Testing/Counselling Facility,CAR,,Benguet,,Baguio City,,,,"146 Kisad Road, Baguio City",63 74 4438582,16.402897,120.595481,metrolab146@gmail.com,06:30-17:00,X,https://www.facebook.com/METROBAGUIOLABORATORIESINC/?rf=319139401490961,,Levin Daran,https://data.gov.ph/?q=dataset/hiv-testing-hospitals,
Notre Dame de Chartres Hospital,,,Private,Treatment Hub,CAR,,Benguet,,Baguio City,,,,"Gen. Luna Road., Baguio City",63 74 6198530-34; 63 74 3045960,16.41543,120.59865,ndch2003@gmail.com,,https://notredamebaguio.com/,,,Mikko Tamura,https://data.gov.ph/?q=dataset/hiv-testing-hospitals,
Philippine Red Cross Baguio,,,NGO,Identified HIV Testing/Counselling Facility,CAR,,Benguet,,Baguio City,,,,"Harrison Rd., Baguio City",63 74 4424036,16.412219,120.59628,baguio@redcross.org.ph,,https://redcross.org.ph/,https://www.facebook.com/philredcrossbaguio/,,Levin Daran,https://data.gov.ph/?q=dataset/hiv-testing-hospitals,
Pines City Doctors' Hospital,,,Private,Identified HIV Testing/Counselling Facility,CAR,,Benguet,,Baguio City,,,,"Magsaysay Ave., Baguio City",63 74 4453020; 63 74 4452091; 63 74 4469125; 63 74 4422615; 63 74 4469126,16.42692,120.59467,,,,,,Mikko Tamura,https://data.gov.ph/?q=dataset/hiv-testing-hospitals,
Saint Louis University Hospital of the Sacred Heart,,,Private,Identified HIV Testing/Counselling Facility,CAR,,Benguet,,Baguio City,,,,"Assumption Rd., Extension, Baguio City",63 74 4425700; 63 74 4425701; 63 74 4423621; 63 74 4432000,16.41724,120.5979,hosp.meddir@slu.edu.ph,,https://www.slu.edu.ph/affiliates/hospital-of-the-sacred-heart/,,,Adam Banto,https://data.gov.ph/?q=dataset/hiv-testing-hospitals,
Session Diagnostic Center,,,Private,Identified HIV Testing/Counselling Facility,CAR,,Benguet,,Baguio City,,,,"GEBM Building, Lower Session Rd., Baguio City",63 74 4460672,16.413384,120.595947,sdc_baguio@yahoo.com.ph,Mo-Sa 07:00-18:00,X,https://www.facebook.com/SDCBaguioOfficial/,,AM Gososo,https://data.gov.ph/?q=dataset/hiv-testing-hospitals,
Lutheran Hospital Inc.,,,,Identified HIV Testing/Counselling Facility,CAR,,Benguet,,Buguias,,,,"Abatan, Buguias, Benguet",63 9102537501,16.806033,120.823936,,,,,,,https://data.gov.ph/?q=dataset/hiv-testing-hospitals,
"Assumption Medical Diagnostic Center (La Trinidad, Beng.)",,,Private,Identified HIV Testing/Counselling Facility,CAR,,Benguet,,La Trinidad,,,,"Senvik Loy Building, Km.5, La Trinidad, Benguet",63 74 3093256,16.446124,120.591059,info@amdc.com.ph,Mo-Sa 06:00-18:00,https://amdc.com.ph/,,,AM Gososo,https://data.gov.ph/?q=dataset/hiv-testing-hospitals,
Benguet General Hospital,,,Government,Identified HIV Testing/Counselling Facility,CAR,,Benguet,,La Trinidad,,,,"Km.5, La Trinidad, Benguet",63 74 4225506; 63 74 4224722 loc. 1401; 1402,16.450661,120.589123,beghadmin@benguet.gov.ph,24-Jul,https://benguet.gov.ph/v3/departments/benguet-general-hospital/,,,AM Gososo,https://data.gov.ph/?q=dataset/hiv-testing-hospitals,
Clinica La Trinidad,,,,Identified HIV Testing/Counselling Facility,CAR,,Benguet,,La Trinidad,,,,"D and L Bldg 2. Pico Rd., Km.5, La Trinidad, Benguet",63 9286280481; 63 920843384,16.447205,120.590109,,,,,,,https://data.gov.ph/?q=dataset/hiv-testing-hospitals,
"Great Faith Medical Pharmacy and Diagnostic Center, Inc.",,,,Identified HIV Testing/Counselling Facility,CAR,,Benguet,,La Trinidad,,,,"Km.4 Pico, La Trinidad, Benguet",63 74 4224842,16.445363,120.591217,gfmpdcinc@yahoo.com,Mo-Sa 07:00-19:00,https://greatfaithmedical.business.site/,,,AM Gososo,https://data.gov.ph/?q=dataset/hiv-testing-hospitals,
Philippine Red Cross - Benguet Chapter,,,NGO,Identified HIV Testing/Counselling Facility,CAR,,Benguet,,La Trinidad,,,,"BeGH Compound, Km.5, La Trinidad, Benguet",63 74 4222796,16.450973,120.588343,benguet@redcross.org.ph,24-Jul,https://redcross.org.ph/,https://www.facebook.com/PRCBenguet/,,AM Gososo,https://data.gov.ph/?q=dataset/hiv-testing-hospitals,
Sto. Nino Hospital of Philex Mining Corp.,,,Private,Identified HIV Testing/Counselling Facility,CAR,,Benguet,,Tuba,,,,"Philex Mines, Pacdal, Tuba, Benguet",63 9206522186,16.26616,120.639455,,,http://www.philexmining.com.ph/health/,,,,https://data.gov.ph/?q=dataset/hiv-testing-hospitals,
Ifugao Provincial Hospital,,,,Identified HIV Testing/Counselling Facility,CAR,,Ifugao,,Lagawe,,,,"Natuwolan Cudog, Lagawe, Ifugao",63 9165255432,16.810557,121.104754,,,X,https://www.facebook.com/pages/Ifugao-Provincial-Hospital/313070739156339,,,https://data.gov.ph/?q=dataset/hiv-testing-hospitals,
Kalinga Provincial Hospital,,,Government,Identified HIV Testing/Counselling Facility,CAR,,Kalinga,,Tabuk,,,,"Bulanao, Tabuk, Kalinga",63 9164542753,17.409827,121.439966,,24-Jul,X,https://www.facebook.com/Kalinga-Provincial-Hospital-KPH-104311524594426/,,AM Gososo,https://data.gov.ph/?q=dataset/hiv-testing-hospitals,
Tabuk Clinical And Drug Testing Laboratory,,,Private,Identified HIV Testing/Counselling Facility,CAR,,Kalinga,,Tabuk,,,,"Purok 5, Bulanao, Tabuk, Kalinga",63 9175418668,17.411133,121.440481,,08:00-17:00,,,,AM Gososo,https://data.gov.ph/?q=dataset/hiv-testing-hospitals,
Luis Hora Memorial Regional Hospital,,,,Identified HIV Testing/Counselling Facility,CAR,,Mountain Province,,Bauko,,,,"Abatan, Bauko, Mountain Province",63 9204972746,16.981093,120.853574,lhmrh_doh@yahoo.com,,http://luishora.doh.gov.ph/,https://www.facebook.com/pages/category/Hospital/Luis-Hora-Memorial-Regional-Hospital-758774977593805/,,,https://data.gov.ph/?q=dataset/hiv-testing-hospitals,
Bontoc General Hospital,,,Government,Identified HIV Testing/Counselling Facility,CAR,,Mountain Province,,Bontoc,,,,"Bontoc, Mountain Province",63 9086244053,17.093734,120.976659,bontocgh@gmail.com,,X,https://www.facebook.com/bontocgen/,,Mikko Tamura,https://data.gov.ph/?q=dataset/hiv-testing-hospitals,
St. Theodore Hospital,,,,Identified HIV Testing/Counselling Facility,CAR,,Mountain Province,,Sagada,,,,"2619 Sagada, Mt. Province",63 9283327817,17.084888,120.902192,,,,,,,https://data.gov.ph/?q=dataset/hiv-testing-hospitals,
Bangui District Hospital,,,Government,Identified HIV Testing/Counselling Facility,Region I,PH010000000,Ilocos Norte,,Bangui,,,,"Brgy. Abaca, Bangui",63 776761158,18.53337,120.761983,,,,,,,https://data.gov.ph/?q=dataset/hiv-testing-hospitals,
Mariano Marcos Memorial Medical Center,,,Government,Treatment Hub,Region I,PH010000000,Ilocos Norte,,Batac City,,,,"Brgy. 6, San Julian, Batac City",63 77 7923144; 63 77 6008000,18.060543,120.559522,marl_otayza@yahoo.com; mmmh_doh@yahoo.com,,http://mmmhmc.doh.gov.ph/,,,Sedric Suringa,https://www.doh.gov.ph/sites/default/files/statistics/HIV_2019_April.pdf,
Gov. Roque B. Ablan Sr. Memorial Hospital,,,,Identified HIV Testing/Counselling Facility,Region I,PH010000000,Ilocos Norte,,Laoag City,,,,"Brgy. 23, P. Gomez St., Laoag City",63 77 7721836,18.199509,120.601316,,,,,,,https://data.gov.ph/?q=dataset/hiv-testing-hospitals,
Karmelli Hospital,,,Private,Identified HIV Testing/Counselling Facility,Region I,PH010000000,Ilocos Norte,,Laoag City,,,,"# 2 Legaspi Street, Brgy 29, Laoag City, Ilocos Norte",63 77 7222752,18.191718,120.610275,karmelliclinic_hospital@yahoo.com,24-Jul,https://karmellihospital.wordpress.com/,,,Sedric Suringa 2,https://www.webbline.com/hiv-testing-centers/,
Laoag Social Hygiene Clinic,,,Government,Identified HIV Testing/Counselling Facility,Region I,PH010000000,Ilocos Norte,,Laoag City,,,,"Provincial Health Office Building. P. Gomez Street, Barangay 10, Tupaz, Laoag City",63 77 7720289; 63 9189797491,18.199706,120.60258,,,,,,,https://www.webbline.com/hiv-testing-centers/,
Metro Vigan Hospital,Metro Vigan Multipurpose Cooperative Hospital,,,Identified HIV Testing/Counselling Facility,Region I,PH010000000,Ilocos Sur,,Bantay,,,,"Roxas Dike, Bantay",63 77 722577174,17.580729,120.38659,,,https://www.mvmch.net/,,,,https://data.gov.ph/?q=dataset/hiv-testing-hospitals,
Candon Social Hygiene Clinic,,,Government,Identified HIV Testing/Counselling Facility,Region I,PH010000000,Ilocos Sur,,Candon City,,,,"National Highway, San Juan, Candon, Ilocos Sur",63 77 7425008,17.19549,120.448952,,,http://candoncity.gov.ph/services/health-services/,,,,https://www.webbline.com/hiv-testing-centers/,
Reyes Clinic and Hospital,,,Private,Identified HIV Testing/Counselling Facility,Region I,PH010000000,Ilocos Sur,,Sta. Maria,,,,"Simpson St., Poblacion Sur, Sta. Maria",63 77 7325511,17.366113,120.481942,,,,,,,https://data.gov.ph/?q=dataset/hiv-testing-hospitals,
Lacasandile Medical Clinic and Diagnostic Center,,,Private,Primary HIV Care Facility,Region I,PH010000000,Ilocos Sur,,Tagudin,,,,"Bgy. Lacong National Highway, Tagudin Ilocos Sur",63 9062518009; 63 9273255830,16.93021,120.4537,lacasandilemcdc@gmail.com / hr.lacasandilemcdc@gmail.com,Mo-Sa 8:00-19:00; Su by appointment,X,https://www.facebook.com/lacasandilemcdc,,Sedric Suringa,https://www.doh.gov.ph/sites/default/files/statistics/HIV_2019_April.pdf,
Ilocos Sur Provincial Hospital,Gabriela Silang General Hospital,,Government,Treatment Hub,Region I,PH010000000,Ilocos Sur,,Vigan City,,,,"Quirino Blvd., Tamag Vigan Ilocos Sur",63 9272957363; 63 9175641530; 63 77 6741309,17.55353,120.379741,,24-Jul,,,,Mikko Tamura,https://www.doh.gov.ph/sites/default/files/statistics/HIV_2019_April.pdf,
Saint James Hospital,,,Private,Identified HIV Testing/Counselling Facility,Region I,PH010000000,Ilocos Sur,,Vigan City,,,,"Pantay Daya Rd, Vigan City, Ilocos Sur",63 77 7222945,17.579179,120.378948,,24-Jul,,,,,https://data.gov.ph/?q=dataset/hiv-testing-hospitals,
La Union Medical Center,,,,Identified HIV Testing/Counselling Facility,Region I,PH010000000,La Union,,Agoo,,,,"Nazareno, Agoo, La Union
",63 72 6075938,16.346542,120.363942,,Mo-Fr 08:00-17:00; Sa 08:00-12:00,https://lumc.gov.ph/,,,Franklin Maraya,https://www.facebook.com/RedTentPh/posts/list-of-hiv-testing-and-counseling-centerssan-lazaro-hospitalquiricada-st-sta-cr/1909593362641522/,
Bethany Hospital Inc.,,,Private,Identified HIV Testing/Counselling Facility,Region I,PH010000000,La Union,,San Fernando City,,,,"Widdoes St., San Fernando La Union",63 72 2420804; 63 72 7005260,16.613868,120.317616,,,X,https://www.facebook.com/Bethany-Hospital-Inc-110279467062482/,,Franklin Maraya,https://data.gov.ph/?q=dataset/hiv-testing-hospitals,
Ilocos Training and Regional Medical Center,,,Government,Treatment Hub,Region I,PH010000000,La Union,,San Fernando City,,,,"Parian, San Fernando City, La Union",63 72 6076418; 63 72 6079912; 63 9266107255,16.591327,120.318188,itrmc2010@yahoo.com; emb3patho@yahoo.com,"Mo,We,Fr 08:00-12:00",http://itrmc.doh.gov.ph/,,,Sedric Suringa,https://www.doh.gov.ph/sites/default/files/statistics/HIV_2019_April.pdf,
La Union Medical Diagnostic Center and Hospital,,,Private,Identified HIV Testing/Counselling Facility,Region I,PH010000000,La Union,,San Fernando City,,,,"Ancheta St., Catbangen, City of San Fernando, La Union",63 72 2424796; 63 72 8887801,16.614701,120.315685,,24-Jul,http://lumed.com.ph/,,,JR Dizon; Franklin Maraya,https://data.gov.ph/?q=dataset/hiv-testing-hospitals,
Lorma Medical Center Laboratories,,,Private,Identified HIV Testing/Counselling Facility,Region I,PH010000000,La Union,,San Fernando City,,,,"National Highway Carlatan, San Fernando, La Union",63 72 7000000 loc. 139; 63 72 2423621,16.631499,120.318066,,,http://lmc.lorma.org/,,,,https://data.gov.ph/?q=dataset/hiv-testing-hospitals,
Alaminos Social Hygiene Clinic,,,Government,Identified HIV Testing/Counselling Facility,Region I,PH010000000,Pangasinan,,Alaminos,,,,,63 75 5512956; 63 75 6541142,16.156507,119.978618,,,,,,,https://www.webbline.com/hiv-testing-centers/,
Alaminos Doctors Hospital,,,,Identified HIV Testing/Counselling Facility,Region I,PH010000000,Pangasinan,,Alaminos City,,,,"Bolaney, Alaminos City",63 75 5415271,16.130784,119.970748,,,,,,,https://data.gov.ph/?q=dataset/hiv-testing-hospitals,
Dagupan Doctor's Villaflor Memorial Clinic Laboratory,,,Private,Identified HIV Testing/Counselling Facility,Region I,PH010000000,Pangasinan,,Dagupan City,,,,"Mayombo District, Dagupan City",63 75 5155636; 63 75 5155636,16.037613,120.346977,,,,,,,https://data.gov.ph/?q=dataset/hiv-testing-hospitals,
Hi-Precision Diagnostics (Dagupan City Branch),,,Private,Identified HIV Testing/Counselling Facility,Region I,PH010000000,Pangasinan,,Dagupan City,,,,"G/F BHF Family Plaza, Mayombo District, Dagupan City",,16.03843,120.346284,info@hi-precision.com.ph,"
Mo-Sa 06:00-16:00",https://www.hi-precision.com.ph/,,,Papu Torres,https://www.webbline.com/hiv-testing-centers/,
Luzon Medical Center,,,,Identified HIV Testing/Counselling Facility,Region I,PH010000000,Pangasinan,,Dagupan City,,,,"Tapuac District, Dagupan City",63 75 5158853; 63 75 5152149,16.033431,120.332404,,,,,,,https://data.gov.ph/?q=dataset/hiv-testing-hospitals,
Medical Centrum Dagupan Inc.,,,,Identified HIV Testing/Counselling Facility,Region I,PH010000000,Pangasinan,,Dagupan City,,,,"A. B. Fernandez Ave. East, Dagupan City",63 75 5156464; 63 75 5225725,16.04618,120.352521,,,,,,,https://data.gov.ph/?q=dataset/hiv-testing-hospitals,
Nazareth General Hospital,,,Private,Identified HIV Testing/Counselling Facility,Region I,PH010000000,Pangasinan,,Dagupan City,,,,"203 Perez Blvd, Downtown District, Dagupan, 2400 Pangasinan",63 75 5221151; 63 75 5220044,16.040892,120.340436,ngh1959@yahoo.com,24-Jul,https://www.nazarethgeneralhospital.com/,,,Sedric Suringa 2,https://data.gov.ph/?q=dataset/hiv-testing-hospitals,
Region 1 Medical Center,,,Government,Treatment Hub,Region I,PH010000000,Pangasinan,,Dagupan City,,,,"Arellano Street, Dagupan, Pangasinan",63 75 5158916; 63 75 5153030,16.048465,120.341117,region1mc@gmail.com,24-Jul,http://r1mc.doh.gov.ph,,,Sedric Suringa,https://www.doh.gov.ph/sites/default/files/statistics/HIV_2019_April.pdf,
Specialist Group Hospital and Trauma Center,,,,Identified HIV Testing/Counselling Facility,Region I,PH010000000,Pangasinan,,Dagupan City,,,,"Tapuac District, Dagupan City",63 75 5222254; 63 75 5230131,16.030745,120.329102,,,,,,,https://data.gov.ph/?q=dataset/hiv-testing-hospitals,
Lingayen District Hospital,,,Government,Identified HIV Testing/Counselling Facility,Region I,PH010000000,Pangasinan,,Lingayen,,,,,63 75 5422295; 63 75 6620235,16.018372,120.229794,,,,,,,https://www.webbline.com/hiv-testing-centers/,
Dr. Marcelo M. Chan Memorial Hospital,,,,Identified HIV Testing/Counselling Facility,Region I,PH010000000,Pangasinan,,Rosales,,,,"2441 Mac Arthur Highway, Carmen West, Rosales, Pangasinan",63 75 5823303; 63 75 5643815,15.883558,120.598476,,,X,https://www.facebook.com/dmmcmhi1965/,,,https://data.gov.ph/?q=dataset/hiv-testing-hospitals,
Elguira General Hospital,,,,Identified HIV Testing/Counselling Facility,Region I,PH010000000,Pangasinan,,San Carlos City,,,,"Rizal Avenue, San Carlos City, Pangasinan",63 75 5324481,15.93761,120.34659,,,X,https://www.facebook.com/elguirageneralhospital/,,,https://data.gov.ph/?q=dataset/hiv-testing-hospitals,
Pangasinan Doctors Hospital,,,,Identified HIV Testing/Counselling Facility,Region I,PH010000000,Pangasinan,,San Carlos City,,,,"Rizal Avenue, San Carlos City",63 75 5323629; 63 75 5326078,15.93996,120.34549,,,X,https://www.facebook.com/PDHCare/,,Mikko Tamura,https://data.gov.ph/?q=dataset/hiv-testing-hospitals,
Pangasinan Provincial Hospital,,,Government,Identified HIV Testing/Counselling Facility,Region I,PH010000000,Pangasinan,,San Carlos City,,,,"Brgy Bolingit, San Carlos City, Pangasinan",63 75 5322603,15.954358,120.349588,,24-Jul,X,https://www.facebook.com/Pangasinan-Provincial-Hospital-443913785811188/,,Carmela Magayanes,https://www.facebook.com/RedTentPh/posts/list-of-hiv-testing-and-counseling-centerssan-lazaro-hospitalquiricada-st-sta-cr/1909593362641522/,
Virgen Milagrosa Medical Center,,,Private,Identified HIV Testing/Counselling Facility,Region I,PH010000000,Pangasinan,,San Carlos City,,,,"1 Martin P. Posadas Ave., San Carlos City",63 75 9555054; 63 75 5322380,15.920309,120.34169,,,X,https://facebook.com/VMMCOfficial/,,Jerome Enriquez,https://data.gov.ph/?q=dataset/hiv-testing-hospitals,
Urdaneta Sacred Heart Hospital Clinical Laboratory,,,,Identified HIV Testing/Counselling Facility,Region I,PH010000000,Pangasinan,,Urdaneta City,,,,"St. Vincent, Urdaneta City",63 75 5682294; 63 75 5656329,15.980708,120.570883,,,X,https://facebook.com/pages/Urdaneta-Sacred-heart-Hospital/1226479424144961,,,https://data.gov.ph/?q=dataset/hiv-testing-hospitals,
Cagayan Valley Medical Center (CVMC),,,Government,Treatment Hub,Region II,PH010000000,Cagayan,,Tuguegarao,,,Back up contact for Region 2: Sheena (09773464689),"Dalan na Pagayaya, Carig Sur, Tuguegarao, Cagayan",63 78 3041410; 63 78 3041810; 63 9357946280,17.656543,121.747218,cvmcr2@gmail.com,Mo-Fr 08:00-17:00,http://cvmc.doh.gov.ph/,,,John Mojica,https://www.doh.gov.ph/sites/default/files/statistics/HIV_2019_April.pdf,
Cagayan Valley Sanitarium and Hospital,,,,Identified HIV Testing/Counselling Facility,Region II,PH010000000,Isabela,,Santiago City,,,,"P-5 Mabini, Maharlika Hi-way Santiago",63 78 6828486; 63 78 6822548,16.696519,121.566721,,,,,,,https://data.gov.ph/?q=dataset/hiv-testing-hospitals,
Santiago City Health Office,,Santiago City Social Hygiene Clinic,Government,Primary HIV Care Facility,Region II,PH010000000,Isabela,,Santiago City,,,,"Santiago-Tuguegarao Road, San Andres, Santiago, 3311",63 78 3052775; 63 9175649984,16.70382,121.55858,cho.santiago@gmail.com,Mo-Fr 08:00-17:00,,,,,https://www.doh.gov.ph/sites/default/files/statistics/HIV_2019_April.pdf,
Region 2 Trauma and Medical Center,Veterans Regional Hospital,HIV and AIDS Core Team Clinic,Government,Treatment Hub,Region II,PH010000000,Nueva Vizcaya,,Bayombong,,,,"Magsaysay, Bayombong, Nueva Vizcaya",63 78 8053561 loc. 1225; 63 9778151609,16.484245,121.134704,r2tmc2019@gmail.com,Mo-Fr 08:00-17:00,,,,,https://www.doh.gov.ph/sites/default/files/statistics/HIV_2019_April.pdf,
Accucell Diagnostic Center,,,Private,Identified HIV Testing/Counselling Facility,Region IV-A,,Rizal,,Antipolo,,,,"Rm 219-221, Femar / FBM Bldg., M.L Quezon St., San Roque, Antipolo, Rizal",63 2 6305210; 63 2 6966751,14.581425,121.175894,,Mo-Sa 06:00-19:00,,,,John Mojica,https://data.gov.ph/?q=dataset/hiv-testing-hospitals,
Madonna General Hospital,,,,Identified HIV Testing/Counselling Facility,Region IV-A,,Batangas,,Balayan,,,,"153 Antorcha, Balayan, Batangas",63 43 2116557,13.93964,120.7324,,,,,,,https://data.gov.ph/?q=dataset/hiv-testing-hospitals,
Batangas Medical Center,Batangas Regional Hospital,BATMC Wellness Zone,Government,Treatment Hub,Region IV-A,,Batangas,,Batangas City,,,,"Kumintang Ibaba, Batangas City",63 43 7408307 loc. 1121; 63 9338617592; 63 9982902099,13.766971,121.066778,batmedcen@yahoo.com,Mo-Fr 08:00-17:00,http://batmc.doh.gov.ph/,,,Mikko Tamura,https://www.doh.gov.ph/sites/default/files/statistics/HIV_2019_April.pdf,
EBD Batangas City Health Laboratory,,Batangas Social Hygiene Clinic,Government,Primary HIV Care Facility,Region IV-A,,Batangas,,Batangas City,,,,"City Health Office P. Burgos St., Batangas",63 43 7232506; 63 43 7232472,13.75599,121.05826,,Mo-Fr 08:00-17:00,,,,,https://data.gov.ph/?q=dataset/hiv-testing-hospitals,
Golden Gate General Hospital,,,,Identified HIV Testing/Counselling Facility,Region IV-A,,Batangas,,Batangas City,,,,"17 Prieto St., Batangas City, Batangas",63 43 7233011 loc. 107,13.7575,121.06172,,,,,,Mikko Tamura,https://data.gov.ph/?q=dataset/hiv-testing-hospitals,
St. Patricks Hospital Medical Center,,,Private,Identified HIV Testing/Counselling Facility,Region IV-A,,Batangas,,Batangas City,,,,"Lopez Jaena St., Batangas",63 43 7238196; 63 43 7232745,13.75569,121.06023,,,,,,Mikko Tamura,https://data.gov.ph/?q=dataset/hiv-testing-hospitals,
Metro Lemery Medical Center,,,,Identified HIV Testing/Counselling Facility,Region IV-A,,Batangas,,Lemery,,,,"Palanas, Lemery Batangas",63 43 4090480; 63 43 4110480,13.88775,120.91197,,,,,,,https://data.gov.ph/?q=dataset/hiv-testing-hospitals,
Daniel O. Mercado Medical Center,,,Private,Identified HIV Testing/Counselling Facility,Region IV-A,,Batangas,,Lipa City,,,,"No. 1 Press. Jose P. Laurel Highway, Tanauan Batangas",63 43 7781810; 63 43 7780960,14.07972,121.15088,,,,,,Reynier Tasico,https://data.gov.ph/?q=dataset/hiv-testing-hospitals,
Lipa Medix Medical Center,,,,Identified HIV Testing/Counselling Facility,Region IV-A,,Batangas,,Lipa City,,,,"Along National Hi-way, Balintawak Lipa Batangas",63 43 7563008 loc. 1018; 63 43 7570088,13.94746,121.15724,,,,,,Reynier Tasico,https://data.gov.ph/?q=dataset/hiv-testing-hospitals,
N.L Villa Memorial Medical Center,,,Private,Identified HIV Testing/Counselling Facility,Region IV-A,,Batangas,,Lipa City,,,,"F. Manalo St., Lipa City Batangas",63 43 7561217; 63 43 7571281,13.93871,121.16556,nlvmmc__laboratory@yahoo.com,,,,,Reynier Tasico,https://data.gov.ph/?q=dataset/hiv-testing-hospitals,
Shechem Laboratory and Polymedical Center,,,Private,Identified HIV Testing/Counselling Facility,Region IV-A,,Batangas,,Nasugbu,,,,"Nasugbu, Batangas",63 43 9310306,14.072505,120.632488,,,,,,,https://data.gov.ph/?q=dataset/hiv-testing-hospitals,
Hi-Precision Diagnostics (Rosario Batangas Branch),,,Private,Identified HIV Testing/Counselling Facility,Region IV-A,,Batangas,,Rosario,,,,"Medical Expert Building, National Road, Brgy. San Roque, Rosario Batangas",63 9338259509; 63 9175026776; 63 43 7408824,13.852044,121.203794,info@hi-precision.com.ph,Mo-Sa 06:00-16:00,https://www.hi-precision.com.ph/,,,Papu Torres,https://www.webbline.com/hiv-testing-centers/,
Mary Mediatrix Medical Center,,,Private,Identified HIV Testing/Counselling Facility,Region IV-A,,Batangas,,Lipa City,,,,"J.P. Laurel Highway, Mataas na Lupa, Lipa Batangas",63 43 7849999; 63 43 7736800,13.943827,121.151772,mmmcadm@yahoo.com,,https://mediatrixmedcenter.com.ph/,,,Reynier Tasico,,
St. Frances Cabrini Medical Center,,,Private,Identified HIV Testing/Counselling Facility,Region IV-A,,Batangas,,Sto. Tomas,,,,"Maharlika Hi-way Poblacion St. Sto. Tomas, Batangas",63 43 7784811; 63 43 3182432,14.109026,121.145163,,,http://www.cabrinimed.com/,,,Reynier Tasico,https://data.gov.ph/?q=dataset/hiv-testing-hospitals,
CP Reyes Hospital,,,Private,Identified HIV Testing/Counselling Facility,Region IV-A,,Batangas,,Tanauan,,,,"A. Mabini Ave., Tanauan City Batangas",63 43 7781119,14.084421,121.14949,,,X,https://www.facebook.com/cpreyeshospital/,,Reynier Tasico,https://data.gov.ph/?q=dataset/hiv-testing-hospitals,
Bacoor Social Hygiene Clinic,,,Government,Primary HIV Care Facility,Region IV-A,,Cavite,,Bacoor,,,,"Floraville Subd., Brgy. Panapaan, Bacoor city",63 9086144183; 63 9366767901; 63 9977046886,14.448313,120.955722,,Tu-Fr 08:00-17:00,,,,John Robert,Local Knlowledge,
LoveYourself Hero,,,NGO,Primary HIV Care Facility,Region IV-A,,Cavite,,Bacoor,,,,"EMA Building 2nd Floor, Unit 5 and 6, Emilio Aguinaldo Highway, Bacoor, Cavite",63 56 4903747; 63 9064839040,14.448282,120.954128,info@loveyourself.ph,,http://loveyourself.ph,,,,https://www.webbline.com/hiv-testing-centers/,
Dasmariñas City Health Office,,Dasmariñas Social Hygiene Clinic,Government,Primary HIV Care Facility,Region IV-A,,Cavite,,Dasmarinas,,,,"Zone 2, Manggubat St., City Health Office 1, Dasmarinas, Cavite",63 46 4160279; 63 9228842553; 63 9553077125; 63 9555885677,14.329365,120.931591,cho1_dasma@gmail.com,Mo-Fr 08:00-17:00,,,,,https://www.doh.gov.ph/sites/default/files/statistics/HIV_2019_April.pdf,
Dela Salle University Medical Center,,,Private,Identified HIV Testing/Counselling Facility,Region IV-A,,Cavite,,Dasmarinas,,,,"Congressional Avenue, Dasmarinas, Cavite",63 46 4818000,14.327156,120.943571,webteam@dlshsi.edu.ph,24-Jul,http://www.dlshsi.edu.ph/,,,,https://data.gov.ph/?q=dataset/hiv-testing-hospitals,
Hi Precision Diagnostics (Central Mall Branch),,,Private,Identified HIV Testing/Counselling Facility,Region IV-A,,Cavite,,Dasmarinas,,,,"Central Mall, Salitran Road, Dasmarinas",63 46 4241796; 63 46 4241672; 63 9328908920; 63 9178192261,14.350241,120.938425,info@hi-precision.com.ph,Mo-Sa 06:000-17:00; Su 06:00-12:00,https://www.hi-precision.com.ph/branch.do?item_id=1024247024,,,,https://www.webbline.com/hiv-testing-centers/,
Centralle Medical (Imus Branch),,,Private,Identified HIV Testing/Counselling Facility,Region IV-A,,Cavite,,Imus City,,,,"Nueno Avenue, Tanzang Luma I, Imus, Cavite",63 46 84020258,14.42522,120.93977,,Mo-Sa 07:00-17:00,http://centrallemedical.com/imus-cavite/,,,,https://www.webbline.com/hiv-testing-centers/,
"
Velarde Health Center",,Imus Social Hygiene Clinic/ Imus Reproductive and Wellness Center,Government,Primary HIV Care Facility,Region IV-A,,Cavite,,Imus City,,,,"Medicion 1C, Velarde Subdivision, Imus",63 46 4344057; 63 9267013539; 63 9258787158; 63 9176233201; 63 9190734978,14.438002,120.927812,,"Mo-Fr 08:00-16:00, Sa 13:00-17:00",,,,,https://www.doh.gov.ph/sites/default/files/statistics/HIV_2019_April.pdf,
Medical Center Imus,,,Private,Identified HIV Testing/Counselling Facility,Region IV-A,,Cavite,,Imus City,,,,"Diversion Road, Palico II, Imus Cavite",63 46 4723987; 63 46 4723982 loc. 118,14.42637,120.946494,,24-Jul,,,,,https://data.gov.ph/?q=dataset/hiv-testing-hospitals,
Sto. Domingo Diagnostic and Medical Center Corp.,,,,Identified HIV Testing/Counselling Facility,Region IV-A,,Cavite,,Rosario,,,,"Rosario, Cavite",63 46 4379463; 63 46 4372905; 63 46,14.401619,120.861014,,,,,,,https://data.gov.ph/?q=dataset/hiv-testing-hospitals,
General Emilio Aguinaldo Memorial Hospital,,,Government,Treatment Hub,Region IV-A,,Cavite,,Trece Martirez,,,,"Brgy. Luciano, Trece Martirez City, Cavite",63 46 6860856; 63 9773325852; 63 9213241693,14.27555,120.87055,pho1_cavite@yahoo.com,Mo-Fr 08:00-17:00,,,,Mikko Tamura,https://www.doh.gov.ph/sites/default/files/statistics/HIV_2019_April.pdf,
Ospital ng Biñan,,ONB HIV Treatment Hub,Government,Treatment Hub,Region IV-A,,Laguna,,Binan,,,,"Canlalay Bridge, Biñan, Laguna",63 49 5114119; 63 9159065585; 63 9166800299,14.33709,121.074322,ospitalngbiñan_315@yahoo.com,Mo-Fr 08:00-17:00,,,"Ospital ng Bi√±an is also offering ARV refill support to Cabuyao, San Pedro, Sta. Rosa, and Calamba, please coordinate with Joriz RN for more details",,https://www.doh.gov.ph/sites/default/files/statistics/HIV_2019_April.pdf,
University of Perpetual Help-Dr. Jose Tamayo Medical Center,,,,Identified HIV Testing/Counselling Facility,Region IV-A,,Laguna,,Binan,,,,"National Highway, Brgy. Sto. Nino, Binan, Laguna",63 49 5119799 loc. 2018,14.330448,121.084963,,,,,,,https://data.gov.ph/?q=dataset/hiv-testing-hospitals,
Calamba Doctors Hospital,,Plus Life Center,Private,Treatment Hub,Region IV-A,,Laguna,,Calamba City,,,,"San Cristobal Bridge, Calamba, Laguna",63 49 5457371,14.21712,121.14193,amsi_cdh@yahoo.com,Mo-Fr 08:00-17:00,,,,Mikko Tamura,https://www.doh.gov.ph/sites/default/files/statistics/HIV_2019_April.pdf,
Calamba Medical Center,,,,Identified HIV Testing/Counselling Facility,Region IV-A,,Laguna,,Calamba City,,,,"National Highway, Crossing, Calamba City, Laguna",63 49 5456080 loc. 1217,14.21714,121.141955,,,,,,,https://data.gov.ph/?q=dataset/hiv-testing-hospitals,
Hi-Precision Diagnostics (Calamba City Branch),,,Private,Identified HIV Testing/Counselling Facility,Region IV-A,,Laguna,,Calamba City,,,,"G/F Andenson Building III, National Highway, Brgy. Parian, Calamba City, Laguna",63 9257075131; 63 9177028748; 63 49 5089872,14.208904,121.154452,info@hi-precision.com.ph,Mo-Sa 06:00-16:00,https://www.hi-precision.com.ph/,,,Papu Torres,https://www.webbline.com/hiv-testing-centers/,
San Pablo Colleges Medical Center,,,Private,Identified HIV Testing/Counselling Facility,Region IV-A,,Laguna,,San Pablo,,,,"Brgy. San RafaelMaharlika Hi-way, San Pablo Laguna",63 49 5620726; 63 49 5620728,14.070628,121.306891,,,,,,,https://data.gov.ph/?q=dataset/hiv-testing-hospitals,
San Pablo Social Hygiene Clinic,,,Government,Primary HIV Care Facility,Region IV-A,,Laguna,,San Pablo,,,,"City Governance Bldg, Apolinario Mabini Ext, Barangay 5A, San Pablo City",63 49 5628116; 63 49 5627872; 63 9173129663,14.07461,121.324935,,Mo-Fr 08:00-17:00,,,,,https://www.doh.gov.ph/sites/default/files/statistics/HIV_2019_April.pdf,
Evangelista Multi Specialty Hospital,,,Private,Identified HIV Testing/Counselling Facility,Region IV-A,,Laguna,,San Pedro,,,,"Macaria Drive cor J.P. Rizal, Pacita Complex, San Pedro, Laguna",63 49 8084895,14.342048,121.058182,,,,,,Cham,https://data.gov.ph/?q=dataset/hiv-testing-hospitals,
Jose Amante Hospital City of San Pedro,,,Government,Identified HIV Testing/Counselling Facility,Region IV-A,,Laguna,,San Pedro,,,,,63 2 8685284,14.364959,121.055953,,,,,,Cham,https://www.facebook.com/RedTentPh/posts/list-of-hiv-testing-and-counseling-centerssan-lazaro-hospitalquiricada-st-sta-cr/1909593362641522/,
Laguna Medical Center,Laguna Provincial Hospital,LMC HACT Clinic,Government,Treatment Hub,Region IV-A,,Laguna,,Sta. Cruz,,,,"J. De Leon St, Santa Cruz, Laguna",63 49 5433351; 63 9178465901; 63 9070406343,14.275543,121.419032,lagunamedicalcenterofficial@gmail.com,Mo-Fr 08:00-17:00,,,,,https://www.doh.gov.ph/sites/default/files/statistics/HIV_2019_April.pdf,
Hi-Precision Diagnostics (Sta. Rosa Branch),,,Private,Identified HIV Testing/Counselling Facility,Region IV-A,,Laguna,,Sta. Rosa,,,,Unit G01-G02 San Jose Bldg. Sta. Rosa Estates Commercial Strip Tagaytay Rd. Sta. Rosa Laguna,63 9338193864; 63 9178620489; 63 49 5436661,14.246287,121.06069,info@hi-precision.com.ph,Mo-Sa 06:00-16:00,https://www.hi-precision.com.ph/,,,Papu Torres,https://www.webbline.com/hiv-testing-centers/,
New Sinai MDI Hospital,,,Private,Identified HIV Testing/Counselling Facility,Region IV-A,,Laguna,,Sta. Rosa,,,,"National Highway, Tagapo, Sta. Rosa, Laguna",63 49 8381281; 63 49 5343499 loc. 117,14.317541,121.098473,newsinaimdi@yahoo.com,24-Jul,https://www.newsinaimdi.com/,,,Sedric Suringa,https://data.gov.ph/?q=dataset/hiv-testing-hospitals,
The Medical City South Luzon,Southern Luzon Hospital and Medical Center,,,Identified HIV Testing/Counselling Facility,Region IV-A,,Laguna,,Sta. Rosa,,,,"Brgy Don Jose Green Field Paseo Sta. Rosa, Laguna",63 49 5440120,14.248457,121.067288,,,https://www.tmcsl.ph/,https://www.facebook.com/TheMedicalCitySouthLuzon/,,,https://data.gov.ph/?q=dataset/hiv-testing-hospitals,
Sta. Rosa City Health Office,,,Government,Identified HIV Testing/Counselling Facility,Region IV-A,,Laguna,,Sta. Rosa,,,,"Rizal Boulevard, Kanluran",63 49 5300015 loc. 5314,14.31488,121.11351,,,,,,,https://www.facebook.com/RedTentPh/posts/list-of-hiv-testing-and-counseling-centerssan-lazaro-hospitalquiricada-st-sta-cr/1909593362641522/,
Candelaria RHU,,,Government,Identified HIV Testing/Counselling Facility,Region IV-A,,Quezon,,Candelaria,,,,"Sampaguita, Labak 2",63 42 5854205,13.93008,121.42072,,,,,,,#safelyph application by The Red Whistle,
Gumaca Social Hygiene Clinic,,,Government,Identified HIV Testing/Counselling Facility,Region IV-A,,Quezon,,Gumaca,,,,"M.H. Del Pilar St, Brgy Bagong Buhay",63 42 3175488; 63 42 3176269; 63 42 3175488,13.92119,122.09839,,,,,,Adam Banto,https://www.webbline.com/hiv-testing-centers/,
Lucena Social Hygiene Clinic,,,Government,Identified HIV Testing/Counselling Facility,Region IV-A,,Quezon,,Lucena City,,,,"Sampaguita, Zaballero Subdivision, Lucena, 4301 Quezon Province, Philippines",63 42 7108380; 63 42 7972187,13.947919,121.611014,,Mo-Fr 08:00-17:00,,,,Adam Banto,https://www.webbline.com/hiv-testing-centers/,
Mount Carmel Diocesan General Hospital,,,,Identified HIV Testing/Counselling Facility,Region IV-A,,Quezon,,Lucena City,,,,"Allarey Extension, Quezon",63 42 7161822,13.94071,121.61102,,,,,,Mikko Tamura,https://data.gov.ph/?q=dataset/hiv-testing-hospitals,
Quezon Medical Center,,Live Positive Wellness Center Lucena,Government,Treatment Hub,Region IV-A,,Quezon,,Lucena City,,,,"Brgy. XI, Quezon Avenue, Lucena, 4301 Quezon Province, Philippines",63 42 7176323 loc. 342; 63 9209175201,13.942559,121.61274,quezon.medicalcenter@yahoo.com.ph,Mo-Fr 08:00-17:00,,,,Adam Banto,https://www.doh.gov.ph/sites/default/files/statistics/HIV_2019_April.pdf,
Antipolo Social Hygiene and Satellite Treatment Hub,,,Government,Primary HIV Care Facility,Region IV-A,,Rizal,,Antipolo,,,,"
3rd Floor Antipolo City Health Office M. Santos St. San Roque, Antipolo, Rizal 1870",63 9207262264; 63 2 6970362; 63 2 6964097; 63 9452904781; 63 9976828172,14.585742,121.174529,antipolosocialhygiene2014@gmail.com,Mo-Fr 08:00-21:00,,,,Beatrice Tan Lim,https://www.doh.gov.ph/sites/default/files/statistics/HIV_2019_April.pdf,
Cainta Reproductive Wellness - Social Hygiene Clinic,,,Government,Primary HIV Care Facility,Region IV-A,,Rizal,,Cainta,,,,"Municipal Cmpd A. Bonifacio Ave. Brgy. Sto. Domingo, Cainta",63 2 6962607,14.580144,121.114544,,,,,,,https://www.doh.gov.ph/sites/default/files/statistics/HIV_2019_April.pdf,
Rodriguez Municipal Health Office,,,Government,Primary HIV Care Facility,Region IV-A,,Rizal,,Rodriguez,,,,J.P Rizal St. Baliote Rodriguez Rizal,63 9209215204; 63 9228768220; 63 9295898759; 63 9970763263,14.733323,121.145236,,Mo-Fr 08:00-17:00,,,,,https://www.doh.gov.ph/sites/default/files/statistics/HIV_2019_April.pdf,
Taytay Doctors Multispecialty Hospital,,,Private,Identified HIV Testing/Counselling Facility,Region IV-A,,Rizal,,Taytay,,,,"3rd floor, RM. 301, #6 Rizal Ave., Brgy. San Isidro, Taytay, Rizal",63 2 85703319,14.57376,121.12535,,,,,,Mikko Tamura,https://www.webbline.com/hiv-testing-centers/,
Dr. Damian Reyes Provincial Hospital,,,Government,Treatment Hub,Region IV-B,,Marinduque,,Boac,,,,"National Highway, Boac, Marinduque",63 9209721385,13.443542,121.828366,,,,,,,,
Mamburao Rural Health Unit,,,Government,Identified HIV Testing/Counselling Facility,Region IV-B,,Occidental Mindoro,,Mamburao,,,,,63 9328777011,13.226693,120.594327,,,,,,Cham,https://www.webbline.com/hiv-testing-centers/,
Occidental Mindoro Provincial Hospital,,ARUGA Clinic,Government,Treatment Hub,Region IV-B,,Occidental Mindoro,,Mamburao,,,,"Paluan Road, Mamburao, Occidental Mindoro",63 43 7111116,13.230871,120.586205,dra_tan_mbo@yahoo.com,,,,,Cham,https://www.doh.gov.ph/sites/default/files/statistics/HIV_2019_April.pdf,
San Jose Social Hygiene Clinic,,,Government,Identified HIV Testing/Counselling Facility,Region IV-B,,Occidental Mindoro,,San Jose,,,,"M H Del Pilar Street, Mangaran, San Jose",63 9209319336,12.35257,121.06933,,,,,,,https://www.facebook.com/RedTentPh/posts/list-of-hiv-testing-and-counseling-centerssan-lazaro-hospitalquiricada-st-sta-cr/1909593362641522/,
Oriental Mindoro Provincial Hospital,,Purple Rain Clinic,Government,Treatment Hub,Region IV-B,,Oriental Mindoro,,Calapan City,,,,"Sta. Isabel, Calapan City, Oriental Mindoro",63 9164691469,13.376467,121.177777,omphpgom@gmail.com,,,,,Cham,https://www.doh.gov.ph/sites/default/files/statistics/HIV_2019_April.pdf,
Southern Palawan Provincial Hospital,,,Government,Identified HIV Testing/Counselling Facility,Region IV-B,,Palawan,,Brooke's Point,,,,,63 9158045655; 63 9052938486; 63 9052938486,8.793172,117.835892,,,,,,Maning,https://www.webbline.com/hiv-testing-centers/,
EL Nido Social Hygiene Clinic,,,Government,Identified HIV Testing/Counselling Facility,Region IV-B,,Palawan,,El Nido,,,,,63 9178011925,11.179203,119.390708,,,,,,,https://www.facebook.com/RedTentPh/posts/list-of-hiv-testing-and-counseling-centerssan-lazaro-hospitalquiricada-st-sta-cr/1909593362641522/,
Agape Rural Program,,,NGO,Identified HIV Testing/Counselling Facility,Region IV-B,,Palawan,,Puerto Princesa,,,,"Room 5 Garcellano Tourist Inn, Rizal Ave, Puerto Princesa",63 9175432150,9.74039,118.740134,,,,,,,https://www.facebook.com/RedTentPh/posts/list-of-hiv-testing-and-counseling-centerssan-lazaro-hospitalquiricada-st-sta-cr/1909593362641522/,
Medical Mission Group Hospital and Health Services Cooperative,,,Government,Identified HIV Testing/Counselling Facility,Region IV-B,,Palawan,,Puerto Princesa,,,,"Burgos cor. Mabini St, Puerto Princesa City, Palawan",63 9179285379,9.735523,118.734042,,,,,,Cham,https://www.facebook.com/RedTentPh/posts/list-of-hiv-testing-and-counseling-centerssan-lazaro-hospitalquiricada-st-sta-cr/1909593362641522/,
Ospital ng Palawan,,ONP Red Top Center,Government,Treatment Hub,Region IV-B,,Palawan,,Puerto Princesa,,,,220 Malvar St. Puerto Princesa City,63 9998085888; 63 48 4346864; 63 48 4342148,9.747808,118.7445,ospital_palawan@yahoo.com,,,,,Cham,https://www.doh.gov.ph/sites/default/files/statistics/HIV_2019_April.pdf,
Palawan Adventist Hospital,,,Private,Identified HIV Testing/Counselling Facility,Region IV-B,,Palawan,,Puerto Princesa,,,,"Brgy. San Pedro, Puerto Princesa City",63 48 4331247; 63 9166487821,9.764285,118.748248,,,,,,Maning,https://www.webbline.com/hiv-testing-centers/,
Northern Palawan Provincial Hospital,,,Government,Identified HIV Testing/Counselling Facility,Region IV-B,,Palawan,,Taytay,,,,,63 9177919749; 63 9168855025,10.771774,119.50355,,,,,,Maning,https://www.webbline.com/hiv-testing-centers/,
Romblon Provincial Hospital,,,Government,Treatment Hub,Region IV-B,,Romblon,,Odiongan,,,,"Odiongan, Romblon",63 9272107040,12.394361,121.984176,,,,,,,,
Mediprime Medical Clinic,,,Private,Primary HIV Care Facility,Region IV-A,,Rizal,,Cainta,,,,"159 Felix Ave Karangalan Village, Cainta",63 9171766334,14.605081,121.105424,mpmc0219@gmail.com,Fr-Tu 10:00-22:00,X,https://www.facebook.com/mediprimemedicalclinic/,,,,
Daraga Rural Health Unit,,,Government,Identified HIV Testing/Counselling Facility,Region V,,Albay,,Daraga,,,,"Daraga Municipal Hall, Padre Burgos St., Daraga, Albay, 4501",63 52 8247959; 63 52 4835325,13.1490478,123.7130431,"mho.daraga@gmail.com
",,,,,Justin Vawter,https://www.webbline.com/hiv-testing-centers/,
Bicol Regional Training & Teaching Hospital,,,Government,Treatment Hub,Region V,,Albay,,Legazpi City,,,,"Rizal St., Legaspi City",63 52 4830017 loc. 4227; 63 9995834288; +63 9060049910,13.146816,123.724445,brtth_cares@yahoo.com,Mo-Fr 08:00-16:00,http://brtth.doh.gov.ph/,,Bicol based clients can also contact Gentlemen Bicol support group 0945 851 8767 or Facebook page ( https://www.facebook.com/gentlemenbicolofficial2.0 ),,https://www.doh.gov.ph/sites/default/files/statistics/HIV_2019_April.pdf,
Legazpi Social Hygiene Clinic,,,Government,Identified HIV Testing/Counselling Facility,Region V,,Albay,,Legazpi City,,,,"G/F Legazpi City Health Office, Old Albay District (207.47 mi)
Legazpi, Albay 4500",63 52 4350832; 63 52 4802121,13.138364,123.735004,"
shclegazpi@gmail.com",,,,,Justin Vawter,https://www.webbline.com/hiv-testing-centers/,
Tabaco Social Hygiene Clinic,,,Government,Identified HIV Testing/Counselling Facility,Region V,,Albay,,Tabaco City,,,,"City Health Unit, Rizal St, Tabaco City, Albay, Philippines",63 52 4875362,13.359821,123.730806,,Mo-Fr 08:00-17:00,,,,,https://www.webbline.com/hiv-testing-centers/,
Daet Rural Health Unit I,,,Government,Primary HIV Care Facility,Region V,,Camarines Norte,,Daet,,,,,63 54 4431258,14.092784,122.958388,,,,,,,,
Bicol Medical Center,,,Government,Treatment Hub,Region V,,Camarines Sur,,Naga City,,,,"BMC Road, Naga, Camarines Sur",63 54 8117800,13.622872,123.198688,bmc.nagacity@gmail.com,,https://bmc.doh.gov.ph/,,Bicol based clients can also contact Gentlemen Bicol support group 0945 851 8767 or Facebook page ( https://www.facebook.com/gentlemenbicolofficial2.0 ),,https://www.doh.gov.ph/sites/default/files/statistics/HIV_2019_April.pdf,
Estevez Memorial Hospital Inc. Clinical Laboratory,,,Private,Identified HIV Testing/Counselling Facility,Region V,,Camarines Sur,,Naga City,,,,"Don Juan S. Estevez St., Guevara Subdivision, Legaspi City",63 52 4804021; 63 52 4802135,13.138145,123.74081,emh@estevezhospital.com,Mo-Fr 08:00-17:00,https://estevezhospital.com/,,,Sedric Suringa,https://data.gov.ph/?q=dataset/hiv-testing-hospitals,
Naga City Social Hygiene Clinic,,,Government,Identified HIV Testing/Counselling Facility,Region V,,Camarines Sur,,Naga City,,,,Naga City Hall Compound,63 54 8112562; 63 54 8113316,13.625344,123.198811,cho@naga.gov.ph,,,,,Sedric Suringa,https://www.facebook.com/RedTentPh/posts/list-of-hiv-testing-and-counseling-centerssan-lazaro-hospitalquiricada-st-sta-cr/1909593362641522/,
"St. John Hospital, Inc. Naga City",,,,Identified HIV Testing/Counselling Facility,Region V,,Camarines Sur,,Naga City,,,,"Panganiban Drive, Camarines Sur",63 54 4738502; 63 54 4738919; 63 54 4724521,13.622696,123.190457,,,,,,,https://data.gov.ph/?q=dataset/hiv-testing-hospitals,
Masbate Provincial Hospital,,Masbate Provincial Health Office,Government,Treatment Hub,Region V,,Masbate,,Masbate City,,,,"Provincial Health Office Road, Brgy Kalipay, Masbate City",63 56 3331590; 63 9082061334; 63 9193383397; 63 9212434425,12.372258,123.623664,,,,,Bicol based clients can also contact Gentlemen Bicol support group 0945 851 8767 or Facebook page ( https://www.facebook.com/gentlemenbicolofficial2.0 ),,,
San Jacinto Rural Health Unit,,,Government,Identified HIV Testing/Counselling Facility,Region V,,Masbate,,San Jacinto,,,,"San Jacinto, Ticao Island, Masbate",63 9077782199,12.532628,123.696541,,,,,,Reynier Tasico,https://www.facebook.com/RedTentPh/posts/list-of-hiv-testing-and-counseling-centerssan-lazaro-hospitalquiricada-st-sta-cr/1909593362641522/,
Sorsogon Provincial Health Office,,Sorsogon Social Hygiene Clinic,Government,Primary HIV Care Facility,Region V,,Sorsogon,,Sorsogon,,,,"Magsaysay St, Sorsogon City, Sorsogon, Philippines",63 56 2111883,12.971986,124.001708,,,,,Bicol based clients can also contact Gentlemen Bicol support group 0945 851 8767 or Facebook page ( https://www.facebook.com/gentlemenbicolofficial2.0 ),,https://www.webbline.com/hiv-testing-centers/,
Sorsogon Provincial Hospital,Dr. Fernando B. Duran Sr. Memorial Hospital,,Government,Primary HIV Care Facility,Region V,,Sorsogon,,Sorsogon,,,,,63 9088960215,12.983252,123.989822,,,,,Alternative Refill - Coordinate with BRTTH to have meds delivered; Bicol based clients can also contact Gentlemen Bicol support group 0945 851 8767 or Facebook page ( https://www.facebook.com/gentlemenbicolofficial2.0 ),,,
Aurora Memorial Hospital,,,Government,Identified HIV Testing/Counselling Facility,Region III,PH010000000,Aurora,,Baler,,,,"Brgy. Reserva, Baler, Aurora 3200",63 43 2094256; 63 43 9222819; 63 9399390873,15.806757,121.541659,auroramemhos@gmail.com,Mo-Fr 08:00-17:00,https://aurora.gov.ph/government/provincial-offices/provincial-health-office/aurora-memorial-hospital/,,,,#safelyph application by The Red Whistle,
Maria Aurora Community Hospital,,,Government,Treatment Hub,Region III,,Aurora,,Maria Aurora,,,,"Saturno St., Brgy. 01, Maria Aurora, Aurora",63 9075948798; 63 9178622911,15.796677,121.477679,,Mo-Su 08:00-17:00,X,https://www.facebook.com/Maria-Aurora-Community-Hospital-Rhwcsth-136417303764111/,Region 3 based clients can also contact the Central Luzon Regional PLHIV Support Network - 0923 735 7261 or 0923 520 8672 (8am-10pm),,https://www.doh.gov.ph/sites/default/files/statistics/HIV_2019_April.pdf,
Bataan General Hospital and Medical Center,Bataan HAVEN,,Government,Treatment Hub,Region III,,Bataan,,Balanga City,,,,"Manahan St., Tenejero, Balanga City, Bataan",63 47 2371274; 63 47 2371275 loc. 103; 63 9998844522; 63 9508107534,14.678384,120.530158,bgh_bataan2005@yahoo.com.ph,Mo-Fr 08:00-17:00,http://bataangeneralhospital.doh.gov.ph/index.php,,Bataan-based clients who need ARV refill can also contact POSH Bataan (https://www.facebook.com/POSHBataan2019) support group: 0961 277 2128,Victor Puno,https://www.webbline.com/hiv-testing-centers/,
EDGT Lab Tech Diagnostic Center,,,,Identified HIV Testing/Counselling Facility,Region III,,Bataan,,Balanga City,,,,"Magsaysay St., San Jose, Balanga City, Bataan",63 47 7914139,14.677834,120.538028,,,X,https://www.facebook.com/EDGT-Labtech-Diagnostic-Center-165093297166846/,,,https://data.gov.ph/?q=dataset/hiv-testing-hospitals,
EDGT Lab-Tech Diagnostic Center (Main),,,,Identified HIV Testing/Counselling Facility,Region III,,Bataan,,Balanga City,,,,"Buno Bldg. Kinatawan Rd., Tenejero, Balanga Bataan",63 47 7914568,14.677075,120.530902,,,X,https://www.facebook.com/EDGT-Labtech-Diagnostic-Center-165093297166846/,,,https://data.gov.ph/?q=dataset/hiv-testing-hospitals,
Dinalupihan District Hospital / Jose C. Payumo Jr. Memorial Hospital,,HEARTH Unit,Government,Treatment Hub,Region III,,Bataan,,Dinalupihan,,,,"Tala St. San Ramon, Dinalupihan, Bataan 2110",63 9295852241; 63 9156008004,14.865413,120.460845,g_abara@yahoo.com,Mo-Fr 08:00-17:00,,,Bataan-based clients who need ARV refill can also contact POSH Bataan (https://www.facebook.com/POSHBataan2019) support group: 0961 277 2128,,https://www.doh.gov.ph/sites/default/files/statistics/HIV_2019_April.pdf,
Lamao Health Center,,,Government,Identified HIV Testing/Counselling Facility,Region III,,Bataan,,Limay,,,,Corner Boulevard Street Limay Bataan,63 47 2446549,14.513882,120.609216,,Mo-Fr 08:00-17:00,,,,John Mojica,https://www.webbline.com/hiv-testing-centers/,
Guzorell Medical and Surgical Clinic,,,Private,Identified HIV Testing/Counselling Facility,Region III,,Bataan,,Mariveles,,,,"Lakandula St., Poblacion, Mariveles Bataan",63 47 9355111; 63 47 9356743,14.433988,120.485948,,Mo-Fr 09:00-17:00,,,,,https://data.gov.ph/?q=dataset/hiv-testing-hospitals,
Mariveles Mental Wellness and General Hospital/ Mariveles Mental Hospital,Lazareto,,Government,Treatment Hub,Region III,,Bataan,,Mariveles,,,,"P. Monroe St. Poblacion Bayan ng Mariveles, 2105
Bataan",63 47 9354617; 63 9454321785; 63 9053155472; 63 9398460637; 63 9194974927,14.430601,120.484133,medical@mmh.gov.ph,Fr-Su 13:00-20:00,https://mmh.gov.ph/,,Bataan-based clients who need ARV refill can also contact POSH Bataan (https://www.facebook.com/POSHBataan2019) support group: 0961 277 2128,,,
Orion Rural Health Unit,,,Government,Identified HIV Testing/Counselling Facility,Region III,,Bataan,,Orion,,,,,63 47 2444248,14.623284,120.582945,,,,,,,https://www.webbline.com/hiv-testing-centers/,
Centralle Medical (Bulacan Branch),,,Private,Identified HIV Testing/Counselling Facility,Region III,,Bulacan,,Balagtas,,,,"MacArthur Highway, Wawa, Balagtas, 3016 Bulacan",63 44 6935488,14.81781,120.906735,,Mo-Sa 06:30-17:00,http://centrallemedical.com/balagtas-bulacan/,,,John Mojica,https://www.webbline.com/hiv-testing-centers/,
Allied Care Experts Medical Center Baliuag,ACE Medical Center HIV Treatment Hub,EmbrACE Unit,Private,Treatment Hub,Region III,,Bulacan,,Baliuag,,,,"Lot 2975 C-1 Doña Remedios Trinidad Hi-way Pinagbarilan Baliwag, Bulacan, 3006 Baliuag, Bulacan",63 9175174354 63 9338737688; 63 44 8161000 loc. 204,14.952772,120.884365,acemedicalcenterbaliwag@gmail.com,Mo-Sa 08:00-17:00,x,https://www.facebook.com/theAlliedCareExpertsMedicalcenterBALIWAG/,,Sedric Suringa,https://www.webbline.com/hiv-testing-centers/,
Hi-Precision Diagnostics (Baliuag Branch),,,Private,Identified HIV Testing/Counselling Facility,Region III,,Bulacan,,Baliuag,,,,"Benigno Aquino Sr. Ave., Brgy. Bagong Nayon, Baliuag, Bulacan",63 9175219410; 63 9431351855; 63 9431351856; 63 9431351858; 63 44 7660280-81,14.960705,120.898317,info@hi-precision.com.ph,Mo-Sa 07:00-15:00,https://www.hi-precision.com.ph/branch/Baliuag,,,Papu Torres,https://www.webbline.com/hiv-testing-centers/,
Sta. Elena Diagnostic Center,,,,Identified HIV Testing/Counselling Facility,Region III,,Bulacan,,Baliuag,,,,"Dr. Gonzales St., Tibag, Baliuag, Bulacan",63 44 7664526,14.957766,120.905089,,Mo-Su 07:00-17:00,x,https://www.facebook.com/santaelenadiagnosticcenter/?ref=py_c,,,https://data.gov.ph/?q=dataset/hiv-testing-hospitals,
Guiguinto Rural Health Unit 2,Gintong Kanlungan,,Government,Primary HIV Care Facility,Region III,,Bulacan,,Guiguinto,,,,"Green Estate Subdv. 2nd Floor Guiguinto, Bulacan",63 9754654515; 63 9350634198; 63 44 7603450,14.847778,120.892985,gintongkanlungan@gmail.com,Mo-Fr 08:00-17:00,,,Region 3 based clients can also contact the Central Luzon Regional PLHIV Support Network - 0923 735 7261 or 0923 520 8672 (8am-10pm),,https://www.webbline.com/hiv-testing-centers/,
Bulacan Medical Center,Luntiang Silong,,Government,Treatment Hub,Region III,,Bulacan,,Malolos,,,,"3rd Flr Pay 3 - Rm 301 Mojon, City of Malolos, Bulacan",63 9234051309; 63 9155214322; 63 9171397123,14.858711,120.816548,luntiang.silong@gmail.com,Mo-Sa 08:00-17:00,https://www.bulacan.gov.ph/government/bmc.php,,Region 3 based clients can also contact the Central Luzon Regional PLHIV Support Network - 0923 735 7261 or 0923 520 8672 (8am-10pm),,https://www.doh.gov.ph/sites/default/files/statistics/HIV_2019_April.pdf,
Marilao Rural Health Unit 1,Kanaryong Silungan,,Government,Primary HIV Care Facility,Region III,,Bulacan,,Marilao,,,,"2nd Floor, RHU 1, Northbound NLEX Road, Marilao, Bulacan",63 9256070888; 63 47 2486217,14.772923,120.960194,kanaryong18@gmail.com,Mo-Fr 08:00-17:00,,,Region 3 based clients can also contact the Central Luzon Regional PLHIV Support Network - 0923 735 7261 or 0923 520 8672 (8am-10pm),,https://www.doh.gov.ph/sites/default/files/statistics/HIV_2019_April.pdf,
Meycauayan City Reproductive Health and Wellness Center,Home of Bamboo,,Government,Primary HIV Care Facility,Region III,,Bulacan,,Meycauayan,,,,"Peso St., St. Michael Homes, Pandayan, Meycauayan, Bulacan",63 9232982649; 63 9272324119; 63 9173236972; 63 47 7840684,14.753166,120.963628,homeofbamboo@yahoo.com,Mo-Fr 08:00-17:00,,,Region 3 based clients can also contact the Central Luzon Regional PLHIV Support Network - 0923 735 7261 or 0923 520 8672 (8am-10pm),Sedric Suringa/Mikko Tamura,https://www.doh.gov.ph/sites/default/files/statistics/HIV_2019_April.pdf,
Pastrana Clinical Laboratory,,,,Identified HIV Testing/Counselling Facility,Region III,,Bulacan,,Plaridel,,,,"251 Banga 1st, Plaridel, Bulacan",63 44 7951622; 63 9056304626,14.887536,120.867873,pastranamarkpaul@gmail.com,Mo-Sa 06:30-16:00,x,https://www.facebook.com/PastranaLaboratory/,,,https://data.gov.ph/?q=dataset/hiv-testing-hospitals,
City of San Jose Del Monte Satellite Treatment Hub,Villa Esperanza II,,Government,Identified HIV Testing/Counselling Facility,Region III,,Bulacan,,San Jose del Monte,,,,"Eduardo V. Rognero Sr. Avenue, Bagong Buhay, CSJDM Bulacan (inside Ospital ng SJDM)",,14.854566,121.057101,dnlmangahas@yahoo.com,,,,,,https://www.webbline.com/hiv-testing-centers/,
Ospital Ng Lungsod Ng San Jose Del Monte / City of San Jose Del Monte Primary HIV Care Clinic,Villa Esperanza,,Government,Primary HIV Care Facility,Region III,,Bulacan,,San Jose Del Monte,,,,"Sapang Palay, San Jose Del Monte, Bulacan",63 9236335634; 63 9998840873,14.853946,121.057706,villaesperanza@gmail.com,Mo-Fr 08:00-17:00,,,Region 3 based clients can also contact the Central Luzon Regional PLHIV Support Network - 0923 735 7261 or 0923 520 8672 (8am-10pm),,https://www.doh.gov.ph/sites/default/files/statistics/HIV_2019_April.pdf,
De Jesus Multi-Specialty Clinic and Diagnostic Center,The Green Clinic,,Government,Primary HIV Care Facility,Region III,,Bulacan,,Sta. Maria,,,,"
REDJ bldg. Caypombo cor. CayPombo, Santa Maria, Bulacan 3022",63 44 8153145; 63 9368040043; 63 9171275197,14.847318,120.981061,gchivbul2018@gmail.com,Mo-Sa 08:00-18:00; Su 07:00-12:00,X,https://facebook.com/DeJesusMultiSpecialtyClinic/,Region 3 based clients can also contact the Central Luzon Regional PLHIV Support Network - 0923 735 7261 or 0923 520 8672 (8am-10pm),,https://www.webbline.com/hiv-testing-centers/; https://www.facebook.com/pg/DeJesusMultiSpecialtyClinic/about/,
Dr. Paulino J. Garcia Memorial Research and Medical Center,Sanctuario de Paulino,,Government,Treatment Hub,Region III,,Nueva Ecija,,Cabanatuan City,,,,"Mabini Street, Cabanatuan City, 3100 Nueva Ecija",63 9454626620; 63 9190027679; 63 44 4638888 loc. 203,15.489459,120.97276,dr.pjgmrmc85cabanatuan@gmail.com,Mo-Fr 08:00-16:00,http://drpjgmrmc.doh.gov.ph/,,Region 3 based clients can also contact the Central Luzon Regional PLHIV Support Network - 0923 735 7261 or 0923 520 8672 (8am-10pm),Sedric Suringa,https://www.doh.gov.ph/sites/default/files/statistics/HIV_2019_April.pdf,
Hi-Precision Diagnostics (Cabanatuan Branch),,,Private,Identified HIV Testing/Counselling Facility,Region III,,Nueva Ecija,,Cabanatuan City,,,,"The Crescent Bldg., Km. 114, Maharlika Highway cor. Zulueta St., Brgy. Zulueta, Cabanatuan City","63 9230836850; 63 44 9409404; 63 44 3299507
",15.482337,120.961024,info@hi-precision.com.ph,"
Mo-Sa 07:00-15:00",https://www.hi-precision.com.ph/branch/Cabanatuan,,,Papu Torres,https://www.webbline.com/hiv-testing-centers/,
Immaculate Concepcion Medical Center of Central Luzon Inc.,,,Private,Identified HIV Testing/Counselling Facility,Region III,,Nueva Ecija,,Cabanatuan City,,,,"Circumferential Rd., Brgy. San Juan, San Juan ACCFA",63 44 9404262; 63 44 9400900; 63 44 9400700; 63 44 9400300,15.468758,120.963177,info@icmcne.com,,http://www.icmcne.com/,https://facebook.com/ICMCNE/,,,https://data.gov.ph/?q=dataset/hiv-testing-hospitals,
MV Gallego Cabanatuan City General Hospital,,,,Identified HIV Testing/Counselling Facility,Region III,,Nueva Ecija,,Cabanatuan City,,,,"Cabanatuan City, Nueva Ecija",63 44 4639436,15.476296,120.95793,,,,,,,https://data.gov.ph/?q=dataset/hiv-testing-hospitals,
Good Samaritan Medical Center,,,Private,Identified HIV Testing/Counselling Facility,Region III,,Nueva Ecija,,Cabanatuan City,,,,"Burgos Avenue, Cabanatuan City, Nueva Ecija",63 44 9518888,15.491733,120.973261,negshsi.marketing@gmail.com,,https://www.goodsammed.com.ph/,,,,https://data.gov.ph/?q=dataset/hiv-testing-hospitals,
Premiere Medical Center/ Tahanan Hub,TAHANAN sa Primiere,,Private,Treatment Hub,Region III,,Nueva Ecija,,Cabanatuan City,,,,"Maharlika Highway, Daan Sarile, Cabanatuan City, Nueva
Ecija",63 44 4637845-49 loc. 2073; 63 9322128175; 63 9052944300; 63 95968173441,15.507922,120.967106,tahanansapremiere@gmail.com,Mo-Fr 08:00-17:00,https://www.premieremedcenter.com/,,Region 3 based clients can also contact the Central Luzon Regional PLHIV Support Network - 0923 735 7261 or 0923 520 8672 (8am-10pm),Sedric Suringa,https://www.doh.gov.ph/sites/default/files/statistics/HIV_2019_April.pdf,
Wesleyan University Philippines Hospital,,,,Identified HIV Testing/Counselling Facility,Region III,,Nueva Ecija,,Cabanatuan City,,,,"Tandang Sora St., Mabini Extension 3100, Cabanatuan City, Nueva Ecija",63 44 4634735,15.482257,120.97633,,,X,https://www.facebook.com/wuphospital/,,,https://data.gov.ph/?q=dataset/hiv-testing-hospitals,
Guimba Community Hospital,Balay Ti Namnama,,Government,Treatment Hub,Region III,,Nueva Ecija,,Guimba,,,,"L. de Ocampo St. Saranay District, Guimba, Nueva Ecija",63 44 9510485; 63 9175426617,15.658458,120.768082,guimbacommunityhospital@gmail.com,Mo-Fr 08:00-17:00,,,Region 3 based clients can also contact the Central Luzon Regional PLHIV Support Network - 0923 735 7261 or 0923 520 8672 (8am-10pm),,https://www.doh.gov.ph/sites/default/files/statistics/HIV_2019_April.pdf,
Science City of Muñoz Health Office Social Hygiene Clinic,,,Government,Identified HIV Testing/Counselling Facility,Region III,,Nueva Ecija,,Munoz,,,,"D. Delos Santos St. Poblacion West, Science City of Muñoz, Nueva Ecija",63 44 4860513,15.713114,120.904297,,,,,,,https://www.webbline.com/hiv-testing-centers/,
Heart of Jesus Hospital,,,,Identified HIV Testing/Counselling Facility,Region III,,Nueva Ecija,,San Jose City,,,,"Sobrepeña Drive, Barangay Rafael Rueda Sr., San Jose City, Nueva Ecija",63 44 5111282; 63 44 9583463; 63 44 9589108,15.795744,120.991187,heartofjesushospital@yahoo.com.ph,,http://heartofjesushospital.com/,,,,https://data.gov.ph/?q=dataset/hiv-testing-hospitals,
Talavera General Hospital,Dr. Paulino J. Garcia Memorial Research and Medical Center Talavera Ext.,Talavera's Hope,Government,Treatment Hub,Region III,,Nueva Ecija,,Talavera,,,,"Maestrang Kikay District, Talavera, Nueva Ecija",63 44 4631166; 63 9358124776; 63 9218881119,15.584331,120.920203,teh_talavera@yahoo.com,Mo-Fr 08:00-17:00,X,https://facebook.com/TalaveraGen/,Region 3 based clients can also contact the Central Luzon Regional PLHIV Support Network - 0923 735 7261 or 0923 520 8672 (8am-10pm),,https://www.doh.gov.ph/sites/default/files/statistics/HIV_2019_April.pdf,
Veteran Regional Hospital,,,Government,Identified HIV Testing/Counselling Facility,Region III,,Nueva Viscaya,,Bayombong,,,,"National Highway, Magsaysay Bayombong, Nueva Viscaya",63 78 8053561 loc. 111; 63 78 8053560,16.484059,121.134446,,,,,,,https://data.gov.ph/?q=dataset/hiv-testing-hospitals,
Angeles City Reproductive Health and Wellness Center,Bale Angeleno,,Government,Primary HIV Care Facility,Region III,,Pampanga,,Angeles City,,,,"C. Surlast., Sta. Maria, Balibago, Angeles, 2009 Pampanga",63 9260726899; 63 9325479455,15.164726,120.588625,baleangeleno@gmail.com,Mo-Fr 08:00-17:00,,,Region 3 based clients can also contact the Central Luzon Regional PLHIV Support Network - 0923 735 7261 or 0923 520 8672 (8am-10pm),Sedric Suringa,https://www.doh.gov.ph/sites/default/files/statistics/HIV_2019_April.pdf,
Angeles University Foundation Medical Center,,,,Identified HIV Testing/Counselling Facility,Region III,,Pampanga,,Angeles City,,,,"Angeles City, Pampanga",63 45 6252999,15.14492,120.595144,info@aufmc.com.ph,,https://aufmc.com.ph/,,,,https://data.gov.ph/?q=dataset/hiv-testing-hospitals,
Hi-Precision Diagnostics (Angeles Branch),,,Private,Identified HIV Testing/Counselling Facility,Region III,,Pampanga,,Angeles City,,,,"McArthur Hi-Way Corner Angeles Magalang Road Sto. Cristo, Angeles City",63 9338193862; 63 45 3222211; 63 45 6246227; 63 45 3222111,15.142541,120.596991,info@hi-precision.com.ph,Mo-Sa 06:00-16:00,https://www.hi-precision.com.ph/branch/Angeles,,,Papu Torres / Sedric Suringa,https://www.webbline.com/hiv-testing-centers/,
Apalit Doctors Hospital,ADHope Unit,,Private,Treatment Hub,Region III,,Pampanga,,Apalit,,,,"Gonzales Ave, San Juan, Apalit, Pampanga",63 9362724170; 63 9432880323; 63 9338263741,14.95241,120.763796,cathyap_caylo@yahoo.com,Mo-Tu 08:00-17:00; Th-Sa 08:00-17:00,X,https://facebook.com/apalitdoctors/,Region 3 based clients can also contact the Central Luzon Regional PLHIV Support Network - 0923 735 7261 or 0923 520 8672 (8am-10pm),Mikko,https://www.doh.gov.ph/sites/default/files/statistics/HIV_2019_April.pdf,
Pampanga Medical Specialist Hospital,,,,Identified HIV Testing/Counselling Facility,Region III,,Pampanga,,Guagua,,,,"Guagua, Pampanga",63 45 4557674 loc. 152,14.972586,120.606156,info@pmsh.com.ph,,https://pmsh.com.ph/,,,,https://data.gov.ph/?q=dataset/hiv-testing-hospitals,
Centralle Medical (Mabalacat Branch),,,Private,Identified HIV Testing/Counselling Facility,Region III,,Pampanga,,Mabalacat,,,,"Dau Exit, Dau Mabalacat",63 45 86240533; 63 45 86241024,15.178292,120.588324,,Mo-Sa 07:00-17:00,http://centrallemedical.com/,,,,https://www.webbline.com/hiv-testing-centers/,
Mabalacat Regional Health Unit II,Amlat Balacat,,Government,Primary HIV Care Facility,Region III,,Pampanga,,Mabalacat,,,,"Lourdes Circle, Samsonville, Dau, Mabalacat City",63 9991067475; 63 9260726596; 63 9265021732; 63 9152320798; 63 3313746; 63 9269458541,15.174813,120.586458,,Mo-Fr 08:00-17:00,x,https://www.facebook.com/AMLAT-Mabalacat-Primary-HIV-Care-Clinic-112746583423426,Region 3 based clients can also contact the Central Luzon Regional PLHIV Support Network - 0923 735 7261 or 0923 520 8672 (8am-10pm),,https://www.doh.gov.ph/sites/default/files/statistics/HIV_2019_April.pdf,
The JPM LGBTQ Lounge,,,NGO,Identified HIV Testing/Counselling Facility,Region III,,Pampanga,,Mabalacat,,,,"103-E Roxas Street, Mabalacat, Pampanga",63 9561429240,15.171823,120.587994,jpmofficial@juanpositivemovement.com,,X,https://facebook.com/JPMLGBTQlounge/,,Mikko Tamura,https://www.webbline.com/hiv-testing-centers/,
"Family Planning Organization of the Philippines - CAPUTOL
CARES",,,ngo,Primary HIV Care Facility,Region III,,Pampanga,,San Fernando,,,,"39 Rizal Ave, Bgy Maimpis, San Fernando Pampanga","63 9323194911; 63 9959720968; 
63 9209815156; 63 9232529712",15.06768,120.651139,,,,,,,,
Diaserv Diagnostic Laboratory,,,,Identified HIV Testing/Counselling Facility,Region III,,Pampanga,,San Fernando City,,,,"#12 Zamora Street, Davsan Sindalan 2000, San Fernando, Pampanga",63 9663727729,15.076451,120.639906,diaserv_2000@yahoo.com,M0-Sa 05:00-16:00,x,https://facebook.com/DiaservDiagnosticLab/,,,https://data.gov.ph/?q=dataset/hiv-testing-hospitals,
Hi-Precision Diagnostics (San Fernando Branch),,,Private,Identified HIV Testing/Counselling Facility,Region III,,Pampanga,,San Fernando City,,,,"Unit 101-103 GOP Bldg., McArthur High-way cor. Doña Consolacion St. Brgy. Dolores, San Fernando, Pampanga","63 9338193863; 63 9178622630;
63 45 4098352",15.043297,120.675286,info@hi-precision.com.ph,Mo-Sa 06:00-15:00,https://www.hi-precision.com.ph/branch/SanFernando,,,Papu Torres,https://www.webbline.com/hiv-testing-centers/,
Jose B. Lingad Memorial Regional Hospital,Bahay LInGAD,,Government,Treatment Hub,Region III,,Pampanga,,San Fernando City,,,,"Brgy. San Dolores, San Fernando, Pampanga",63 45 4356801; 63 9336215028; 63 45 4356801 loc. 122,15.034528,120.684636,jblmgh_2012@yahoo.com.ph,Mo-Fr 08:00-17:00; Sa 08:00-12:00,,,Region 3 based clients can also contact the Central Luzon Regional PLHIV Support Network - 0923 735 7261 or 0923 520 8672 (8am-10pm),,https://www.doh.gov.ph/sites/default/files/statistics/HIV_2019_April.pdf,
Mother Teresa of Calcutta Medical Center,,,,Identified HIV Testing/Counselling Facility,Region III,,Pampanga,,San Fernando City,,,,"City of San Fernando, Pampanga",63 45 6363470,15.065101,120.652448,,,,,,,https://data.gov.ph/?q=dataset/hiv-testing-hospitals,
Our Lady of Mt. Carmel Medical Center,,,,Identified HIV Testing/Counselling Facility,Region III,,Pampanga,,San Fernando City,,,,"Km.78 Mc. Arthur Highway Brgy. Saguin, City of San Fernando, Pampanga",63 45 4352421; 63 45 4352420; 63 45 8601265; 63 45 8600993,15.096054,120.624202,info@olmcmc.com,Mo-Fr 08:00-17:00; Sa 08:00-12:00,https://olmcmc.com/,,Region 3 based clients can also contact the Central Luzon Regional PLHIV Support Network - 0923 735 7261 or 0923 520 8672 (8am-10pm),,https://data.gov.ph/?q=dataset/hiv-testing-hospitals,
Rafael Lazatin Memorial Medical Center,,,,Identified HIV Testing/Counselling Facility,Region III,,Pampanga,,San Fernando City,,,,"Angeles City, Pampanga",63 45 6254495,15.146044,120.58095,,,,,,,https://data.gov.ph/?q=dataset/hiv-testing-hospitals,
"V.L Makabali Memorial Hospital, Inc.",,,Private,Identified HIV Testing/Counselling Facility,Region III,,Pampanga,,San Fernando City,,,,"B. Mendoza St., Brgy. Sto. Rosario, City of San Fernando, Pampanga, 2000",63 45 9612234; 63 45 9612284; 63 45 9612616; 63 45 9614080; 63 45 9613521; 63 45 9612442,15.031834,120.688892,makabali_hospital@yahoo.com; hospital.makabali@gmail.com,,https://vlmakabalihospital.webs.com/,https://www.facebook.com/pg/vlmmhi/,,,https://data.gov.ph/?q=dataset/hiv-testing-hospitals,
Concepcion District Hospital,GCH Tambayan,,Government,Treatment Hub,Region III,,Tarlac,,Alfonso Concepcion,,,,"St. Jude Village, Alfonso Concepcion,
Tarlac",63 45 9230852; 63 45 4913664; 63 9107080130; 63 45 9230642; 63 45 4913664,15.329637,120.646674,,Mo-Fr 14:00-19:00,,,,,,
Senor Sto. Nino Hospital,,,,Identified HIV Testing/Counselling Facility,Region III,,Tarlac,,Camiling,,,,"Camiling, Tarlac",63 45 9340176,15.689485,120.414474,,,,,,,https://data.gov.ph/?q=dataset/hiv-testing-hospitals,
Moncada Rural Health Unit I,Balai Moncalinga,,Government,Primary HIV Care Facility,Region III,,Tarlac,,Moncada,,,,"Poblacion 1 Moncada, Tarlac",63 45 6061417; 63 9088818284,15.733371,120.571983,,Mo-Fr 08:00-17:00,,,Region 3 based clients can also contact the Central Luzon Regional PLHIV Support Network - 0923 735 7261 or 0923 520 8672 (8am-10pm),,,
Central Luzon Doctors Hospital,,,,Identified HIV Testing/Counselling Facility,Region III,,Tarlac,,Tarlac City,,,,"San Vicente, Tarlac City",63 45 9820806,15.478009,120.587121,,,,,,,https://data.gov.ph/?q=dataset/hiv-testing-hospitals,
Jecsons Medical Center,,,,Identified HIV Testing/Counselling Facility,Region III,,Tarlac,,Tarlac City,,,,"San Nicolas, Tarlac City",63 45 9825501,15.491026,120.597335,,,,,,,https://data.gov.ph/?q=dataset/hiv-testing-hospitals,
Talon General Hospital,,,,Identified HIV Testing/Counselling Facility,Region III,,Tarlac,,Tarlac City,,,,"23 F. Tanedo Street, Tarlac City, 2300",63 45 9825415; 63 45 9821400,15.490866,120.591606,,,http://tgh.talonemi.com/,,,,https://data.gov.ph/?q=dataset/hiv-testing-hospitals,
Tarlac Provincial Hospital,TPH Cares,,Government,Treatment Hub,Region III,,Tarlac,,Tarlac City,,,,"San Vicente, Tarlac City","63 45 4918970 loc. 225, 247; 63 9289064776",15.474684,120.586515,tarlacprovincialhospital@yahoo.com,Mo-Fr 08:00-17:00,,,Region 3 based clients can also contact the Central Luzon Regional PLHIV Support Network - 0923 735 7261 or 0923 520 8672 (8am-10pm),Mikko Tamura,https://www.doh.gov.ph/sites/default/files/statistics/HIV_2019_April.pdf,
President Ramon Magsaysay Memorial Hospital,Balin Kalinga,,Government,Treatment Hub,Region III,,Zambales,,Iba,,,,"Zambales Medical Society Building (beside Eye Center
Clinic) Palanginan, Iba Zambales",63 9153966014; 63 9192442299; 63 9176196228,15.315277,119.991228,pho_zambales@yahoo.com,Mo-Fr 08:00-17:00,,,Region 3 based clients can also contact the Central Luzon Regional PLHIV Support Network - 0923 735 7261 or 0923 520 8672 (8am-10pm),,https://www.doh.gov.ph/sites/default/files/statistics/HIV_2019_April.pdf,
George Dewey Medical and Wellness Center,,,,Identified HIV Testing/Counselling Facility,Region III,,Zambales,,Olongapo City,,,,"SBFZ, Olongapo City",63 47 2527312 loc. 1026,14.774593,120.307736,,,,,,,https://data.gov.ph/?q=dataset/hiv-testing-hospitals,
James Gordon Memorial Hospital,LEAD Shelter,,Government,Treatment Hub,Region III,,Zambales,,Olongapo City,,,,"#1 Perimeter Rd., New Asinan, Olongapo City",63 47 6024052; 63 9988627015; 63 9186606697,14.826958,120.279982,jlgmh@gmail.com,Mo-Fr 08:00-17:00,,,Region 3 based clients can also contact the Central Luzon Regional PLHIV Support Network - 0923 735 7261 or 0923 520 8672 (8am-10pm),,https://www.doh.gov.ph/sites/default/files/statistics/HIV_2019_April.pdf,
San Marcelino District Hospital,Shelter of Holistic and Positive Embrace (HOPE),,Government,Treatment Hub,Region III,,Zambales,,San Marcelino,,,,"1st/F Admin Bldg, Ntl. Rd. Sto. Domingo, San Marcelino, Zambales",63 9398630806; 63 9984161569; 63 47 9131244,14.959768,120.16817,smdh_smz@yahoo.com,"Mo-Fr 08:00-17:00, Sa 08:00-12:00",,,Region 3 based clients can also contact the Central Luzon Regional PLHIV Support Network - 0923 735 7261 or 0923 520 8672 (8am-10pm),,https://www.doh.gov.ph/sites/default/files/statistics/HIV_2019_April.pdf,
SBMA Dispensary,,,,Identified HIV Testing/Counselling Facility,Region III,,Zambales,,Subic,,,,"Subic, Zambales",63 47 2524380,14.821217,120.276717,,,,,,,https://data.gov.ph/?q=dataset/hiv-testing-hospitals,
The Lounge,,,,Primary HIV Care Facility,Region III,,Bulacan,,San Jose Del Monte,,,,,,14.789023,121.073941,,Mo-Fr 8:00-17:00,,,,,,
Family Planning Organization of the Philippines (FPOP) Community Health Clinic,FPOP Pampanga,,,Primary HIV Care Facility,Region III,,Pampanga,,San Fernando,,,,"# 39 Purok 2, Brgy. Maimpis, City of San Fernando, Pampanga",63 44 7603450; 63 9325478488; 63 9260726900; 63 9323194911; 63 9194974927,15.067698,120.651187,fpoppampanga@gmail.com,Mo-Sa 10:00-21:00,x,https://www.facebook.com/familyplanning1969/ and https://www.facebook.com/PUSHYCAP,Region 3 based clients can also contact the Central Luzon Regional PLHIV Support Network - 0923 735 7261 or 0923 520 8672 (8am-10pm),,,
Dr. Rafael S. Tumbokon Memorial Hospital,,,Government,Treatment Hub,Region VI,,Aklan,,Kalibo,,,,"Mabini St. Kalibo, Aklan",63 36 2686299,11.705095,122.365833,drstmh@yahoo.com,24-Jul,,,,Mikko Tamura; Carmela Magayanes,https://www.doh.gov.ph/sites/default/files/statistics/HIV_2019_April.pdf,
Kalibo Social Hygiene Clinic,,,Government,Identified HIV Testing/Counselling Facility,Region VI,,Aklan,,Kalibo,,,,,63 36 2685626,11.70523,122.3654,,,,,,,https://www.facebook.com/RedTentPh/posts/list-of-hiv-testing-and-counseling-centerssan-lazaro-hospitalquiricada-st-sta-cr/1909593362641522/,
Boracay Reproductive Health Center,Malay Municipal Health Office,,Government,Identified HIV Testing/Counselling Facility,Region VI,,Aklan,,Malay,,,,"Boracay Satellite Clinic, Boracay Island, Malay, Aklan",63 36 2885624,11.960969,121.927753,,Mo-Fr 08:00-17:00,,,,Carmela Magayanes,https://www.webbline.com/hiv-testing-centers/,
Culasi Rural Health Unit,,,Government,Identified HIV Testing/Counselling Facility,Region VI,,Antique,,Culasi,,,,"Bitadton Sur, Culasi, Antique",63 36 2728208,11.426021,122.055016,,Mo-Fr 08:00-17:00,,,,,webline.com/Boracay social hygiene clinic,
Antique Provincial Hospital / Angel Salazar Memorial General Hospital,Angel Salazar Memorial General Hospital,,Government,Treatment Hub,Region VI,,Antique,,San Jose de Buenavista,,,,"Tobias A. Fornier St, San Jose de Buenavista, Antique",63 36 5407133,10.753842,121.942341,amsgh.email@gmail.com,,,,,Mikko Tamura,https://www.doh.gov.ph/sites/default/files/statistics/HIV_2019_April.pdf,
Bailan District Hospital,,,Government,Identified HIV Testing/Counselling Facility,Region VI,,Capiz,,Pontevedra,,,,,63 36 6340381,11.453295,122.82703,,,X,https://facebook.com/www.bdhospital.gov.ph/,,Maning,https://www.webbline.com/hiv-testing-centers/,
Roxas City Social Hygiene Clinic,,,Government,Primary HIV Care Facility,Region VI,,Capiz,,Roxas City,,,,"Bangbang Street, Roxas City Health Office, Inzo Arnaldo Village Roxas City",63 36 6210578; 63 36 6213244; 63 36 6210578; 63 36 6215686,11.585401,122.754513,,,,,,,,
Roxas Memorial Provincial Hospital,,,Government,Identified HIV Testing/Counselling Facility,Region VI,,Capiz,,Roxas City,,,,,63 36 6210823,11.588052,122.752681,,,,,,Maning,https://www.webbline.com/hiv-testing-centers/,
Family Planning Organization of the Philippines (Iloilo Branch) Community Health Care Birthing Center and Laboratory,FPOP Iloilo,,NGO,Primary HIV Care Facility,Region VI,,Iloilo,,Iloilo City,,,,"Dulalia Bldg., Brgy. Maria Clara Iloilo City",63 33 3208151; 63 9215694450; 63 9175170111,10.691827,122.568493,fpop_iloilo@yahoo.com,,X,https://facebook.com/FPOPiloilo/,,,https://www.doh.gov.ph/sites/default/files/statistics/HIV_2019_April.pdf,
Jaranilla Medical Clinic,,,,Identified HIV Testing/Counselling Facility,Region VI,,Iloilo,,Iloilo City,,,,"67 Huervana St., La Paz, Iloilo City",63 33 3207507,10.712828,122.570402,,,X,https://facebook.com/JaranillaMedicalClinic/,,,https://data.gov.ph/?q=dataset/hiv-testing-hospitals,
St. Paul's Hospital Clinical Laboratory,,,,Identified HIV Testing/Counselling Facility,Region VI,,Iloilo,,Iloilo City,,,,"Gen. Luna St., Iloilo",63 33 3372741; 63 33 3380676,10.70197,122.566766,,,,,,,https://data.gov.ph/?q=dataset/hiv-testing-hospitals,
The Medical City Iloilo,,i-REACT Clinic Iloilo,Private,Treatment Hub,Region VI,,Iloilo,,Iloilo City,,,,"Locsin St., Molo, Iloilo City",63 33 5001000,10.699482,122.543103,info@themedicalcity.com,,http://themedicalcityiloilo.com,,,maning,https://www.doh.gov.ph/sites/default/files/statistics/HIV_2019_April.pdf,
Western Visayas Medical Center,,,Government,Treatment Hub,Region VI,,Iloilo,,Iloilo City,,,,"Q. Abeto St., Mandurriao, Iloilo City",63 33 3213544; 63 33 3211797; 63 33 3211631; 63 9338107676; 63 9127154123,10.718825,122.541789,westernvisayasmedicalcenter@yahoo.com,Mo-Fr 08:00-17:00,,,,,https://www.doh.gov.ph/sites/default/files/statistics/HIV_2019_April.pdf,
Bacolod Diagnostic Center,,,Private,Identified HIV Testing/Counselling Facility,Region VI,,Negros Occidental,,Bacolod City,,,,"21st St. Medical Lane, B.S. Aquino Drive",63 34 4347598; 63 34 4349002,10.681858,122.958289,,,X,https://www.facebook.com/bdc1999//,,,https://data.gov.ph/?q=dataset/hiv-testing-hospitals,
Bacolod Social Hygiene Clinic,,,Government,Identified HIV Testing/Counselling Facility,Region VI,,Negros Occidental,,Bacolod City,,,,"Bacolod City Health Office, Burgos Street",63 34 4348584; 63 34 4344098,10.6682138,122.9563904,,,,,,Christian Constantino,https://www.webbline.com/hiv-testing-centers/,
Corazon Locsin Montelibano Memorial Regional Hospital,,,Government,Treatment Hub,Region VI,,Negros Occidental,,Bacolod City,,,,"2nd flr. OPD Bldg. Lacson St. cor Burgos, Bacolod City",63 344332697; 63 43 4331591; 63 34 7072280,10.672535,122.950736,,Mo-Sa 24/7,,,,Christian Constantino,https://www.doh.gov.ph/sites/default/files/statistics/HIV_2019_April.pdf,
Dr. Pablo O. Torre Memorial Hospital Clinical Laboratory,,,,Identified HIV Testing/Counselling Facility,Region VI,,Negros Occidental,,Bacolod City,,,,"B.S Aquino Drive, Negros Occidental",63 34 4337331; 63 34 7050000 loc. 3115-3116; 63 34 4345532,10.682423,122.958206,clmmrh_coh@yahoo.com; clmmrh_hrmo@yahoo com,,,,,,https://data.gov.ph/?q=dataset/hiv-testing-hospitals,
Villanueva Clinical Laboratory,,,Private,Identified HIV Testing/Counselling Facility,Region VI,,Negros Occidental,,Bacolod City,,,,"8 16th St. Lacson, Bacolod",63 34 4335277; 63 34 4333935,10.680482,122.954241,waltervmd@yahoo.com,Mo-Fr 06:00-19:00; Sa 06:00-17:00; Su 06:30-14:00,http://villanueva-lab.com/,,,JF/Mikko,https://data.gov.ph/?q=dataset/hiv-testing-hospitals,
Gov. Celestino Gallares Memorial Hospital,,,Government,Treatment Hub,Region VII,,Bohol,,Tagbilaran City,,,,"0053 Miguel Parras St, Tagbilaran City, 6300 Bohol",63 38 4114868; 63 38 4113181; 63 38 4113182; 63 38 4113183; 63 38 4113184; 63 38 4113185,9.644252,123.857166,gcgmh_bohol@yahoo.com,,,,,Iosif,https://www.doh.gov.ph/sites/default/files/statistics/HIV_2019_April.pdf,
Balamban District Hospital/Cebu Provincial Hospital - Balamban,,,Government,Treatment Hub,Region VII,,Cebu,,Balamban,,,,"Malvar St, Balamban, 6041 Cebu",63 92 80000000; 63 32 4652220,10.511239,123.716355,provincialhospital.balamban@gmail.com,24-Jul,,,,Sedric Suringa,https://www.doh.gov.ph/sites/default/files/statistics/HIV_2019_April.pdf,
Bantayan District Hospital,,,Government,Identified HIV Testing/Counselling Facility,Region VII,,Cebu,,Bantayan,,,,,63 32 4609330,11.171836,123.731188,,,,,,Mikko Tamura,Dugang Kasayuran - Cebu City Health Pamphlet,
Verallo Memorial Hospital,,,Government,Identified HIV Testing/Counselling Facility,Region VII,,Cebu,,Bogo City,,,,,63 32 4348400,11.046404,123.99421,,,,,,Mikko Tamura,Dugang Kasayuran - Cebu City Health Pamphlet,
Cebu Provincial Hospital - Carcar,,,Government,Treatment Hub,Region VII,,Cebu,,Carcar,,,,"Baracca St. Pob. 2 Carcar City, Cebu",63 32 4878334,10.099182,123.64379,jmpmdh_carcar@yahoo.com; cphcarcar@yahoo.com,,,,,Mikko Tamura,https://www.doh.gov.ph/sites/default/files/statistics/HIV_2019_April.pdf,
Asilo De La Milagrosa - Halfway House for PLHIV,,,NGO,Identified HIV Testing/Counselling Facility,Region VII,,Cebu,,Cebu City,,,,"Gorordo Ave, Cebu City",63 32 4878334,10.31513,123.90203,,,,,,Mikko Tamura,https://www.webbline.com/hiv-testing-centers/,
Cebu (Velez) General Hospital Laboratory,,,Private,Identified HIV Testing/Counselling Facility,Region VII,,Cebu,,Cebu City,,,,"4/F Ramos St., Cebu City",63 32 2531871 loc. 58; 63 32 2536839,10.307278,123.896894,,24-Jul,,,,Sedric Suringa,https://data.gov.ph/?q=dataset/hiv-testing-hospitals,
Cebu City Medical Center,,,Government,Identified HIV Testing/Counselling Facility,Region VII,,Cebu,,Cebu City,,,,,63 32 5163934,10.29785,123.89298,,,X,https://www.facebook.com/Cebu-City-Medical-Center-Official-108791864072468/,,Mikko Tamura,https://www.webbline.com/hiv-testing-centers/,
Cebu City Health Office,,Cebu City Social Hygiene Clinic,Government,Primary HIV Care Facility,Region VII,,Cebu,,Cebu City,,,,"General Maxilom Avenue Extension, Carreta, Cebu City",63 32 2326863; 63 32 2326848; 63 32 3659962; 63 9173291663; 63 9255591663; 63 32 2330987,10.308149,123.90898,ilya91663@yahoo.com,,X,https://facebook.com/cebucityshc/,,Sedric Suringa,https://www.doh.gov.ph/sites/default/files/statistics/HIV_2019_April.pdf,
"Cebu Sagrada Corazon Health Services, Inc.",,,Private,Identified HIV Testing/Counselling Facility,Region VII,,Cebu,,Cebu City,,,,"Room 310, City Savings Financial Plaza Osmena Blvd., cor. P. Burgos St., Cebu City",63 32 2551180; 63 32 2555639; 63 32 4122925; 63 32 2344042; 63 32 2321527,10.294472,123.903044,,Mo-Fr 07:30-17:00,,,,Sedric Suringa,https://data.gov.ph/?q=dataset/hiv-testing-hospitals,
"Dr. Ignacio M. Cortez General Hospital, Inc.",,,,Identified HIV Testing/Counselling Facility,Region VII,,Cebu,,Cebu City,,,,"Rizal St. Ibabao, Mandaue City",63 32 3451486; 63 32 3460810,10.329197,123.943352,,,,,,,https://data.gov.ph/?q=dataset/hiv-testing-hospitals,
Adventist Hospital Cebu,,,,Identified HIV Testing/Counselling Facility,Region VII,,Cebu,,Cebu City,,,,"400 Tres De Abril St., Cebu City",63 32 2612100; 63 32 2616082 loc. 134; 63 32 2612111,10.296114,123.887679,,,X,https://www.facebook.com/adventisthospitalcebuofficial/,,,https://data.gov.ph/?q=dataset/hiv-testing-hospitals,
Hi-Precision Diagnostics (Capitol Cebu Branch),,,Private,Identified HIV Testing/Counselling Facility,Region VII,,Cebu,,Cebu City,,,,"WES Bldg. No. 28 J. Llorente St., Capitol, Cebu City",63 32 2560151,10.311251,123.89313,,Mo-Fr 06:00-18:00; Sa 06:00-17:00; Su 06:00-14:00,https://www.hi-precision.com.ph,,,Papu Torres,https://www.webbline.com/hiv-testing-centers/,
Hi-Precision Diagnostics (Osmena Branch),,,Private,Identified HIV Testing/Counselling Facility,Region VII,,Cebu,,Cebu City,,,,"G/F Medalle Bldg., Osmeña Blvd., Cebu City",63 9177126524; 63 9338294493; 63 32 2554131; 63 32 2554133,10.31124,123.892861,info@hi-precision.com.ph,Mo-Fr 06:00-18:00; Sa 06:00-17:00,https://www.hi-precision.com.ph,,,Papu Torres,https://www.webbline.com/hiv-testing-centers/,
LoveYourself White House,,,NGO,Primary HIV Care Facility,Region VII,,Cebu,,Cebu City,,,,"6 A. Morales St., Cebu City",63 32 3677016; 63 9620000000,10.319206,123.898892,info@loveyourself.ph,Tu-Sa 10:00-17:00,http://loveyourself.ph,https://www.facebook.com/loveyourselfwhitehouse/,,Mikko Tamura,https://www.wheninmanila.com/list-of-clinics-in-philippines-that-offer-free-hiv-testing/,
St. Peter Paul Medical Clinic,,,,Identified HIV Testing/Counselling Facility,Region VII,,Cebu,,Cebu City,,,,"458B Colon St., Cebu City",63 32 4121104; 63 32 4120940,10.297697,123.90276,,,,,,,https://data.gov.ph/?q=dataset/hiv-testing-hospitals,
Vicente Sotto Memorial Medical Center,,,Government,Treatment Hub,Region VII,,Cebu,,Cebu City,,,,"B. Rodriguez St., Cebu City",63 32 2544155; 63 32 2539891-96 loc. 102; 63 9218161065,10.30778,123.891615,vsmmc_osm@yahoo.com; vsmmctreatmenthub@gmail.com; vsmmc.kaambag@gmail.com,,http://vsmmc.doh.gov.ph,,,,https://www.doh.gov.ph/sites/default/files/statistics/HIV_2019_April.pdf,
Visayas Community Medical Center,,Balay Malingkawasnon,Private,Treatment Hub,Region VII,,Cebu,,Cebu City,,,,85 Osmena Blvd. Cebu City,63 32 2533844; 63 32 2533025; 63 32 2531901,10.306387,123.89512,vcmcuccp@yahoo.com,,http://vcmc.com.ph,,,,https://www.doh.gov.ph/sites/default/files/statistics/HIV_2019_April.pdf,
Cebu Provincial Hospital - Danao,,,Government,Identified HIV Testing/Counselling Facility,Region VII,,Cebu,,Danao City,,,,"National Highway, Danao City, Cebu",63 32 2620819,10.52217,124.028887,,,X,https://facebook.com/cebuprovincialhospitaldanao/,,Mikko Tamura,Dugang Kasayuran - Cebu City Health Pamphlet,
Danao City Social Hygiene Clinic,,,Government,Primary HIV Care Facility,Region VII,,Cebu,,Danao City,,,,"Danao City Hall, F. Ralota St., Poblacion",63 9176326694; 63 9330266694,10.519636,124.027267,,,,,,Mikko Tamura,https://www.doh.gov.ph/sites/default/files/statistics/HIV_2019_April.pdf,
Hi-Precision Diagnostics (Mactan Branch),,,Private,Identified HIV Testing/Counselling Facility,Region VII,,Cebu,,Lapu Lapu City,,,,"MV Patalinhug Avenue Basak, Lapu Lapu City",63 32 5201142,10.289311,123.967644,,Mo-Sa 06:00-16:00,https://www.hi-precision.com.ph,,,Papu Torres,https://www.webbline.com/hiv-testing-centers/,
Lapu-Lapu City District Hospital,,,Government,Identified HIV Testing/Counselling Facility,Region VII,,Cebu,,Lapu Lapu City,,,,"Looc-Basak Rd., Lapu-Lapu City",63 32 2326848,10.301512,123.950768,info@hi-precision.com.ph,,,,,Franklin Maraya,https://www.webbline.com/hiv-testing-centers/,
Lapu-Lapu City Social Hygiene Clinic,,,Government,Identified HIV Testing/Counselling Facility,Region VII,,Cebu,,Lapu Lapu City,,,,"Inside City Health Office, near City Hall",63 32 3402584; 63 32 3405339,10.31628,123.96476,n/a,,,,,Sedric Suringa,https://www.webbline.com/hiv-testing-centers/,
Hi-Precision Diagnostics (Liloan Branch),,,Private,Identified HIV Testing/Counselling Facility,Region VII,,Cebu,,Liloan,,,,"North Road, Looc Poblacion, Liloan, Cebu",63 32 5176278; 63 32 2688606,10.405691,123.998677,,Mo-Sa 06:00-16:00,https://www.hi-precision.com.ph,,,Papu Torres,https://www.webbline.com/hiv-testing-centers/,
Chong Hua Hospital (Mandaue Branch),,ART Club 802,Private,Treatment Hub,Region VII,,Cebu,,Mandaue City,,,,"Int’l Mantawi Drive. Rec. Area, Bgy. Subangdaku, Mandaue",63 32 2338000 loc. 8880,10.337797,123.942984,customerservice@chonghua.com.ph,24-Jul,http://www.chonghuahospital.org,,,Sedric Suringa,https://www.doh.gov.ph/sites/default/files/statistics/HIV_2019_April.pdf,
Eversley Childs Sanitarium and General Hospital,,,Government,Treatment Hub,Region VII,,Cebu,,Mandaue City,,,,"Upper Jagobiao Rd, Mandaue City, Cebu",63 32 3462468,10.366452,123.953695,ecschdcv@yahoo.com,,http://ecs.doh.gov.ph,,,Sedric Suringa,https://www.doh.gov.ph/sites/default/files/statistics/HIV_2019_April.pdf,
Hi-Precision Diagnostics (Mandaue Branch),,,Private,Identified HIV Testing/Counselling Facility,Region VII,,Cebu,,Mandaue City,,,,"Diamond Plaza - Bldg. 2. M.C. Briones National Highway, Mandaue City",63 32 2388600; 63 9177126551; 63 9338294496,10.337796,123.943055,info@hi-precision.com.ph,Mo-Sa 06:00-17:00; Su 06:00-12:00,https://www.hi-precision.com.ph,,,Papu Torres,https://www.webbline.com/hiv-testing-centers/,
Mandaue City District Hospital,,,Government,Identified HIV Testing/Counselling Facility,Region VII,,Cebu,,Mandaue City,,,,"A. Soriano Avenue, Mandaue City ,Cebu",63 32 3459739,10.323585,123.942879,info@hi-precision.com.ph,,,,,Franklin Maraya,https://www.webbline.com/hiv-testing-centers/,
Mandaue City Social Hygiene Clinic,,,Government,Primary HIV Care Facility,Region VII,,Cebu,,Mandaue City,,,,"Mandaue City Health Office, F.B. Kabahog St. Centro Mandaue City",63 32 2682489; 63 32 3460110; 63 9285077400,10.324907,123.941907,,,,,,,https://www.doh.gov.ph/sites/default/files/statistics/HIV_2019_April.pdf,
Vicente Gullas Memorial Hospital,,,,Identified HIV Testing/Counselling Facility,Region VII,,Cebu,,Mandaue City,,,,Banilad Mandaue City,63 32 3469292; 63 32 3466137,10.347086,123.915045,mandauecityhealth@gmail.com,,,,,,https://data.gov.ph/?q=dataset/hiv-testing-hospitals,
Ricardo L. Maningo Memorial Hospital,,,Government,Identified HIV Testing/Counselling Facility,Region VII,,Cebu,,San Francisco,,,,"San Francisco, Camotes Island, Cebu",63 32 4970243,10.656732,124.376881,,,,,,Mikko Tamura; Franklin Maraya,Dugang Kasayuran - Cebu City Health Pamphlet,
Hi-Precision Diagnostics (Tabunok Branch),,,Private,Identified HIV Testing/Counselling Facility,Region VII,,Cebu,,Talisay City,,,,"South National Highway, Talisay City",63 32 2366277,10.267656,123.843009,,Mo-Sa 06:00-17:00; Su 06:00-12:00,https://www.hi-precision.com.ph,,,Papu Torres,https://www.webbline.com/hiv-testing-centers/,
Talisay City Social Hygiene Clinic,,,Government,Primary HIV Care Facility,Region VII,,Cebu,,Talisay City,,,,"Multi Purpose Bldg, Brgy. Poblacion, Talisay City",63 32 4915567; 63 32 2734704; 63 9233044387,10.253362,123.829208,,Mo-Fr 08:00-17:00,,,,,https://www.doh.gov.ph/sites/default/files/statistics/HIV_2019_April.pdf,
Talisay District Hospital,,,Government,Treatment Hub,Region VII,,Cebu,,Talisay City,,,,"San Isidro, Dakbayan sa Talisay",63 32 2733226,10.25365,123.83872,,,X,https://facebook.com/DOHTDHCebu/,,Mikko Tamura,https://www.doh.gov.ph/sites/default/files/statistics/HIV_2019_April.pdf,
Negros Oriental Provincial Hospital,,,Government,Treatment Hub,Region VII,,Negros Oriental,,Dumaguete City,,,,"Real St., Dumaguete City, Negros Oriental",63 35 2250950; 63 35 2250949,9.322678,123.300483,negor.provincialhospital@gmail.com,,X,https://www.facebook.com/negrosorientalprovincialhospital/,,,https://www.doh.gov.ph/sites/default/files/statistics/HIV_2019_April.pdf,
Western Leyte Provincial Hospital,,,Government,Treatment Hub,Region VIII,,Leyte,,Baybay,,,,"Baybay, Leyte",63 53 6421262; 63 9267542917,10.680503,124.797806,,,X,https://facebook.com/knorrmhan/,,,https://data.gov.ph/?q=dataset/hiv-testing-hospitals,
Biliran Provincial Health Office,,,Government,Treatment Hub,Region VIII,,Biliran,,Naval,,,,"Capitol Building Of Biliran, Poblacion, Biliran, 6549",63 53 5009648; 63 53 5615983,11.565906,124.409286,,24-Jul,X,https://facebook.com/PHOhealthpromo/,,John Mojica,https://www.doh.gov.ph/sites/default/files/statistics/HIV_2019_April.pdf,
Eastern Samar Provincial Hospital,,,Government,Treatment Hub,Region VIII,,Eastern Samar,,Borongan,,,,"Borongan Eastern, Samar",63 55 5609321; 63 55 5609869,11.61141,125.4319,,,,,,,https://www.doh.gov.ph/sites/default/files/statistics/HIV_2019_April.pdf,
Felipe Abrigo Memorial Hospital,,,Government,Treatment Hub,Region VIII,,Eastern Samar,,Guiuan,,,,"Hillsview, Guiuan, Eastern Samar",63 55 2712180,11.034605,125.733387,,,,,,,https://www.doh.gov.ph/sites/default/files/statistics/HIV_2019_April.pdf,
Hilongos District Hospital,,,Government,Treatment Hub,Region VIII,,Leyte,,Hilongos,,,,"CV Alcuiwo St., Hilongos, Leyte",63 53 5679452; 63 53 3362102,10.367625,124.75652,,,,,,,https://www.doh.gov.ph/sites/default/files/statistics/HIV_2019_April.pdf,
Ormoc City Social Hygiene Clinic,,,Government,Primary HIV Care Facility,Region VIII,,Leyte,,Ormoc City,,,,"CHO Aunubing Street, Barangay Cogon, Ormoc City, Leyte",63 9171126000,11.013816,124.603793,,,,,,,https://www.doh.gov.ph/sites/default/files/statistics/HIV_2019_April.pdf,
Bethany Hospital Clinical Laboratory,,,,Identified HIV Testing/Counselling Facility,Region VIII,,Leyte,,Tacloban City,,,,Real Street Tacloban City,63 53 3212427; 63 53 3214636,11.23259,125.002941,,,http://www.bethanyhospital.8m.net/bethany3_001.htm,,,,https://data.gov.ph/?q=dataset/hiv-testing-hospitals,
Divine Word Hospital,,,Private,Treatment Hub,Region VIII,,Leyte,,Tacloban City,,,,Tacloban City,63 53 3212308; 63 53 3214228,11.241168,125.000104,,,X,https://www.facebook.com/dwhtofficial/,,Mikko Tamura,https://data.gov.ph/?q=dataset/hiv-testing-hospitals,
Eastern Visayas Regional Medical Center,,,Government,Treatment Hub,Region VIII,,Leyte,,Tacloban City,,,,"Magsaysay Blvd., Tacloban City",63 53 3213136; 63 53 3213121; 63 53 3213363,11.25101,125.004635,evrmcmccoffice@gmail.com,24-Jul,,,,Sedric Suringa,https://www.doh.gov.ph/sites/default/files/statistics/HIV_2019_April.pdf,
Tacloban City Social Hygiene Clinic,,,Government,Identified HIV Testing/Counselling Facility,Region VIII,,Leyte,,Tacloban City,,,,,63 53 3253518,11.243367,125.007033,,,,,,Franklin Maraya,https://www.webbline.com/hiv-testing-centers/,
Northern Samar Provincial Hospital,,,Government,Treatment Hub,Region VIII,,Northern Samar,,Catarman,,,,"Balite Street, Catarman, Northern Samar",63 55 5009770,12.500377,124.6363,,24-Jul,X,https://www.facebook.com/pages/category/Hospital/Northern-Samar-Provincial-Hospital-647085621970037/,,John Mojica,https://www.doh.gov.ph/sites/default/files/statistics/HIV_2019_April.pdf,
St. Camillus Hospital,,St. Camillus Hospital Sundown Clinic,,Treatment Hub,Region VIII,,Samar,,Calbayog,,,,"Maharlika highway Brgy Trinidad Calbayog, Samar",63 55 2093906,12.077829,124.547047,,Mo-Fr 17:00-20:00,X,https://www.facebook.com/schcalbayog/,,,,
Samar Provincial Hospital,,,Government,Treatment Hub,Region VIII,,Samar,,Catbalogan,,,,"Imelda Road Catbalogan City Proper Catbalogan, Samar",63 9173031276,11.773515,124.88605,,,X,https://www.facebook.com/SPHWeCareWeServe/,,,,
Salvacion Oppus Yniguez Memorial Hospital,,,,Treatment Hub,Region VIII,,Southern Leyte,,Maasin City,,,,"Dakbayan Maasin, Southern Leyte",63 9471515248,10.134297,124.846095,,,,,,,,
Leyte Provincial Hospital,,,Government,Treatment Hub,Region VIII,,Leyte,,Palo,,,,,63 53 3233059,11.18096,125.006049,,,,,,,,
Amai Pakpak Medical Center,,,Government,Treatment Hub,BARMM,,Lanao Del Sur,,Marawi,,,,"Marawi City, Lanao del Sur",63 9178871029,8.004399,124.284063,apmc_marawi@yahoo.com,,,,,,,
Cotabato Regional Medical Center,,,Government,Identified HIV Testing/Counselling Facility,BARMM,,Maguindanao,,Cotabato City,,,,"RH-11, Sinsuat Ave., Cotabato City",63 9178946224,7.200377,124.236307,,,http://crmc.doh.gov.ph/,,,,https://www.facebook.com/RedTentPh/posts/list-of-hiv-testing-and-counseling-centerssan-lazaro-hospitalquiricada-st-sta-cr/1909593362641522/,
Cotabato Sanitarium Hospital,,,,Treatment Hub,BARMM,,Maguindanao,,Sultan Kudarat,,,,"Bgy. Ungap, Sultan Kudarat, Maguindanao",63 9054085742,7.235815,124.269092,cotsan1936@gmail.com,,http://cotsan.doh.gov.ph/,,,,,
Butuan Doctor's Hospital,,,,Identified HIV Testing/Counselling Facility,CARAGA,,Agusan del Norte,,Butuan City,,,,"J.C. Aquino Ave., Butuan",63 85 3427000 loc. 153; 63 85 8153184,8.94399,125.5223,butuandoctorshospital@yahoo.com.ph,,https://butuandoctors.com/,,,,https://data.gov.ph/?q=dataset/hiv-testing-hospitals,
Butuan Medical Center,,Pallative and Wellness Care Center,Government,Treatment Hub,CARAGA,,Agusan del Norte,,Butuan City,,,,"Km 5 Baan, Butuan City",63 9173208799,8.96196,125.58609,butuanmedicalcenter@yahoo.com,,,,,Mikko Tamura,https://www.doh.gov.ph/sites/default/files/statistics/HIV_2019_April.pdf,
Butuan Social Hygiene Clinic,,,Government,Identified HIV Testing/Counselling Facility,CARAGA,,Agusan del Norte,,Butuan City,,,,"City Health Office, Jose Rosales Avenue, Butuan City",63 85 3423432; 63 85 815111 loc. 1039,8.95357,125.52908,,Mo-Sa 06:00-17:00,,,,Mikko Tamura,https://www.webbline.com/hiv-testing-centers/,
Hi-Precision Diagnostics (Butuan City Branch),,,Private,Identified HIV Testing/Counselling Facility,CARAGA,,Agusan del Norte,,Butuan City,,,,"Watergate Centre J. Rosales Avenue Brgy. Bayanihan, Butuan City, Agusan Del Norte, Mindanao",63 85 8172728,8.95089,125.52974,info@hi-precision.com.ph; hiprecisionbutuan@gmail.com,Mo-Sa 06:00-17:00,https://www.hi-precision.com.ph/,,,John Mojica,https://www.webbline.com/hiv-testing-centers/,
Democrito O. Plaza Memorial Hospital,,HeART Room,Government,Treatment Hub,CARAGA,,Agusan del Sur,,Prosperidad,,,,"P2, Patin-ay, Prosperidad, Agusan del Sur",63 9274698162,8.546091,125.941561,dopmhhospital@yahoo.com,,X,https://www.facebook.com/DOPMH/,,Mikko Tamura,https://www.doh.gov.ph/sites/default/files/statistics/HIV_2019_April.pdf,
Ampayon Main Health Center,,,Government,Identified HIV Testing/Counselling Facility,CARAGA,,Agusan del Norte,,Butuan City,,,,,63 9088893384,8.96097,125.60263,,Mo-Fr 08:00-16:00,,,,,https://www.facebook.com/RedTentPh/posts/list-of-hiv-testing-and-counseling-centerssan-lazaro-hospitalquiricada-st-sta-cr/1909593362641522/,
Butuan City Health Office,,,Government,Identified HIV Testing/Counselling Facility,CARAGA,,Agusan del Norte,,Butuan City,,,,"Butuan Medical Center Compound, Km. 5 Baan, Butuan City",63 85 3423432,8.96122,125.58563,,,X,https://www.facebook.com/ButuanCHO/,,Franklin Maraya,https://www.facebook.com/RedTentPh/posts/list-of-hiv-testing-and-counseling-centerssan-lazaro-hospitalquiricada-st-sta-cr/1909593362641522/,
Libertad Main Health Center,,,Government,Identified HIV Testing/Counselling Facility,CARAGA,,Agusan del Norte,,Butuan City,,,,"G/F Libertad Brgy Hall, Butuan City",63 85 8175833,8.943399,125.502131,,Mo-Fr 08:00-16:00,,,,Jess Garay; Franklin Maraya,https://www.facebook.com/RedTentPh/posts/list-of-hiv-testing-and-counseling-centerssan-lazaro-hospitalquiricada-st-sta-cr/1909593362641522/,
Obrero Main Health Center,,,Government,Identified HIV Testing/Counselling Facility,CARAGA,,Agusan del Norte,,Butuan City,,,,"Obrero Main Health Center, Brgy. Obrero, Butuan City,",63 85 8163468,8.963412,125.537685,,Mo-Fr 08:00-16:00,,,,Franklin Maraya,https://www.facebook.com/RedTentPh/posts/list-of-hiv-testing-and-counseling-centerssan-lazaro-hospitalquiricada-st-sta-cr/1909593362641522/,
Surigao Social Hygiene Clinic,,,Government,Identified HIV Testing/Counselling Facility,CARAGA,,Surigao del Norte,,Surigao CIity,,,,"Provincial Health Office. Capitol Road, Surigao City",63 86 8263006,9.7821,125.4889,,,,,,Carmela Magayanes/Mikko,https://www.webbline.com/hiv-testing-centers/,
CARAGA Regional Hospital,,OP Wellness Center,Government,Treatment Hub,CARAGA,,Surigao del Norte,,Surigao City,,,,"Rizal Street, Brgy. Washington Roxas Street, Surigao City, Surigao del Norte",63 86 8260568; 63 9173068186,9.7844,125.489969,caragahospital@gmail.com,,http://crh.doh.gov.ph/,,,,https://www.doh.gov.ph/sites/default/files/statistics/HIV_2019_April.pdf,
Andres Soriano Memorial Hospital,,,Government,Identified HIV Testing/Counselling Facility,CARAGA,,Surigao del Sur,,Bislig,,,,"P1 Cumawas, Surigao del Sur",63 86 8531199; 63 86 8533124,8.18351,126.34119,,,X,https://www.facebook.com/Andres-Soriano-Memorial-Hospital-Cooperative-ASMHC-107944497503812/,,,https://data.gov.ph/?q=dataset/hiv-testing-hospitals,
Bislig City Health Office,,,Government,Identified HIV Testing/Counselling Facility,CARAGA,,Surigao del Sur,,Bislig,,,,"City Hall Building, Montero Street, Poblacion, Bislig, 8311 Surigao del Sur",63 86 8536219; 63 86 8535338,8.21321,126.31611,,,,,,Franklin Maraya/Mikko,https://www.webbline.com/hiv-testing-centers/,
Adela Serra Ty Memorial Medical Center,,SDS Wellness Center,Government,Treatment Hub,CARAGA,,Surigao del Sur,,Tandag,,,,"Capitol Hills, Telaje, Tandag, Surigao del Sur",63 86 2114306,9.068712,126.190244,astmmc_doh13@live.com.ph,,http://www.astmmc.doh.gov.ph/,,,Mikko Tamura,https://www.doh.gov.ph/sites/default/files/statistics/HIV_2019_April.pdf,
Corazon C. Aquino Memorial Hospital,,,Government,Treatment Hub,Region IX,,Zamboanga del Norte,,Dipolog CIty,,,,"Basong Dipolog, Zamboanga del Norte",63 65 2125555,8.592691,123.344153,corazonaquinohospital123@gmail.com,,,,,,https://www.doh.gov.ph/sites/default/files/statistics/HIV_2019_April.pdf,
The AGAPE Health Care Center,,,Private,Identified HIV Testing/Counselling Facility,Region IX,,Zamboanga del Norte,,Dipolog CIty,,,,"35/F Herrera Corner T. Claudio St., Dipolog",63 65 2127055; 63 9178386893,8.583347,123.344197,,,,,,Mikko Tamura,https://www.webbline.com/hiv-testing-centers/,
Margosatubig Regional Hospital,,,Government,Treatment Hub,Region IX,,Zamboanga del Sur,,Margosatubig,,,,"F. Nightingale St, Margosatubig, 7035 ZDS",63 9177001500; 63 9452954381,7.575333,123.164475,,,,,,Mikko Tamura,https://www.doh.gov.ph/sites/default/files/statistics/HIV_2019_April.pdf,
Pagadian Doctor's Hospital,,,,Identified HIV Testing/Counselling Facility,Region IX,,Zamboanga del Sur,,Pagadian City,,,,,63 9177032167; 63 _62 2143943,7.830276,123.446405,pagadiandoc@yahoo.com,Mo-Fr 08:00-17:00,,,,,#safelyph application by The Red Whistle,
San Pedro Social Hygiene Clinic,,,Government,Identified HIV Testing/Counselling Facility,Region IX,,Zamboanga del Sur,,Pagadian City,,,,(At the back of Gaisano Mall),63 62 2141966,7.824181,123.443808,,,,,,,https://www.facebook.com/RedTentPh/posts/list-of-hiv-testing-and-counseling-centerssan-lazaro-hospitalquiricada-st-sta-cr/1909593362641522/,
Zamboanga City Medical Center,,,Government,Treatment Hub,Region IX,,Zamboanga del Sur,,Zamboanga City,,,,"Dr. Evangelista St., Sta. Catalina, Zamboanga City",63 62 9912934; 63 9956201222,6.906922,122.081222,doh9_zcmc@yahoo.com,Mo-Fr 08:00-17:00,http://zcmc.doh.gov.ph/,,,Mikko Tamura,https://www.doh.gov.ph/sites/default/files/statistics/HIV_2019_April.pdf,
Pathfinder Estate Hospital,,,,Primary HIV Care Facility,Region IX,,Zamboanga Sibugay,,Kabasalan,,,,Kabasalan Zamboanga Sibugay,63 9269904890,7.796506,122.767357,,,,,,,,
Bukidnon Provincial Medical Center,,,Government,Treatment Hub,Region X,,Bukidnon,,Malaybalay,,,,"Sayre Highway, Malaybalay, Bukidnon",63 9177198179,8.127875,125.129162,csgalve@yahoo.com; d_0131hernandez@yahoo.com; junelyncartin@yahoo.com,,,,,,,
Maramag Municipal Health Office,,IV/AIDS Primary Care Services Integration of Maramag,Government,Primary HIV Care Facility,Region X,,Bukidnon,,Maramag,,,,Dionisio Micayabas St. Maramag Bukidnon,63 9177025990,7.78051,125.011495,,,,,,,https://www.doh.gov.ph/sites/default/files/statistics/HIV_2019_April.pdf,
Adventist Medical Center,Mindanao Sanitarium and Hospital,,Private,Treatment Hub,Region X,,Lanao Del Norte,,Iligan City,,,,"Andres Bonficacio Ave, Sn Miguel, Iligan",63 9177025990; 63 9177155200,8.24092,124.247341,,,,,,,,
Iligan Social Hygiene Clinic,,,Government,Identified HIV Testing/Counselling Facility,Region X,,Lanao Del Norte,,Iligan City,,,,,63 63 2216174,8.227577,124.241559,,,,,,,https://www.facebook.com/RedTentPh/posts/list-of-hiv-testing-and-counseling-centerssan-lazaro-hospitalquiricada-st-sta-cr/1909593362641522/,
Mayor Hilarion A. Ramiro Sr. Regional and Teaching Hospital,,,Government,Treatment Hub,Region X,,Misamis Occidental,,Ozamis City,,,,"Bacolod , 7200 Ozamis City , Misamis Occidental",63 88 5210022; 63 9278878841,8.169677,123.858533,,,,,,,https://www.doh.gov.ph/sites/default/files/statistics/HIV_2019_April.pdf,
City Health Office of Cagayan de Oro - Social Hygiene Clinic,,,Government,Identified HIV Testing/Counselling Facility,Region X,,Misamis Oriental,,Cagayan de Oro City,,,,"City Health Department, Hayes St, Cagayan de Oro, Misamis Oriental",63 88 2721189,8.474932,124.648888,,Mo-Fr 08:00-17:00,,,,John Mojica,https://www.webbline.com/hiv-testing-centers/,
Dr. Uy Hospital Clinical Laboratory,,,,Identified HIV Testing/Counselling Facility,Region X,,Lanao Del Norte,,Iligan City,,,,"88 Roxas Ave., Iligan LDN",63 63 2254530; 63 63 2212096; 63 63 2281140,8.227292,124.240455,druyhospitalinc@yahoo.com,,X,https://www.facebook.com/dr.uyhospitalinc/,,,https://data.gov.ph/?q=dataset/hiv-testing-hospitals,
Mercy Community Hospital,,,,Identified HIV Testing/Counselling Facility,Region X,,Lanao Del Norte,,Iligan City,,,,"Camaque, Iligan City",63 63 2213587; 63 63 2211156,8.214939,124.231248,,,X,https://www.facebook.com/mchi.officialpage/,,,https://data.gov.ph/?q=dataset/hiv-testing-hospitals,
Misamis University Medical Center,,,,Identified HIV Testing/Counselling Facility,Region X,,MIsamis Oriental,,Misamis City,,,,"Bagakay, Misamis City",63 88 5212411; 63 88 5212413,8.147155,123.818198,,,,,,,https://data.gov.ph/?q=dataset/hiv-testing-hospitals,
Northern Mindanao Medical Center,,,Government,Treatment Hub,Region X,,Misamis Oriental,,Cagayan de Oro City,,,,"Provincial Capitol Compound, Cagayan de Oro City",63 82 8564147; 63 9453658873,8.48547,124.64976,nmmc_cdo@yahoo.com,"Mo-Tu,Th 8:00-17:00; We,Fr 8:00-20:00",X,https://www.facebook.com/pages/Northern-Mindanao-Medical-Center/198333683529908,,Mikko Tamura,https://www.doh.gov.ph/sites/default/files/statistics/HIV_2019_April.pdf,
Philippine Red Cross Misamis Oriental Chapter,,,NGO,Identified HIV Testing/Counselling Facility,Region X,,MIsamis Oriental,,Cagayan de Oro City,,,,"Capitol Compound, CDO",63 88 8568855; 63 88 8566647,8.484796,124.649269,,,,,,Maning,https://data.gov.ph/?q=dataset/hiv-testing-hospitals,
Maria Reyna-Xavier University Hospital,,,Private,Identified HIV Testing/Counselling Facility,Region X,,MIsamis Oriental,,Cagayan de Oro City,,,,"Pinikitan, CDO",63 8822 725210; 63 8822 725103; 63 88 8571766,8.475529,124.655074,,,https://www.mrxuh.com/,,,,https://data.gov.ph/?q=dataset/hiv-testing-hospitals,
Compostela Valley Provincial Hospital,,,Government,Identified HIV Testing/Counselling Facility,Region XI,,Compostella Valley,,Montevista,,,,"Compostela Valley Provincial Hospital, AH26, Montevista, Compostela Valley",63 9161983047,7.725706,125.991642,,,,,,,https://www.facebook.com/RedTentPh/posts/list-of-hiv-testing-and-counseling-centerssan-lazaro-hospitalquiricada-st-sta-cr/1909593362641522/,
Rivera Medical Center Inc.,,,,Identified HIV Testing/Counselling Facility,Region XI,,Davao del Norte,,Panabo City,,,,"7302 Brgy. San Francisco, Panabo City",63 84 6285234; 63 84 8226409,7.313083,125.685614,,,http://www.rmci.com.ph/,,,,https://data.gov.ph/?q=dataset/hiv-testing-hospitals,
Davao Regional Medical Center,,RED STAR Clinic,Government,Treatment Hub,Region XI,,Davao del Norte,,Tagum City,,,,"Apokon, Tagum City",63 84 4003347; 63 9239598931; 63 9215402067,7.42164,125.82805,drmc_mcc@yahoo com,Mo-Fr 07:00-18:00,http://drmc.doh.gov.ph/,,,Mikko Tamura,https://www.doh.gov.ph/sites/default/files/statistics/HIV_2019_April.pdf,
Davao City Reproductive Health and Wellness Center,,,Government,Primary HIV Care Facility,Region XI,,Davao del Sur,,Davao City,,,,"Emilio Jacinto St., Poblacion District, Davao City, Davao del Sur",63 82 2224187,7.068732,125.616648,davaohealth@yahoo.com,Mo-Fr 08:00-15:00,,,,,https://www.doh.gov.ph/sites/default/files/statistics/HIV_2019_April.pdf,
Davao Doctors Hospital,,ARTU,Private,Treatment Hub,Region XI,,Davao del Sur,,Davao City,,,,"118 E Quirino Avenue, Poblacion District, Davao City",63 82 2228000 loc. 7105,8.471592,124.647855,info@ddh.com.ph,Mo-Fr 08:00-16:00,http://www.ddh.com.ph/,,,,https://www.doh.gov.ph/sites/default/files/statistics/HIV_2019_April.pdf,
Southern Philippines Medical Center,,,Government,Treatment Hub,Region XI,,Davao del Sur,,Davao City,,,,"J.P. Laurel Ave, Bajada, Davao City, 8000 Davao del Sur",63 82 2272731 loc. 5140; 63 82 3217061,7.098514,125.619924,coh.spmc@gmail.co,Mo-Su 00:00-23:59,,,,John Mojica,https://www.doh.gov.ph/sites/default/files/statistics/HIV_2019_April.pdf,
Davao Oriental Provincial Medical Center,,,Government,Identified HIV Testing/Counselling Facility,Region XI,,Davao Oriental,,Mati,,,,"Pres. D. P. Macapagal National Hwy, Mati 8200
",63 87 3884174,6.944414,126.24281,,,,,,,https://www.facebook.com/RedTentPh/posts/list-of-hiv-testing-and-counseling-centerssan-lazaro-hospitalquiricada-st-sta-cr/1909593362641522/,
South Cotabato Provincial Hospital,,IPHO-SCPH HACT Clinic,Government,Treatment Hub,Region XII,,South Cotabato,,Koronadal City,,,,"Aguinaldo St., Koronadal City, South Cotabato",63 83 2284571,6.492896,124.838996,scph69@gmail.com,,,,,,https://www.doh.gov.ph/sites/default/files/statistics/HIV_2019_April.pdf,
General Santos City Hospital,Dr. Jorge P. Royeca Hospital,,Government,Treatment Hub,Region XII,,Cotabato,,Gen. Santos City,,,,"E. Fernandez St. Bgy. Lagao, General Santos City",63 83 5521357,6.125832,125.185904,gscph69@gmail.com,,,,,,,
General Santos Social Hygiene Clinic,,,Government,Treatment Hub,Region XII,,Cotabato,,Gen. Santos City,,,,"City Health Office, Fernandez St., Lagao, General Santos City",63 83 3028115; 63 9088877512; 63 9198483116,6.125302,125.184959,,,,,,,https://www.doh.gov.ph/sites/default/files/statistics/HIV_2019_April.pdf,
Cotabato Provincial Hospital,,,Government,Treatment Hub,Region XII,,Cotabato,,Kidapawan,,,,"Amas, Kidapawan City",63 9302567522,7.057082,124.971889,,,,,,,,
Amado B. Diaz Provincial Foundation Hospital,,,Government,Treatment Hub,Region XII,,North Cotabato,,Midsayap,,,,"Roosevelt St. Poblacion 4, Midsayap North Cotabato",63 83 5521357,7.131765,124.525903,,,,,,,,
Allah Valley Medical Specialists Center,,,,Treatment Hub,Region XII,,South Cotabato,,Koronadal City,,,,"Purok Villegas, General Santos Drive, Koronadal City",63 9491631598,6.478456,124.867418,gvmscihro@gmail.com,,X,https://facebook.com/AVMSCIHospitalofficial/,,,,
Dr. Arturo P. Pingoy Medical Center,,,,Treatment Hub,Region XII,,South Cotabato,,Koronadal City,,,,"General Santos Drive, Zone IV,Koronadal City",63 9174090537,6.505248,124.837121,dchikoronadal@gmail.com,,,,,,,
Sultan Kudarat Provincial Hospital,,,Government,Identified HIV Testing/Counselling Facility,Region XII,,Sultan Kudarat,,Isulan,,,,"Isulan - Tacurong City Rd, Isulan, Sultan Kudarat",63 64 2013033,6.643946,124.608041,galinato_md@yahoo.com; nemia_estabillo@yahoo.com,,,,,Allen Motas,https://www.facebook.com/RedTentPh/posts/list-of-hiv-testing-and-counseling-centerssan-lazaro-hospitalquiricada-st-sta-cr/1909593362641522/,
Kalamansig Rural Health Unit,,,Government,Primary HIV Care Facility,Region XII,,Sultan Kudarat,,Kalamansig,,,,"Poblacion Kalamansig, Sultan Kudarat Province",63 64 2046113,6.555519,124.051026,,,,,,,,
Oro Pia Lounge,,,NGO,Primary HIV Care Facility,Region X,,Misamis Oriental,,Cagayan de Oro City,,,,"Gate 2 & 3, Nuevas Bldg. 8-21 Streets, Cagayan de Oro",63 9069160711; 63 9959918622; 63 9772801130,8.471592,124.647855,kagayanplus@gmail.com,Mo-Fr 08:00-20:00,X,https://www.facebook.com/OroPiaKPLUSxTLY/,,,,
Davao del Sur Provincial Hospital,,,Government,Primary HIV Care Facility,Region XI,,Davao del Sur,,Digos City,,,,"Lapu-Lapu St, Digos, Davao del Sur",63 82 5532682; 63 82 2722383,6.743815,125.361347,,,,,"Alternative to SPMC, RHWC",,,